# SITE MONITOR TYPE = 1|STATE_CODE|STATE_NAME|COUNTY_CODE|COUNTY_NAME|SITE_ID|PARAMETER_CODE|PARAMETER_DESC|POC|CITY_CODE|CITY_NAME|STREET_ADDRESS|AQCR_CODE|AQCR_NAME|CBSA_CODE|CBSA_NAME|CSA_CODE|CSA_NAME|EPA_REGION|MON_OBJ1|MON_OBJ2|MON_OBJ3|UAR_CODE|UAR_NAME|LAND_USE|LOC_SET|LATITUDE|LONGITUDE|UTM_ZONE|UTM_NORTHING|UTM_EASTING|HORIZ_COLLECT|HORIZ_METHOD|HORIZ_DATUM|HORIZ_ACC|HORIZ_SCALE|ELEVATION_MSL|VERT_COLLECT|VERT_METHOD|VERT_DATUM|VERT_ACC
# RAW DATA TYPE = 2|STATE_CODE|COUNTY_CODE|SITE_ID|PARAMETER_CODE|POC|DURATION|METHOD|UNITS|MDL|UNCERTAINTY|REPORTED CF|RCF|MT|PQAO|PQAO_NAME|SAMPLE_DATE|VALUE_0|QUALIFIER_0|VALUE_1|QUALIFIER_1|VALUE_2|QUALIFIER_2|VALUE_3|QUALIFIER_3|VALUE_4|QUALIFIER_4|VALUE_5|QUALIFIER_5|VALUE_6|QUALIFIER_6|VALUE_7|QUALIFIER_7|VALUE_8|QUALIFIER_8|VALUE_9|QUALIFIER_9|VALUE_10|QUALIFIER_10|VALUE_11|QUALIFIER_11|VALUE_12|QUALIFIER_12|VALUE_13|QUALIFIER_13|VALUE_14|QUALIFIER_14|VALUE_15|QUALIFIER_15|VALUE_16|QUALIFIER_16|VALUE_17|QUALIFIER_17|VALUE_18|QUALIFIER_18|VALUE_19|QUALIFIER_19|VALUE_20|QUALIFIER_20|VALUE_21|QUALIFIER_21|VALUE_22|QUALIFIER_22|VALUE_23|QUALIFIER_23
# NAAQS DATA TYPE = 3|STATE_CODE|COUNTY_CODE|SITE_ID|PARAMETER_CODE|POC|DURATION|UNITS|MT|PQAO|PQAO_NAME|SAMPLE_DATE|VALUE_0|QUALIFIER_0|VALUE_1|QUALIFIER_1|VALUE_2|QUALIFIER_2|VALUE_3|QUALIFIER_3|VALUE_4|QUALIFIER_4|VALUE_5|QUALIFIER_5|VALUE_6|QUALIFIER_6|VALUE_7|QUALIFIER_7|VALUE_8|QUALIFIER_8|VALUE_9|QUALIFIER_9|VALUE_10|QUALIFIER_10|VALUE_11|QUALIFIER_11|VALUE_12|QUALIFIER_12|VALUE_13|QUALIFIER_13|VALUE_14|QUALIFIER_14|VALUE_15|QUALIFIER_15|VALUE_16|QUALIFIER_16|VALUE_17|QUALIFIER_17|VALUE_18|QUALIFIER_18|VALUE_19|QUALIFIER_19|VALUE_20|QUALIFIER_20|VALUE_21|QUALIFIER_21|VALUE_22|QUALIFIER_22|VALUE_23|QUALIFIER_23
# OTHER DATA TYPE = 4|STATE_CODE|COUNTY_CODE|SITE_ID|PARAMETER_CODE|POC|DURATION|METHOD|UNITS|MDL|UNCERTAINTY|MT|PQAO|PQAO_NAME|SAMPLE_DATE|VALUE|QUALIFIER|COMP_TYPE|SAMPLE_CNT
1|06|California|079|San Luis Obispo|2004|88101|PM2.5 - Local Conditions|1|51476|Nipomo|1300 GUADALUPE RD., NIPOMO, CA., 93444|032|SOUTH CENTRAL COAST|42020|San Luis Obispo-Paso Robles-Arroyo Grande, CA|||09|SOURCE ORIENTED|||7460|SAN LUIS OBISPO, CA|INDUSTRIAL|RURAL|35.02083|-120.56388||||103|GPS|WGS84|15|0|49|001|GPS CARRIER PHASE STATIC RELATIVE POSITION|UNKNOWN|15
2|06|079|2004|88101|1|X|170|105|5|||1|SLAMS|0145|California Air Resources Board|20180101|11.5|||||||||||||||||||||||||||||||||||||||||||||||
2|06|079|2004|88101|1|X|170|105|5|||1|SLAMS|0145|California Air Resources Board|20180102|7.2|||||||||||||||||||||||||||||||||||||||||||||||
2|06|079|2004|88101|1|X|170|105|5|||1|SLAMS|0145|California Air Resources Board|20180103|5.9|||||||||||||||||||||||||||||||||||||||||||||||
2|06|079|2004|88101|1|X|170|105|5|||1|SLAMS|0145|California Air Resources Board|20180104|3.1|||||||||||||||||||||||||||||||||||||||||||||||
2|06|079|2004|88101|1|X|170|105|5|||1|SLAMS|0145|California Air Resources Board|20180105|2.1|||||||||||||||||||||||||||||||||||||||||||||||
2|06|079|2004|88101|1|X|170|105|5|||1|SLAMS|0145|California Air Resources Board|20180106|3.7|||||||||||||||||||||||||||||||||||||||||||||||
2|06|079|2004|88101|1|X|170|105|5|||1|SLAMS|0145|California Air Resources Board|20180107|3.6|||||||||||||||||||||||||||||||||||||||||||||||
2|06|079|2004|88101|1|X|170|105|5|||1|SLAMS|0145|California Air Resources Board|20180108|1.0|||||||||||||||||||||||||||||||||||||||||||||||
2|06|079|2004|88101|1|X|170|105|5|||1|SLAMS|0145|California Air Resources Board|20180109|.4|||||||||||||||||||||||||||||||||||||||||||||||
2|06|079|2004|88101|1|X|170|105|5|||1|SLAMS|0145|California Air Resources Board|20180110|7.3|||||||||||||||||||||||||||||||||||||||||||||||
2|06|079|2004|88101|1|X|170|105|5|||1|SLAMS|0145|California Air Resources Board|20180111|6.1|||||||||||||||||||||||||||||||||||||||||||||||
2|06|079|2004|88101|1|X|170|105|5|||1|SLAMS|0145|California Air Resources Board|20180112|7.8|||||||||||||||||||||||||||||||||||||||||||||||
2|06|079|2004|88101|1|X|170|105|5|||1|SLAMS|0145|California Air Resources Board|20180113|12.3|||||||||||||||||||||||||||||||||||||||||||||||
2|06|079|2004|88101|1|X|170|105|5|||1|SLAMS|0145|California Air Resources Board|20180114|5.2|||||||||||||||||||||||||||||||||||||||||||||||
2|06|079|2004|88101|1|X|170|105|5|||1|SLAMS|0145|California Air Resources Board|20180115|5.5|||||||||||||||||||||||||||||||||||||||||||||||
2|06|079|2004|88101|1|X|170|105|5|||1|SLAMS|0145|California Air Resources Board|20180116|8.9|||||||||||||||||||||||||||||||||||||||||||||||
2|06|079|2004|88101|1|X|170|105|5|||1|SLAMS|0145|California Air Resources Board|20180117|9.0|||||||||||||||||||||||||||||||||||||||||||||||
2|06|079|2004|88101|1|X|170|105|5|||1|SLAMS|0145|California Air Resources Board|20180118|4.3|||||||||||||||||||||||||||||||||||||||||||||||
2|06|079|2004|88101|1|X|170|105|5|||1|SLAMS|0145|California Air Resources Board|20180119|2.2|||||||||||||||||||||||||||||||||||||||||||||||
2|06|079|2004|88101|1|X|170|105|5|||1|SLAMS|0145|California Air Resources Board|20180120|6.1|||||||||||||||||||||||||||||||||||||||||||||||
2|06|079|2004|88101|1|X|170|105|5|||1|SLAMS|0145|California Air Resources Board|20180121|8.0|||||||||||||||||||||||||||||||||||||||||||||||
2|06|079|2004|88101|1|X|170|105|5|||1|SLAMS|0145|California Air Resources Board|20180122|8.2|||||||||||||||||||||||||||||||||||||||||||||||
2|06|079|2004|88101|1|X|170|105|5|||1|SLAMS|0145|California Air Resources Board|20180123|7.3|||||||||||||||||||||||||||||||||||||||||||||||
2|06|079|2004|88101|1|X|170|105|5|||1|SLAMS|0145|California Air Resources Board|20180124|6.5|||||||||||||||||||||||||||||||||||||||||||||||
2|06|079|2004|88101|1|X|170|105|5|||1|SLAMS|0145|California Air Resources Board|20180125|3.5|||||||||||||||||||||||||||||||||||||||||||||||
2|06|079|2004|88101|1|X|170|105|5|||1|SLAMS|0145|California Air Resources Board|20180126|5.0|||||||||||||||||||||||||||||||||||||||||||||||
2|06|079|2004|88101|1|X|170|105|5|||1|SLAMS|0145|California Air Resources Board|20180127|9.3|||||||||||||||||||||||||||||||||||||||||||||||
2|06|079|2004|88101|1|X|170|105|5|||1|SLAMS|0145|California Air Resources Board|20180128|9.9|||||||||||||||||||||||||||||||||||||||||||||||
2|06|079|2004|88101|1|X|170|105|5|||1|SLAMS|0145|California Air Resources Board|20180129|6.1|||||||||||||||||||||||||||||||||||||||||||||||
2|06|079|2004|88101|1|X|170|105|5|||1|SLAMS|0145|California Air Resources Board|20180130|5.0|||||||||||||||||||||||||||||||||||||||||||||||
2|06|079|2004|88101|1|X|170|105|5|||1|SLAMS|0145|California Air Resources Board|20180131|5.0|||||||||||||||||||||||||||||||||||||||||||||||
2|06|079|2004|88101|1|X|170|105|5|||1|SLAMS|0145|California Air Resources Board|20180201|5.8|||||||||||||||||||||||||||||||||||||||||||||||
2|06|079|2004|88101|1|X|170|105|5|||1|SLAMS|0145|California Air Resources Board|20180202|8.7|||||||||||||||||||||||||||||||||||||||||||||||
2|06|079|2004|88101|1|X|170|105|5|||1|SLAMS|0145|California Air Resources Board|20180203|9.0|||||||||||||||||||||||||||||||||||||||||||||||
2|06|079|2004|88101|1|X|170|105|5|||1|SLAMS|0145|California Air Resources Board|20180204|8.4|||||||||||||||||||||||||||||||||||||||||||||||
2|06|079|2004|88101|1|X|170|105|5|||1|SLAMS|0145|California Air Resources Board|20180205|9.2|||||||||||||||||||||||||||||||||||||||||||||||
2|06|079|2004|88101|1|X|170|105|5|||1|SLAMS|0145|California Air Resources Board|20180206|12.2|||||||||||||||||||||||||||||||||||||||||||||||
2|06|079|2004|88101|1|X|170|105|5|||1|SLAMS|0145|California Air Resources Board|20180207|10.5|||||||||||||||||||||||||||||||||||||||||||||||
2|06|079|2004|88101|1|X|170|105|5|||1|SLAMS|0145|California Air Resources Board|20180208|7.4|||||||||||||||||||||||||||||||||||||||||||||||
2|06|079|2004|88101|1|X|170|105|5|||1|SLAMS|0145|California Air Resources Board|20180209|9.5|||||||||||||||||||||||||||||||||||||||||||||||
2|06|079|2004|88101|1|X|170|105|5|||1|SLAMS|0145|California Air Resources Board|20180210|14.0|||||||||||||||||||||||||||||||||||||||||||||||
2|06|079|2004|88101|1|X|170|105|5|||1|SLAMS|0145|California Air Resources Board|20180211|8.0|||||||||||||||||||||||||||||||||||||||||||||||
2|06|079|2004|88101|1|X|170|105|5|||1|SLAMS|0145|California Air Resources Board|20180212|5.1|||||||||||||||||||||||||||||||||||||||||||||||
2|06|079|2004|88101|1|X|170|105|5|||1|SLAMS|0145|California Air Resources Board|20180213|7.9|||||||||||||||||||||||||||||||||||||||||||||||
2|06|079|2004|88101|1|X|170|105|5|||1|SLAMS|0145|California Air Resources Board|20180214|6.6|||||||||||||||||||||||||||||||||||||||||||||||
2|06|079|2004|88101|1|X|170|105|5|||1|SLAMS|0145|California Air Resources Board|20180215|9.3|||||||||||||||||||||||||||||||||||||||||||||||
2|06|079|2004|88101|1|X|170|105|5|||1|SLAMS|0145|California Air Resources Board|20180216|11.5|||||||||||||||||||||||||||||||||||||||||||||||
2|06|079|2004|88101|1|X|170|105|5|||1|SLAMS|0145|California Air Resources Board|20180217|9.3|||||||||||||||||||||||||||||||||||||||||||||||
2|06|079|2004|88101|1|X|170|105|5|||1|SLAMS|0145|California Air Resources Board|20180218|12.8|||||||||||||||||||||||||||||||||||||||||||||||
2|06|079|2004|88101|1|X|170|105|5|||1|SLAMS|0145|California Air Resources Board|20180219|12.1|||||||||||||||||||||||||||||||||||||||||||||||
2|06|079|2004|88101|1|X|170|105|5|||1|SLAMS|0145|California Air Resources Board|20180220|9.2|||||||||||||||||||||||||||||||||||||||||||||||
2|06|079|2004|88101|1|X|170|105|5|||1|SLAMS|0145|California Air Resources Board|20180221|7.1|||||||||||||||||||||||||||||||||||||||||||||||
2|06|079|2004|88101|1|X|170|105|5|||1|SLAMS|0145|California Air Resources Board|20180222|10.2|||||||||||||||||||||||||||||||||||||||||||||||
2|06|079|2004|88101|1|X|170|105|5|||1|SLAMS|0145|California Air Resources Board|20180223|12.7|||||||||||||||||||||||||||||||||||||||||||||||
2|06|079|2004|88101|1|X|170|105|5|||1|SLAMS|0145|California Air Resources Board|20180224|12.5|||||||||||||||||||||||||||||||||||||||||||||||
2|06|079|2004|88101|1|X|170|105|5|||1|SLAMS|0145|California Air Resources Board|20180225|10.7|||||||||||||||||||||||||||||||||||||||||||||||
2|06|079|2004|88101|1|X|170|105|5|||1|SLAMS|0145|California Air Resources Board|20180226|6.5|||||||||||||||||||||||||||||||||||||||||||||||
2|06|079|2004|88101|1|X|170|105|5|||1|SLAMS|0145|California Air Resources Board|20180227|5.3|||||||||||||||||||||||||||||||||||||||||||||||
2|06|079|2004|88101|1|X|170|105|5|||1|SLAMS|0145|California Air Resources Board|20180228|7.0|||||||||||||||||||||||||||||||||||||||||||||||
2|06|079|2004|88101|1|X|170|105|5|||1|SLAMS|0145|California Air Resources Board|20180301|3.0|||||||||||||||||||||||||||||||||||||||||||||||
2|06|079|2004|88101|1|X|170|105|5|||1|SLAMS|0145|California Air Resources Board|20180302|3.6|||||||||||||||||||||||||||||||||||||||||||||||
2|06|079|2004|88101|1|X|170|105|5|||1|SLAMS|0145|California Air Resources Board|20180303|2.0|||||||||||||||||||||||||||||||||||||||||||||||
2|06|079|2004|88101|1|X|170|105|5|||1|SLAMS|0145|California Air Resources Board|20180304|5.2|||||||||||||||||||||||||||||||||||||||||||||||
2|06|079|2004|88101|1|X|170|105|5|||1|SLAMS|0145|California Air Resources Board|20180310|1.8|||||||||||||||||||||||||||||||||||||||||||||||
2|06|079|2004|88101|1|X|170|105|5|||1|SLAMS|0145|California Air Resources Board|20180311|-.6|||||||||||||||||||||||||||||||||||||||||||||||
2|06|079|2004|88101|1|X|170|105|5|||1|SLAMS|0145|California Air Resources Board|20180312|-1.0|||||||||||||||||||||||||||||||||||||||||||||||
2|06|079|2004|88101|1|X|170|105|5|||1|SLAMS|0145|California Air Resources Board|20180314|-.5|||||||||||||||||||||||||||||||||||||||||||||||
2|06|079|2004|88101|1|X|170|105|5|||1|SLAMS|0145|California Air Resources Board|20180315|.8|||||||||||||||||||||||||||||||||||||||||||||||
2|06|079|2004|88101|1|X|170|105|5|||1|SLAMS|0145|California Air Resources Board|20180316|1.0|||||||||||||||||||||||||||||||||||||||||||||||
2|06|079|2004|88101|1|X|170|105|5|||1|SLAMS|0145|California Air Resources Board|20180317|1.2|||||||||||||||||||||||||||||||||||||||||||||||
2|06|079|2004|88101|1|X|170|105|5|||1|SLAMS|0145|California Air Resources Board|20180318|1.7|||||||||||||||||||||||||||||||||||||||||||||||
2|06|079|2004|88101|1|X|170|105|5|||1|SLAMS|0145|California Air Resources Board|20180319|2.3|||||||||||||||||||||||||||||||||||||||||||||||
2|06|079|2004|88101|1|X|170|105|5|||1|SLAMS|0145|California Air Resources Board|20180320|.1|||||||||||||||||||||||||||||||||||||||||||||||
2|06|079|2004|88101|1|X|170|105|5|||1|SLAMS|0145|California Air Resources Board|20180321|-1.9|||||||||||||||||||||||||||||||||||||||||||||||
2|06|079|2004|88101|1|X|170|105|5|||1|SLAMS|0145|California Air Resources Board|20180322|-.1|||||||||||||||||||||||||||||||||||||||||||||||
2|06|079|2004|88101|1|X|170|105|5|||1|SLAMS|0145|California Air Resources Board|20180323|4.4|||||||||||||||||||||||||||||||||||||||||||||||
2|06|079|2004|88101|1|X|170|105|5|||1|SLAMS|0145|California Air Resources Board|20180324|2.0|||||||||||||||||||||||||||||||||||||||||||||||
2|06|079|2004|88101|1|X|170|105|5|||1|SLAMS|0145|California Air Resources Board|20180325|5.6|||||||||||||||||||||||||||||||||||||||||||||||
2|06|079|2004|88101|1|X|170|105|5|||1|SLAMS|0145|California Air Resources Board|20180326|8.8|||||||||||||||||||||||||||||||||||||||||||||||
2|06|079|2004|88101|1|X|170|105|5|||1|SLAMS|0145|California Air Resources Board|20180327|3.6|||||||||||||||||||||||||||||||||||||||||||||||
2|06|079|2004|88101|1|X|170|105|5|||1|SLAMS|0145|California Air Resources Board|20180328|5.2|||||||||||||||||||||||||||||||||||||||||||||||
2|06|079|2004|88101|1|X|170|105|5|||1|SLAMS|0145|California Air Resources Board|20180329|1.9|||||||||||||||||||||||||||||||||||||||||||||||
2|06|079|2004|88101|1|X|170|105|5|||1|SLAMS|0145|California Air Resources Board|20180330|4.6|||||||||||||||||||||||||||||||||||||||||||||||
2|06|079|2004|88101|1|X|170|105|5|||1|SLAMS|0145|California Air Resources Board|20180331|2.6|||||||||||||||||||||||||||||||||||||||||||||||
2|06|079|2004|88101|1|X|170|105|5|||1|SLAMS|0145|California Air Resources Board|20180401|2.2|||||||||||||||||||||||||||||||||||||||||||||||
2|06|079|2004|88101|1|X|170|105|5|||1|SLAMS|0145|California Air Resources Board|20180402|5.7|||||||||||||||||||||||||||||||||||||||||||||||
2|06|079|2004|88101|1|X|170|105|5|||1|SLAMS|0145|California Air Resources Board|20180403|4.4|||||||||||||||||||||||||||||||||||||||||||||||
2|06|079|2004|88101|1|X|170|105|5|||1|SLAMS|0145|California Air Resources Board|20180404|5.8|||||||||||||||||||||||||||||||||||||||||||||||
2|06|079|2004|88101|1|X|170|105|5|||1|SLAMS|0145|California Air Resources Board|20180405|7.2|||||||||||||||||||||||||||||||||||||||||||||||
2|06|079|2004|88101|1|X|170|105|5|||1|SLAMS|0145|California Air Resources Board|20180406|1.0|||||||||||||||||||||||||||||||||||||||||||||||
2|06|079|2004|88101|1|X|170|105|5|||1|SLAMS|0145|California Air Resources Board|20180407|2.5|||||||||||||||||||||||||||||||||||||||||||||||
2|06|079|2004|88101|1|X|170|105|5|||1|SLAMS|0145|California Air Resources Board|20180408|14.3|||||||||||||||||||||||||||||||||||||||||||||||
2|06|079|2004|88101|1|X|170|105|5|||1|SLAMS|0145|California Air Resources Board|20180409|5.0|||||||||||||||||||||||||||||||||||||||||||||||
2|06|079|2004|88101|1|X|170|105|5|||1|SLAMS|0145|California Air Resources Board|20180410|5.5|||||||||||||||||||||||||||||||||||||||||||||||
2|06|079|2004|88101|1|X|170|105|5|||1|SLAMS|0145|California Air Resources Board|20180411|4.5|||||||||||||||||||||||||||||||||||||||||||||||
2|06|079|2004|88101|1|X|170|105|5|||1|SLAMS|0145|California Air Resources Board|20180412|15.4|||||||||||||||||||||||||||||||||||||||||||||||
2|06|079|2004|88101|1|X|170|105|5|||1|SLAMS|0145|California Air Resources Board|20180413|13.3|||||||||||||||||||||||||||||||||||||||||||||||
2|06|079|2004|88101|1|X|170|105|5|||1|SLAMS|0145|California Air Resources Board|20180414|9.8|||||||||||||||||||||||||||||||||||||||||||||||
2|06|079|2004|88101|1|X|170|105|5|||1|SLAMS|0145|California Air Resources Board|20180415|9.6|||||||||||||||||||||||||||||||||||||||||||||||
2|06|079|2004|88101|1|X|170|105|5|||1|SLAMS|0145|California Air Resources Board|20180416|.8|||||||||||||||||||||||||||||||||||||||||||||||
2|06|079|2004|88101|1|X|170|105|5|||1|SLAMS|0145|California Air Resources Board|20180417|7.6|||||||||||||||||||||||||||||||||||||||||||||||
2|06|079|2004|88101|1|X|170|105|5|||1|SLAMS|0145|California Air Resources Board|20180418|4.9|||||||||||||||||||||||||||||||||||||||||||||||
2|06|079|2004|88101|1|X|170|105|5|||1|SLAMS|0145|California Air Resources Board|20180419|5.1|||||||||||||||||||||||||||||||||||||||||||||||
2|06|079|2004|88101|1|X|170|105|5|||1|SLAMS|0145|California Air Resources Board|20180420|9.9|||||||||||||||||||||||||||||||||||||||||||||||
2|06|079|2004|88101|1|X|170|105|5|||1|SLAMS|0145|California Air Resources Board|20180421|6.3|||||||||||||||||||||||||||||||||||||||||||||||
2|06|079|2004|88101|1|X|170|105|5|||1|SLAMS|0145|California Air Resources Board|20180422|8.0|||||||||||||||||||||||||||||||||||||||||||||||
2|06|079|2004|88101|1|X|170|105|5|||1|SLAMS|0145|California Air Resources Board|20180423|4.2|||||||||||||||||||||||||||||||||||||||||||||||
2|06|079|2004|88101|1|X|170|105|5|||1|SLAMS|0145|California Air Resources Board|20180424|3.9|||||||||||||||||||||||||||||||||||||||||||||||
2|06|079|2004|88101|1|X|170|105|5|||1|SLAMS|0145|California Air Resources Board|20180425|5.5|||||||||||||||||||||||||||||||||||||||||||||||
2|06|079|2004|88101|1|X|170|105|5|||1|SLAMS|0145|California Air Resources Board|20180426|6.5|||||||||||||||||||||||||||||||||||||||||||||||
2|06|079|2004|88101|1|X|170|105|5|||1|SLAMS|0145|California Air Resources Board|20180427|16.7|||||||||||||||||||||||||||||||||||||||||||||||
2|06|079|2004|88101|1|X|170|105|5|||1|SLAMS|0145|California Air Resources Board|20180428|12.8|||||||||||||||||||||||||||||||||||||||||||||||
2|06|079|2004|88101|1|X|170|105|5|||1|SLAMS|0145|California Air Resources Board|20180429|11.1|||||||||||||||||||||||||||||||||||||||||||||||
2|06|079|2004|88101|1|X|170|105|5|||1|SLAMS|0145|California Air Resources Board|20180430|11.5|||||||||||||||||||||||||||||||||||||||||||||||
2|06|079|2004|88101|1|X|170|105|5|||1|SLAMS|0145|California Air Resources Board|20180501|7.0|||||||||||||||||||||||||||||||||||||||||||||||
2|06|079|2004|88101|1|X|170|105|5|||1|SLAMS|0145|California Air Resources Board|20180502|4.5|||||||||||||||||||||||||||||||||||||||||||||||
2|06|079|2004|88101|1|X|170|105|5|||1|SLAMS|0145|California Air Resources Board|20180503|7.3|||||||||||||||||||||||||||||||||||||||||||||||
2|06|079|2004|88101|1|X|170|105|5|||1|SLAMS|0145|California Air Resources Board|20180504|4.5|||||||||||||||||||||||||||||||||||||||||||||||
2|06|079|2004|88101|1|X|170|105|5|||1|SLAMS|0145|California Air Resources Board|20180505|5.8|||||||||||||||||||||||||||||||||||||||||||||||
2|06|079|2004|88101|1|X|170|105|5|||1|SLAMS|0145|California Air Resources Board|20180506|3.5|||||||||||||||||||||||||||||||||||||||||||||||
2|06|079|2004|88101|1|X|170|105|5|||1|SLAMS|0145|California Air Resources Board|20180507|12.2|||||||||||||||||||||||||||||||||||||||||||||||
2|06|079|2004|88101|1|X|170|105|5|||1|SLAMS|0145|California Air Resources Board|20180508|3.9|||||||||||||||||||||||||||||||||||||||||||||||
2|06|079|2004|88101|1|X|170|105|5|||1|SLAMS|0145|California Air Resources Board|20180509|15.3|||||||||||||||||||||||||||||||||||||||||||||||
2|06|079|2004|88101|1|X|170|105|5|||1|SLAMS|0145|California Air Resources Board|20180510|15.7|||||||||||||||||||||||||||||||||||||||||||||||
2|06|079|2004|88101|1|X|170|105|5|||1|SLAMS|0145|California Air Resources Board|20180511|7.0|||||||||||||||||||||||||||||||||||||||||||||||
2|06|079|2004|88101|1|X|170|105|5|||1|SLAMS|0145|California Air Resources Board|20180512|10.1|||||||||||||||||||||||||||||||||||||||||||||||
2|06|079|2004|88101|1|X|170|105|5|||1|SLAMS|0145|California Air Resources Board|20180513|5.5|||||||||||||||||||||||||||||||||||||||||||||||
2|06|079|2004|88101|1|X|170|105|5|||1|SLAMS|0145|California Air Resources Board|20180514|5.2|||||||||||||||||||||||||||||||||||||||||||||||
2|06|079|2004|88101|1|X|170|105|5|||1|SLAMS|0145|California Air Resources Board|20180515|.8|||||||||||||||||||||||||||||||||||||||||||||||
2|06|079|2004|88101|1|X|170|105|5|||1|SLAMS|0145|California Air Resources Board|20180516|1.6|||||||||||||||||||||||||||||||||||||||||||||||
2|06|079|2004|88101|1|X|170|105|5|||1|SLAMS|0145|California Air Resources Board|20180517|13.3|||||||||||||||||||||||||||||||||||||||||||||||
2|06|079|2004|88101|1|X|170|105|5|||1|SLAMS|0145|California Air Resources Board|20180518|7.0|||||||||||||||||||||||||||||||||||||||||||||||
2|06|079|2004|88101|1|X|170|105|5|||1|SLAMS|0145|California Air Resources Board|20180519|11.2|||||||||||||||||||||||||||||||||||||||||||||||
2|06|079|2004|88101|1|X|170|105|5|||1|SLAMS|0145|California Air Resources Board|20180520|11.0|||||||||||||||||||||||||||||||||||||||||||||||
2|06|079|2004|88101|1|X|170|105|5|||1|SLAMS|0145|California Air Resources Board|20180521|7.2|||||||||||||||||||||||||||||||||||||||||||||||
2|06|079|2004|88101|1|X|170|105|5|||1|SLAMS|0145|California Air Resources Board|20180522|1.3|||||||||||||||||||||||||||||||||||||||||||||||
2|06|079|2004|88101|1|X|170|105|5|||1|SLAMS|0145|California Air Resources Board|20180523|1.1|||||||||||||||||||||||||||||||||||||||||||||||
2|06|079|2004|88101|1|X|170|105|5|||1|SLAMS|0145|California Air Resources Board|20180524|.5|||||||||||||||||||||||||||||||||||||||||||||||
2|06|079|2004|88101|1|X|170|105|5|||1|SLAMS|0145|California Air Resources Board|20180525|.3|||||||||||||||||||||||||||||||||||||||||||||||
2|06|079|2004|88101|1|X|170|105|5|||1|SLAMS|0145|California Air Resources Board|20180526|10.2|||||||||||||||||||||||||||||||||||||||||||||||
2|06|079|2004|88101|1|X|170|105|5|||1|SLAMS|0145|California Air Resources Board|20180527|9.1|||||||||||||||||||||||||||||||||||||||||||||||
2|06|079|2004|88101|1|X|170|105|5|||1|SLAMS|0145|California Air Resources Board|20180528|3.9|||||||||||||||||||||||||||||||||||||||||||||||
2|06|079|2004|88101|1|X|170|105|5|||1|SLAMS|0145|California Air Resources Board|20180529|1.3|||||||||||||||||||||||||||||||||||||||||||||||
2|06|079|2004|88101|1|X|170|105|5|||1|SLAMS|0145|California Air Resources Board|20180530|5.5|||||||||||||||||||||||||||||||||||||||||||||||
2|06|079|2004|88101|1|X|170|105|5|||1|SLAMS|0145|California Air Resources Board|20180531|11.6|||||||||||||||||||||||||||||||||||||||||||||||
2|06|079|2004|88101|1|X|170|105|5|||1|SLAMS|0145|California Air Resources Board|20180601|16.5|||||||||||||||||||||||||||||||||||||||||||||||
2|06|079|2004|88101|1|X|170|105|5|||1|SLAMS|0145|California Air Resources Board|20180602|7.9|||||||||||||||||||||||||||||||||||||||||||||||
2|06|079|2004|88101|1|X|170|105|5|||1|SLAMS|0145|California Air Resources Board|20180603|5.3|||||||||||||||||||||||||||||||||||||||||||||||
2|06|079|2004|88101|1|X|170|105|5|||1|SLAMS|0145|California Air Resources Board|20180604|7.0|||||||||||||||||||||||||||||||||||||||||||||||
2|06|079|2004|88101|1|X|170|105|5|||1|SLAMS|0145|California Air Resources Board|20180605|9.2|||||||||||||||||||||||||||||||||||||||||||||||
2|06|079|2004|88101|1|X|170|105|5|||1|SLAMS|0145|California Air Resources Board|20180606|9.4|||||||||||||||||||||||||||||||||||||||||||||||
2|06|079|2004|88101|1|X|170|105|5|||1|SLAMS|0145|California Air Resources Board|20180607|12.0|||||||||||||||||||||||||||||||||||||||||||||||
2|06|079|2004|88101|1|X|170|105|5|||1|SLAMS|0145|California Air Resources Board|20180608|23.3|||||||||||||||||||||||||||||||||||||||||||||||
2|06|079|2004|88101|1|X|170|105|5|||1|SLAMS|0145|California Air Resources Board|20180609|23.2|||||||||||||||||||||||||||||||||||||||||||||||
2|06|079|2004|88101|1|X|170|105|5|||1|SLAMS|0145|California Air Resources Board|20180610|28.8|||||||||||||||||||||||||||||||||||||||||||||||
2|06|079|2004|88101|1|X|170|105|5|||1|SLAMS|0145|California Air Resources Board|20180611|20.4|||||||||||||||||||||||||||||||||||||||||||||||
2|06|079|2004|88101|1|X|170|105|5|||1|SLAMS|0145|California Air Resources Board|20180612|3.9|||||||||||||||||||||||||||||||||||||||||||||||
2|06|079|2004|88101|1|X|170|105|5|||1|SLAMS|0145|California Air Resources Board|20180613|6.0|||||||||||||||||||||||||||||||||||||||||||||||
2|06|079|2004|88101|1|X|170|105|5|||1|SLAMS|0145|California Air Resources Board|20180614|5.3|||||||||||||||||||||||||||||||||||||||||||||||
2|06|079|2004|88101|1|X|170|105|5|||1|SLAMS|0145|California Air Resources Board|20180615|4.9|||||||||||||||||||||||||||||||||||||||||||||||
2|06|079|2004|88101|1|X|170|105|5|||1|SLAMS|0145|California Air Resources Board|20180616|4.1|||||||||||||||||||||||||||||||||||||||||||||||
2|06|079|2004|88101|1|X|170|105|5|||1|SLAMS|0145|California Air Resources Board|20180617|6.2|||||||||||||||||||||||||||||||||||||||||||||||
2|06|079|2004|88101|1|X|170|105|5|||1|SLAMS|0145|California Air Resources Board|20180618|9.3|||||||||||||||||||||||||||||||||||||||||||||||
2|06|079|2004|88101|1|X|170|105|5|||1|SLAMS|0145|California Air Resources Board|20180619|5.6|||||||||||||||||||||||||||||||||||||||||||||||
2|06|079|2004|88101|1|X|170|105|5|||1|SLAMS|0145|California Air Resources Board|20180620|6.7|||||||||||||||||||||||||||||||||||||||||||||||
2|06|079|2004|88101|1|X|170|105|5|||1|SLAMS|0145|California Air Resources Board|20180621|7.6|||||||||||||||||||||||||||||||||||||||||||||||
2|06|079|2004|88101|1|X|170|105|5|||1|SLAMS|0145|California Air Resources Board|20180622|6.7|||||||||||||||||||||||||||||||||||||||||||||||
2|06|079|2004|88101|1|X|170|105|5|||1|SLAMS|0145|California Air Resources Board|20180623|8.2|||||||||||||||||||||||||||||||||||||||||||||||
2|06|079|2004|88101|1|X|170|105|5|||1|SLAMS|0145|California Air Resources Board|20180624|3.4|||||||||||||||||||||||||||||||||||||||||||||||
2|06|079|2004|88101|1|X|170|105|5|||1|SLAMS|0145|California Air Resources Board|20180625|1.7|||||||||||||||||||||||||||||||||||||||||||||||
2|06|079|2004|88101|1|X|170|105|5|||1|SLAMS|0145|California Air Resources Board|20180626|5.3|||||||||||||||||||||||||||||||||||||||||||||||
2|06|079|2004|88101|1|X|170|105|5|||1|SLAMS|0145|California Air Resources Board|20180627|5.2|||||||||||||||||||||||||||||||||||||||||||||||
2|06|079|2004|88101|1|X|170|105|5|||1|SLAMS|0145|California Air Resources Board|20180628|13.6|||||||||||||||||||||||||||||||||||||||||||||||
2|06|079|2004|88101|1|X|170|105|5|||1|SLAMS|0145|California Air Resources Board|20180629|8.3|||||||||||||||||||||||||||||||||||||||||||||||
2|06|079|2004|88101|1|X|170|105|5|||1|SLAMS|0145|California Air Resources Board|20180630|8.9|||||||||||||||||||||||||||||||||||||||||||||||
2|06|079|2004|88101|1|X|170|105|5|||1|SLAMS|0145|California Air Resources Board|20180701|4.7|||||||||||||||||||||||||||||||||||||||||||||||
2|06|079|2004|88101|1|X|170|105|5|||1|SLAMS|0145|California Air Resources Board|20180702|2.7|||||||||||||||||||||||||||||||||||||||||||||||
2|06|079|2004|88101|1|X|170|105|5|||1|SLAMS|0145|California Air Resources Board|20180703|2.2|||||||||||||||||||||||||||||||||||||||||||||||
2|06|079|2004|88101|1|X|170|105|5|||1|SLAMS|0145|California Air Resources Board|20180704|3.5|||||||||||||||||||||||||||||||||||||||||||||||
2|06|079|2004|88101|1|X|170|105|5|||1|SLAMS|0145|California Air Resources Board|20180705|7.7|||||||||||||||||||||||||||||||||||||||||||||||
2|06|079|2004|88101|1|X|170|105|5|||1|SLAMS|0145|California Air Resources Board|20180706|22.6|||||||||||||||||||||||||||||||||||||||||||||||
2|06|079|2004|88101|1|X|170|105|5|||1|SLAMS|0145|California Air Resources Board|20180707|19.8|||||||||||||||||||||||||||||||||||||||||||||||
2|06|079|2004|88101|1|X|170|105|5|||1|SLAMS|0145|California Air Resources Board|20180708|13.0|||||||||||||||||||||||||||||||||||||||||||||||
2|06|079|2004|88101|1|X|170|105|5|||1|SLAMS|0145|California Air Resources Board|20180709|11.3|||||||||||||||||||||||||||||||||||||||||||||||
2|06|079|2004|88101|1|X|170|105|5|||1|SLAMS|0145|California Air Resources Board|20180710|10.2|||||||||||||||||||||||||||||||||||||||||||||||
2|06|079|2004|88101|1|X|170|105|5|||1|SLAMS|0145|California Air Resources Board|20180711|3.1|||||||||||||||||||||||||||||||||||||||||||||||
2|06|079|2004|88101|1|X|170|105|5|||1|SLAMS|0145|California Air Resources Board|20180712|1.0|||||||||||||||||||||||||||||||||||||||||||||||
2|06|079|2004|88101|1|X|170|105|5|||1|SLAMS|0145|California Air Resources Board|20180713|2.2|||||||||||||||||||||||||||||||||||||||||||||||
2|06|079|2004|88101|1|X|170|105|5|||1|SLAMS|0145|California Air Resources Board|20180714|3.8|||||||||||||||||||||||||||||||||||||||||||||||
2|06|079|2004|88101|1|X|170|105|5|||1|SLAMS|0145|California Air Resources Board|20180715|2.0|||||||||||||||||||||||||||||||||||||||||||||||
2|06|079|2004|88101|1|X|170|105|5|||1|SLAMS|0145|California Air Resources Board|20180716|4.3|||||||||||||||||||||||||||||||||||||||||||||||
2|06|079|2004|88101|1|X|170|105|5|||1|SLAMS|0145|California Air Resources Board|20180717|4.0|||||||||||||||||||||||||||||||||||||||||||||||
2|06|079|2004|88101|1|X|170|105|5|||1|SLAMS|0145|California Air Resources Board|20180718|3.8|||||||||||||||||||||||||||||||||||||||||||||||
2|06|079|2004|88101|1|X|170|105|5|||1|SLAMS|0145|California Air Resources Board|20180719|.8|||||||||||||||||||||||||||||||||||||||||||||||
2|06|079|2004|88101|1|X|170|105|5|||1|SLAMS|0145|California Air Resources Board|20180720|.5|||||||||||||||||||||||||||||||||||||||||||||||
2|06|079|2004|88101|1|X|170|105|5|||1|SLAMS|0145|California Air Resources Board|20180721|-1.2|||||||||||||||||||||||||||||||||||||||||||||||
2|06|079|2004|88101|1|X|170|105|5|||1|SLAMS|0145|California Air Resources Board|20180722|1.5|||||||||||||||||||||||||||||||||||||||||||||||
2|06|079|2004|88101|1|X|170|105|5|||1|SLAMS|0145|California Air Resources Board|20180723|11.1|||||||||||||||||||||||||||||||||||||||||||||||
2|06|079|2004|88101|1|X|170|105|5|||1|SLAMS|0145|California Air Resources Board|20180724|9.5|||||||||||||||||||||||||||||||||||||||||||||||
2|06|079|2004|88101|1|X|170|105|5|||1|SLAMS|0145|California Air Resources Board|20180725|7.7|||||||||||||||||||||||||||||||||||||||||||||||
2|06|079|2004|88101|1|X|170|105|5|||1|SLAMS|0145|California Air Resources Board|20180726|7.2|||||||||||||||||||||||||||||||||||||||||||||||
2|06|079|2004|88101|1|X|170|105|5|||1|SLAMS|0145|California Air Resources Board|20180727|5.3|||||||||||||||||||||||||||||||||||||||||||||||
2|06|079|2004|88101|1|X|170|105|5|||1|SLAMS|0145|California Air Resources Board|20180728|2.6|||||||||||||||||||||||||||||||||||||||||||||||
2|06|079|2004|88101|1|X|170|105|5|||1|SLAMS|0145|California Air Resources Board|20180729|.6|||||||||||||||||||||||||||||||||||||||||||||||
2|06|079|2004|88101|1|X|170|105|5|||1|SLAMS|0145|California Air Resources Board|20180730|.2|||||||||||||||||||||||||||||||||||||||||||||||
2|06|079|2004|88101|1|X|170|105|5|||1|SLAMS|0145|California Air Resources Board|20180731|-.2|||||||||||||||||||||||||||||||||||||||||||||||
2|06|079|2004|88101|1|X|170|105|5|||1|SLAMS|0145|California Air Resources Board|20180801|2.1|||||||||||||||||||||||||||||||||||||||||||||||
2|06|079|2004|88101|1|X|170|105|5|||1|SLAMS|0145|California Air Resources Board|20180802|2.8|||||||||||||||||||||||||||||||||||||||||||||||
2|06|079|2004|88101|1|X|170|105|5|||1|SLAMS|0145|California Air Resources Board|20180803|3.0|||||||||||||||||||||||||||||||||||||||||||||||
2|06|079|2004|88101|1|X|170|105|5|||1|SLAMS|0145|California Air Resources Board|20180804|5.3|||||||||||||||||||||||||||||||||||||||||||||||
2|06|079|2004|88101|1|X|170|105|5|||1|SLAMS|0145|California Air Resources Board|20180805|6.9|||||||||||||||||||||||||||||||||||||||||||||||
2|06|079|2004|88101|1|X|170|105|5|||1|SLAMS|0145|California Air Resources Board|20180806|22.6|||||||||||||||||||||||||||||||||||||||||||||||
2|06|079|2004|88101|1|X|170|105|5|||1|SLAMS|0145|California Air Resources Board|20180807|6.2|||||||||||||||||||||||||||||||||||||||||||||||
2|06|079|2004|88101|1|X|170|105|5|||1|SLAMS|0145|California Air Resources Board|20180808|2.5|||||||||||||||||||||||||||||||||||||||||||||||
2|06|079|2004|88101|1|X|170|105|5|||1|SLAMS|0145|California Air Resources Board|20180809|2.2|||||||||||||||||||||||||||||||||||||||||||||||
2|06|079|2004|88101|1|X|170|105|5|||1|SLAMS|0145|California Air Resources Board|20180810|.2|||||||||||||||||||||||||||||||||||||||||||||||
2|06|079|2004|88101|1|X|170|105|5|||1|SLAMS|0145|California Air Resources Board|20180811|1.4|||||||||||||||||||||||||||||||||||||||||||||||
2|06|079|2004|88101|1|X|170|105|5|||1|SLAMS|0145|California Air Resources Board|20180812|2.3|||||||||||||||||||||||||||||||||||||||||||||||
2|06|079|2004|88101|1|X|170|105|5|||1|SLAMS|0145|California Air Resources Board|20180813|1.3|||||||||||||||||||||||||||||||||||||||||||||||
2|06|079|2004|88101|1|X|170|105|5|||1|SLAMS|0145|California Air Resources Board|20180814|3.8|||||||||||||||||||||||||||||||||||||||||||||||
2|06|079|2004|88101|1|X|170|105|5|||1|SLAMS|0145|California Air Resources Board|20180815|6.4|||||||||||||||||||||||||||||||||||||||||||||||
2|06|079|2004|88101|1|X|170|105|5|||1|SLAMS|0145|California Air Resources Board|20180816|12.6|||||||||||||||||||||||||||||||||||||||||||||||
2|06|079|2004|88101|1|X|170|105|5|||1|SLAMS|0145|California Air Resources Board|20180817|13.8|||||||||||||||||||||||||||||||||||||||||||||||
2|06|079|2004|88101|1|X|170|105|5|||1|SLAMS|0145|California Air Resources Board|20180818|12.0|||||||||||||||||||||||||||||||||||||||||||||||
2|06|079|2004|88101|1|X|170|105|5|||1|SLAMS|0145|California Air Resources Board|20180819|13.3|||||||||||||||||||||||||||||||||||||||||||||||
2|06|079|2004|88101|1|X|170|105|5|||1|SLAMS|0145|California Air Resources Board|20180820|17.8|||||||||||||||||||||||||||||||||||||||||||||||
2|06|079|2004|88101|1|X|170|105|5|||1|SLAMS|0145|California Air Resources Board|20180821|12.0|||||||||||||||||||||||||||||||||||||||||||||||
2|06|079|2004|88101|1|X|170|105|5|||1|SLAMS|0145|California Air Resources Board|20180822|14.5|||||||||||||||||||||||||||||||||||||||||||||||
2|06|079|2004|88101|1|X|170|105|5|||1|SLAMS|0145|California Air Resources Board|20180823|33.4|||||||||||||||||||||||||||||||||||||||||||||||
2|06|079|2004|88101|1|X|170|105|5|||1|SLAMS|0145|California Air Resources Board|20180824|38.3|||||||||||||||||||||||||||||||||||||||||||||||
2|06|079|2004|88101|1|X|170|105|5|||1|SLAMS|0145|California Air Resources Board|20180825|13.4|||||||||||||||||||||||||||||||||||||||||||||||
2|06|079|2004|88101|1|X|170|105|5|||1|SLAMS|0145|California Air Resources Board|20180826|10.5|||||||||||||||||||||||||||||||||||||||||||||||
2|06|079|2004|88101|1|X|170|105|5|||1|SLAMS|0145|California Air Resources Board|20180827|7.3|||||||||||||||||||||||||||||||||||||||||||||||
2|06|079|2004|88101|1|X|170|105|5|||1|SLAMS|0145|California Air Resources Board|20180828|2.9|||||||||||||||||||||||||||||||||||||||||||||||
2|06|079|2004|88101|1|X|170|105|5|||1|SLAMS|0145|California Air Resources Board|20180829|4.0|||||||||||||||||||||||||||||||||||||||||||||||
2|06|079|2004|88101|1|X|170|105|5|||1|SLAMS|0145|California Air Resources Board|20180830|11.6|||||||||||||||||||||||||||||||||||||||||||||||
2|06|079|2004|88101|1|X|170|105|5|||1|SLAMS|0145|California Air Resources Board|20180831|26.7|||||||||||||||||||||||||||||||||||||||||||||||
2|06|079|2004|88101|1|X|170|105|5|||1|SLAMS|0145|California Air Resources Board|20180901|15.7|||||||||||||||||||||||||||||||||||||||||||||||
2|06|079|2004|88101|1|X|170|105|5|||1|SLAMS|0145|California Air Resources Board|20180902|6.0|||||||||||||||||||||||||||||||||||||||||||||||
2|06|079|2004|88101|1|X|170|105|5|||1|SLAMS|0145|California Air Resources Board|20180903|2.0|||||||||||||||||||||||||||||||||||||||||||||||
2|06|079|2004|88101|1|X|170|105|5|||1|SLAMS|0145|California Air Resources Board|20180904|4.0|||||||||||||||||||||||||||||||||||||||||||||||
2|06|079|2004|88101|1|X|170|105|5|||1|SLAMS|0145|California Air Resources Board|20180905|2.8|||||||||||||||||||||||||||||||||||||||||||||||
2|06|079|2004|88101|1|X|170|105|5|||1|SLAMS|0145|California Air Resources Board|20180906|4.5|||||||||||||||||||||||||||||||||||||||||||||||
2|06|079|2004|88101|1|X|170|105|5|||1|SLAMS|0145|California Air Resources Board|20180907|8.0|||||||||||||||||||||||||||||||||||||||||||||||
2|06|079|2004|88101|1|X|170|105|5|||1|SLAMS|0145|California Air Resources Board|20180908|7.0|||||||||||||||||||||||||||||||||||||||||||||||
2|06|079|2004|88101|1|X|170|105|5|||1|SLAMS|0145|California Air Resources Board|20180909|5.2|||||||||||||||||||||||||||||||||||||||||||||||
2|06|079|2004|88101|1|X|170|105|5|||1|SLAMS|0145|California Air Resources Board|20180910|2.9|||||||||||||||||||||||||||||||||||||||||||||||
2|06|079|2004|88101|1|X|170|105|5|||1|SLAMS|0145|California Air Resources Board|20180911|3.2|||||||||||||||||||||||||||||||||||||||||||||||
2|06|079|2004|88101|1|X|170|105|5|||1|SLAMS|0145|California Air Resources Board|20180912|3.7|||||||||||||||||||||||||||||||||||||||||||||||
2|06|079|2004|88101|1|X|170|105|5|||1|SLAMS|0145|California Air Resources Board|20180913|10.7|||||||||||||||||||||||||||||||||||||||||||||||
2|06|079|2004|88101|1|X|170|105|5|||1|SLAMS|0145|California Air Resources Board|20180914|4.2|||||||||||||||||||||||||||||||||||||||||||||||
2|06|079|2004|88101|1|X|170|105|5|||1|SLAMS|0145|California Air Resources Board|20180915|9.4|||||||||||||||||||||||||||||||||||||||||||||||
2|06|079|2004|88101|1|X|170|105|5|||1|SLAMS|0145|California Air Resources Board|20180916|2.7|||||||||||||||||||||||||||||||||||||||||||||||
2|06|079|2004|88101|1|X|170|105|5|||1|SLAMS|0145|California Air Resources Board|20180917|3.6|||||||||||||||||||||||||||||||||||||||||||||||
2|06|079|2004|88101|1|X|170|105|5|||1|SLAMS|0145|California Air Resources Board|20180918|6.6|||||||||||||||||||||||||||||||||||||||||||||||
2|06|079|2004|88101|1|X|170|105|5|||1|SLAMS|0145|California Air Resources Board|20180919|13.4|||||||||||||||||||||||||||||||||||||||||||||||
2|06|079|2004|88101|1|X|170|105|5|||1|SLAMS|0145|California Air Resources Board|20180920|11.8|||||||||||||||||||||||||||||||||||||||||||||||
2|06|079|2004|88101|1|X|170|105|5|||1|SLAMS|0145|California Air Resources Board|20180921|8.0|||||||||||||||||||||||||||||||||||||||||||||||
2|06|079|2004|88101|1|X|170|105|5|||1|SLAMS|0145|California Air Resources Board|20180922|7.9|||||||||||||||||||||||||||||||||||||||||||||||
2|06|079|2004|88101|1|X|170|105|5|||1|SLAMS|0145|California Air Resources Board|20180923|8.1|||||||||||||||||||||||||||||||||||||||||||||||
2|06|079|2004|88101|1|X|170|105|5|||1|SLAMS|0145|California Air Resources Board|20180924|8.8|||||||||||||||||||||||||||||||||||||||||||||||
2|06|079|2004|88101|1|X|170|105|5|||1|SLAMS|0145|California Air Resources Board|20180925|11.0|||||||||||||||||||||||||||||||||||||||||||||||
2|06|079|2004|88101|1|X|170|105|5|||1|SLAMS|0145|California Air Resources Board|20180926|12.3|||||||||||||||||||||||||||||||||||||||||||||||
2|06|079|2004|88101|1|X|170|105|5|||1|SLAMS|0145|California Air Resources Board|20180927|8.8|||||||||||||||||||||||||||||||||||||||||||||||
2|06|079|2004|88101|1|X|170|105|5|||1|SLAMS|0145|California Air Resources Board|20180928|9.1|||||||||||||||||||||||||||||||||||||||||||||||
2|06|079|2004|88101|1|X|170|105|5|||1|SLAMS|0145|California Air Resources Board|20180929|8.3|||||||||||||||||||||||||||||||||||||||||||||||
2|06|079|2004|88101|1|X|170|105|5|||1|SLAMS|0145|California Air Resources Board|20180930|4.6|||||||||||||||||||||||||||||||||||||||||||||||
2|06|079|2004|88101|1|X|170|105|5|||1|SLAMS|0145|California Air Resources Board|20181001|3.2|||||||||||||||||||||||||||||||||||||||||||||||
2|06|079|2004|88101|1|X|170|105|5|||1|SLAMS|0145|California Air Resources Board|20181002|4.9|||||||||||||||||||||||||||||||||||||||||||||||
2|06|079|2004|88101|1|X|170|105|5|||1|SLAMS|0145|California Air Resources Board|20181003|5.5|||||||||||||||||||||||||||||||||||||||||||||||
2|06|079|2004|88101|1|X|170|105|5|||1|SLAMS|0145|California Air Resources Board|20181004|2.4|||||||||||||||||||||||||||||||||||||||||||||||
2|06|079|2004|88101|1|X|170|105|5|||1|SLAMS|0145|California Air Resources Board|20181005|10.2|||||||||||||||||||||||||||||||||||||||||||||||
2|06|079|2004|88101|1|X|170|105|5|||1|SLAMS|0145|California Air Resources Board|20181006|14.0|||||||||||||||||||||||||||||||||||||||||||||||
2|06|079|2004|88101|1|X|170|105|5|||1|SLAMS|0145|California Air Resources Board|20181007|11.6|||||||||||||||||||||||||||||||||||||||||||||||
2|06|079|2004|88101|1|X|170|105|5|||1|SLAMS|0145|California Air Resources Board|20181008|9.2|||||||||||||||||||||||||||||||||||||||||||||||
2|06|079|2004|88101|1|X|170|105|5|||1|SLAMS|0145|California Air Resources Board|20181009|8.7|||||||||||||||||||||||||||||||||||||||||||||||
2|06|079|2004|88101|1|X|170|105|5|||1|SLAMS|0145|California Air Resources Board|20181010|7.4|||||||||||||||||||||||||||||||||||||||||||||||
2|06|079|2004|88101|1|X|170|105|5|||1|SLAMS|0145|California Air Resources Board|20181011|5.6|||||||||||||||||||||||||||||||||||||||||||||||
2|06|079|2004|88101|1|X|170|105|5|||1|SLAMS|0145|California Air Resources Board|20181012|6.5|||||||||||||||||||||||||||||||||||||||||||||||
2|06|079|2004|88101|1|X|170|105|5|||1|SLAMS|0145|California Air Resources Board|20181013|9.0|||||||||||||||||||||||||||||||||||||||||||||||
2|06|079|2004|88101|1|X|170|105|5|||1|SLAMS|0145|California Air Resources Board|20181014|8.3|||||||||||||||||||||||||||||||||||||||||||||||
2|06|079|2004|88101|1|X|170|105|5|||1|SLAMS|0145|California Air Resources Board|20181015|8.6|||||||||||||||||||||||||||||||||||||||||||||||
2|06|079|2004|88101|1|X|170|105|5|||1|SLAMS|0145|California Air Resources Board|20181016|11.2|||||||||||||||||||||||||||||||||||||||||||||||
2|06|079|2004|88101|1|X|170|105|5|||1|SLAMS|0145|California Air Resources Board|20181017|7.9|||||||||||||||||||||||||||||||||||||||||||||||
2|06|079|2004|88101|1|X|170|105|5|||1|SLAMS|0145|California Air Resources Board|20181018|10.5|||||||||||||||||||||||||||||||||||||||||||||||
2|06|079|2004|88101|1|X|170|105|5|||1|SLAMS|0145|California Air Resources Board|20181019|12.2|||||||||||||||||||||||||||||||||||||||||||||||
2|06|079|2004|88101|1|X|170|105|5|||1|SLAMS|0145|California Air Resources Board|20181020|11.3|||||||||||||||||||||||||||||||||||||||||||||||
2|06|079|2004|88101|1|X|170|105|5|||1|SLAMS|0145|California Air Resources Board|20181021|11.3|||||||||||||||||||||||||||||||||||||||||||||||
2|06|079|2004|88101|1|X|170|105|5|||1|SLAMS|0145|California Air Resources Board|20181022|12.0|||||||||||||||||||||||||||||||||||||||||||||||
2|06|079|2004|88101|1|X|170|105|5|||1|SLAMS|0145|California Air Resources Board|20181023|11.2|||||||||||||||||||||||||||||||||||||||||||||||
2|06|079|2004|88101|1|X|170|105|5|||1|SLAMS|0145|California Air Resources Board|20181024|10.7|||||||||||||||||||||||||||||||||||||||||||||||
2|06|079|2004|88101|1|X|170|105|5|||1|SLAMS|0145|California Air Resources Board|20181025|10.2|||||||||||||||||||||||||||||||||||||||||||||||
2|06|079|2004|88101|1|X|170|105|5|||1|SLAMS|0145|California Air Resources Board|20181026|9.4|||||||||||||||||||||||||||||||||||||||||||||||
2|06|079|2004|88101|1|X|170|105|5|||1|SLAMS|0145|California Air Resources Board|20181027|6.1|||||||||||||||||||||||||||||||||||||||||||||||
2|06|079|2004|88101|1|X|170|105|5|||1|SLAMS|0145|California Air Resources Board|20181028|9.3|||||||||||||||||||||||||||||||||||||||||||||||
2|06|079|2004|88101|1|X|170|105|5|||1|SLAMS|0145|California Air Resources Board|20181029|4.5|||||||||||||||||||||||||||||||||||||||||||||||
2|06|079|2004|88101|1|X|170|105|5|||1|SLAMS|0145|California Air Resources Board|20181030|8.8|||||||||||||||||||||||||||||||||||||||||||||||
2|06|079|2004|88101|1|X|170|105|5|||1|SLAMS|0145|California Air Resources Board|20181031|8.2|||||||||||||||||||||||||||||||||||||||||||||||
2|06|079|2004|88101|1|X|170|105|5|||1|SLAMS|0145|California Air Resources Board|20181101|8.3|||||||||||||||||||||||||||||||||||||||||||||||
2|06|079|2004|88101|1|X|170|105|5|||1|SLAMS|0145|California Air Resources Board|20181102|8.3|||||||||||||||||||||||||||||||||||||||||||||||
2|06|079|2004|88101|1|X|170|105|5|||1|SLAMS|0145|California Air Resources Board|20181103|10.0|||||||||||||||||||||||||||||||||||||||||||||||
2|06|079|2004|88101|1|X|170|105|5|||1|SLAMS|0145|California Air Resources Board|20181104|10.3|||||||||||||||||||||||||||||||||||||||||||||||
2|06|079|2004|88101|1|X|170|105|5|||1|SLAMS|0145|California Air Resources Board|20181105|7.5|||||||||||||||||||||||||||||||||||||||||||||||
2|06|079|2004|88101|1|X|170|105|5|||1|SLAMS|0145|California Air Resources Board|20181106|7.8|||||||||||||||||||||||||||||||||||||||||||||||
2|06|079|2004|88101|1|X|170|105|5|||1|SLAMS|0145|California Air Resources Board|20181107|7.4|||||||||||||||||||||||||||||||||||||||||||||||
2|06|079|2004|88101|1|X|170|105|5|||1|SLAMS|0145|California Air Resources Board|20181108|6.5|||||||||||||||||||||||||||||||||||||||||||||||
2|06|079|2004|88101|1|X|170|105|5|||1|SLAMS|0145|California Air Resources Board|20181109|7.9|||||||||||||||||||||||||||||||||||||||||||||||
2|06|079|2004|88101|1|X|170|105|5|||1|SLAMS|0145|California Air Resources Board|20181110|15.5|||||||||||||||||||||||||||||||||||||||||||||||
2|06|079|2004|88101|1|X|170|105|5|||1|SLAMS|0145|California Air Resources Board|20181111|16.7|||||||||||||||||||||||||||||||||||||||||||||||
2|06|079|2004|88101|1|X|170|105|5|||1|SLAMS|0145|California Air Resources Board|20181114|10.1|||||||||||||||||||||||||||||||||||||||||||||||
2|06|079|2004|88101|1|X|170|105|5|||1|SLAMS|0145|California Air Resources Board|20181115|11.6|||||||||||||||||||||||||||||||||||||||||||||||
2|06|079|2004|88101|1|X|170|105|5|||1|SLAMS|0145|California Air Resources Board|20181116|22.5|||||||||||||||||||||||||||||||||||||||||||||||
2|06|079|2004|88101|1|X|170|105|5|||1|SLAMS|0145|California Air Resources Board|20181117|31.2|||||||||||||||||||||||||||||||||||||||||||||||
2|06|079|2004|88101|1|X|170|105|5|||1|SLAMS|0145|California Air Resources Board|20181118|31.7|||||||||||||||||||||||||||||||||||||||||||||||
2|06|079|2004|88101|1|X|170|105|5|||1|SLAMS|0145|California Air Resources Board|20181119|21.6|||||||||||||||||||||||||||||||||||||||||||||||
2|06|079|2004|88101|1|X|170|105|5|||1|SLAMS|0145|California Air Resources Board|20181120|13.2|||||||||||||||||||||||||||||||||||||||||||||||
2|06|079|2004|88101|1|X|170|105|5|||1|SLAMS|0145|California Air Resources Board|20181121|8.0|||||||||||||||||||||||||||||||||||||||||||||||
2|06|079|2004|88101|1|X|170|105|5|||1|SLAMS|0145|California Air Resources Board|20181122|6.1|||||||||||||||||||||||||||||||||||||||||||||||
2|06|079|2004|88101|1|X|170|105|5|||1|SLAMS|0145|California Air Resources Board|20181123|5.3|||||||||||||||||||||||||||||||||||||||||||||||
2|06|079|2004|88101|1|X|170|105|5|||1|SLAMS|0145|California Air Resources Board|20181124|5.9|||||||||||||||||||||||||||||||||||||||||||||||
2|06|079|2004|88101|1|X|170|105|5|||1|SLAMS|0145|California Air Resources Board|20181125|6.0|||||||||||||||||||||||||||||||||||||||||||||||
2|06|079|2004|88101|1|X|170|105|5|||1|SLAMS|0145|California Air Resources Board|20181126|8.6|||||||||||||||||||||||||||||||||||||||||||||||
2|06|079|2004|88101|1|X|170|105|5|||1|SLAMS|0145|California Air Resources Board|20181127|5.8|||||||||||||||||||||||||||||||||||||||||||||||
2|06|079|2004|88101|1|X|170|105|5|||1|SLAMS|0145|California Air Resources Board|20181128|2.9|||||||||||||||||||||||||||||||||||||||||||||||
2|06|079|2004|88101|1|X|170|105|5|||1|SLAMS|0145|California Air Resources Board|20181129|8.2|||||||||||||||||||||||||||||||||||||||||||||||
2|06|079|2004|88101|1|X|170|105|5|||1|SLAMS|0145|California Air Resources Board|20181130|9.8|||||||||||||||||||||||||||||||||||||||||||||||
2|06|079|2004|88101|1|X|170|105|5|||1|SLAMS|0145|California Air Resources Board|20181201|5.4|||||||||||||||||||||||||||||||||||||||||||||||
2|06|079|2004|88101|1|X|170|105|5|||1|SLAMS|0145|California Air Resources Board|20181202|4.3|||||||||||||||||||||||||||||||||||||||||||||||
2|06|079|2004|88101|1|X|170|105|5|||1|SLAMS|0145|California Air Resources Board|20181203|6.8|||||||||||||||||||||||||||||||||||||||||||||||
2|06|079|2004|88101|1|X|170|105|5|||1|SLAMS|0145|California Air Resources Board|20181204|4.2|||||||||||||||||||||||||||||||||||||||||||||||
2|06|079|2004|88101|1|X|170|105|5|||1|SLAMS|0145|California Air Resources Board|20181205|3.2|||||||||||||||||||||||||||||||||||||||||||||||
2|06|079|2004|88101|1|X|170|105|5|||1|SLAMS|0145|California Air Resources Board|20181206|3.9|||||||||||||||||||||||||||||||||||||||||||||||
2|06|079|2004|88101|1|X|170|105|5|||1|SLAMS|0145|California Air Resources Board|20181207|5.5|||||||||||||||||||||||||||||||||||||||||||||||
2|06|079|2004|88101|1|X|170|105|5|||1|SLAMS|0145|California Air Resources Board|20181208|7.2|||||||||||||||||||||||||||||||||||||||||||||||
2|06|079|2004|88101|1|X|170|105|5|||1|SLAMS|0145|California Air Resources Board|20181209|7.2|||||||||||||||||||||||||||||||||||||||||||||||
2|06|079|2004|88101|1|X|170|105|5|||1|SLAMS|0145|California Air Resources Board|20181210|7.9|||||||||||||||||||||||||||||||||||||||||||||||
2|06|079|2004|88101|1|X|170|105|5|||1|SLAMS|0145|California Air Resources Board|20181211|8.4|||||||||||||||||||||||||||||||||||||||||||||||
2|06|079|2004|88101|1|X|170|105|5|||1|SLAMS|0145|California Air Resources Board|20181212|6.8|||||||||||||||||||||||||||||||||||||||||||||||
2|06|079|2004|88101|1|X|170|105|5|||1|SLAMS|0145|California Air Resources Board|20181213|11.8|||||||||||||||||||||||||||||||||||||||||||||||
2|06|079|2004|88101|1|X|170|105|5|||1|SLAMS|0145|California Air Resources Board|20181214|10.5|||||||||||||||||||||||||||||||||||||||||||||||
2|06|079|2004|88101|1|X|170|105|5|||1|SLAMS|0145|California Air Resources Board|20181215|8.4|||||||||||||||||||||||||||||||||||||||||||||||
2|06|079|2004|88101|1|X|170|105|5|||1|SLAMS|0145|California Air Resources Board|20181216|6.0|||||||||||||||||||||||||||||||||||||||||||||||
2|06|079|2004|88101|1|X|170|105|5|||1|SLAMS|0145|California Air Resources Board|20181217|5.0|||||||||||||||||||||||||||||||||||||||||||||||
2|06|079|2004|88101|1|X|170|105|5|||1|SLAMS|0145|California Air Resources Board|20181218|5.4|||||||||||||||||||||||||||||||||||||||||||||||
2|06|079|2004|88101|1|X|170|105|5|||1|SLAMS|0145|California Air Resources Board|20181219|7.7|||||||||||||||||||||||||||||||||||||||||||||||
2|06|079|2004|88101|1|X|170|105|5|||1|SLAMS|0145|California Air Resources Board|20181220|6.6|||||||||||||||||||||||||||||||||||||||||||||||
2|06|079|2004|88101|1|X|170|105|5|||1|SLAMS|0145|California Air Resources Board|20181221|9.5|||||||||||||||||||||||||||||||||||||||||||||||
2|06|079|2004|88101|1|X|170|105|5|||1|SLAMS|0145|California Air Resources Board|20181222|8.4|||||||||||||||||||||||||||||||||||||||||||||||
2|06|079|2004|88101|1|X|170|105|5|||1|SLAMS|0145|California Air Resources Board|20181223|11.9|||||||||||||||||||||||||||||||||||||||||||||||
2|06|079|2004|88101|1|X|170|105|5|||1|SLAMS|0145|California Air Resources Board|20181224|7.1|||||||||||||||||||||||||||||||||||||||||||||||
2|06|079|2004|88101|1|X|170|105|5|||1|SLAMS|0145|California Air Resources Board|20181225|6.4|||||||||||||||||||||||||||||||||||||||||||||||
2|06|079|2004|88101|1|X|170|105|5|||1|SLAMS|0145|California Air Resources Board|20181226|5.7|||||||||||||||||||||||||||||||||||||||||||||||
2|06|079|2004|88101|1|X|170|105|5|||1|SLAMS|0145|California Air Resources Board|20181227|5.1|||||||||||||||||||||||||||||||||||||||||||||||
2|06|079|2004|88101|1|X|170|105|5|||1|SLAMS|0145|California Air Resources Board|20181228|5.7|||||||||||||||||||||||||||||||||||||||||||||||
2|06|079|2004|88101|1|X|170|105|5|||1|SLAMS|0145|California Air Resources Board|20181229|8.8|||||||||||||||||||||||||||||||||||||||||||||||
2|06|079|2004|88101|1|X|170|105|5|||1|SLAMS|0145|California Air Resources Board|20181230|9.8|||||||||||||||||||||||||||||||||||||||||||||||
2|06|079|2004|88101|1|X|170|105|5|||1|SLAMS|0145|California Air Resources Board|20181231|7.7|||||||||||||||||||||||||||||||||||||||||||||||
1|06|California|079|San Luis Obispo|2006|88101|PM2.5 - Local Conditions|3|68154|San Luis Obispo|3220 SOUTH HIGUERA STREET, SAN LUIS OBISPO|032|SOUTH CENTRAL COAST|42020|San Luis Obispo-Paso Robles-Arroyo Grande, CA|||09|GENERAL/BACKGROUND|||7460|SAN LUIS OBISPO, CA|COMMERCIAL|URBAN AND CENTER CITY|35.25651|-120.6693||||027|Unknown|NAD83|5|0|66|000|UNKNOWN|MEAN SEA-LEVEL|5
2|06|079|2006|88101|3|X|170|105|2|||1|SLAMS|0145|California Air Resources Board|20180101|5.8|||||||||||||||||||||||||||||||||||||||||||||||
2|06|079|2006|88101|3|X|170|105|2|||1|SLAMS|0145|California Air Resources Board|20180102|7.0|||||||||||||||||||||||||||||||||||||||||||||||
2|06|079|2006|88101|3|X|170|105|2|||1|SLAMS|0145|California Air Resources Board|20180103|6.3|||||||||||||||||||||||||||||||||||||||||||||||
2|06|079|2006|88101|3|X|170|105|2|||1|SLAMS|0145|California Air Resources Board|20180104|1.7|||||||||||||||||||||||||||||||||||||||||||||||
2|06|079|2006|88101|3|X|170|105|2|||1|SLAMS|0145|California Air Resources Board|20180105|.4|||||||||||||||||||||||||||||||||||||||||||||||
2|06|079|2006|88101|3|X|170|105|2|||1|SLAMS|0145|California Air Resources Board|20180106|1.5|||||||||||||||||||||||||||||||||||||||||||||||
2|06|079|2006|88101|3|X|170|105|2|||1|SLAMS|0145|California Air Resources Board|20180107|2.5|||||||||||||||||||||||||||||||||||||||||||||||
2|06|079|2006|88101|3|X|170|105|2|||1|SLAMS|0145|California Air Resources Board|20180108|1.0|||||||||||||||||||||||||||||||||||||||||||||||
2|06|079|2006|88101|3|X|170|105|2|||1|SLAMS|0145|California Air Resources Board|20180109|1.0|||||||||||||||||||||||||||||||||||||||||||||||
2|06|079|2006|88101|3|X|170|105|2|||1|SLAMS|0145|California Air Resources Board|20180110|2.6|||||||||||||||||||||||||||||||||||||||||||||||
2|06|079|2006|88101|3|X|170|105|2|||1|SLAMS|0145|California Air Resources Board|20180111|3.9|||||||||||||||||||||||||||||||||||||||||||||||
2|06|079|2006|88101|3|X|170|105|2|||1|SLAMS|0145|California Air Resources Board|20180112|5.7|||||||||||||||||||||||||||||||||||||||||||||||
2|06|079|2006|88101|3|X|170|105|2|||1|SLAMS|0145|California Air Resources Board|20180113|8.0|||||||||||||||||||||||||||||||||||||||||||||||
2|06|079|2006|88101|3|X|170|105|2|||1|SLAMS|0145|California Air Resources Board|20180114|4.0|||||||||||||||||||||||||||||||||||||||||||||||
2|06|079|2006|88101|3|X|170|105|2|||1|SLAMS|0145|California Air Resources Board|20180115|4.7|||||||||||||||||||||||||||||||||||||||||||||||
2|06|079|2006|88101|3|X|170|105|2|||1|SLAMS|0145|California Air Resources Board|20180116|6.7|||||||||||||||||||||||||||||||||||||||||||||||
2|06|079|2006|88101|3|X|170|105|2|||1|SLAMS|0145|California Air Resources Board|20180117|4.3|||||||||||||||||||||||||||||||||||||||||||||||
2|06|079|2006|88101|3|X|170|105|2|||1|SLAMS|0145|California Air Resources Board|20180118|3.6|||||||||||||||||||||||||||||||||||||||||||||||
2|06|079|2006|88101|3|X|170|105|2|||1|SLAMS|0145|California Air Resources Board|20180119|2.4|||||||||||||||||||||||||||||||||||||||||||||||
2|06|079|2006|88101|3|X|170|105|2|||1|SLAMS|0145|California Air Resources Board|20180120|3.0|||||||||||||||||||||||||||||||||||||||||||||||
2|06|079|2006|88101|3|X|170|105|2|||1|SLAMS|0145|California Air Resources Board|20180121|4.1|||||||||||||||||||||||||||||||||||||||||||||||
2|06|079|2006|88101|3|X|170|105|2|||1|SLAMS|0145|California Air Resources Board|20180122|4.9|||||||||||||||||||||||||||||||||||||||||||||||
2|06|079|2006|88101|3|X|170|105|2|||1|SLAMS|0145|California Air Resources Board|20180123|4.6|||||||||||||||||||||||||||||||||||||||||||||||
2|06|079|2006|88101|3|X|170|105|2|||1|SLAMS|0145|California Air Resources Board|20180124|3.2|||||||||||||||||||||||||||||||||||||||||||||||
2|06|079|2006|88101|3|X|170|105|2|||1|SLAMS|0145|California Air Resources Board|20180125|1.9|||||||||||||||||||||||||||||||||||||||||||||||
2|06|079|2006|88101|3|X|170|105|2|||1|SLAMS|0145|California Air Resources Board|20180126|3.5|||||||||||||||||||||||||||||||||||||||||||||||
2|06|079|2006|88101|3|X|170|105|2|||1|SLAMS|0145|California Air Resources Board|20180127|4.3|||||||||||||||||||||||||||||||||||||||||||||||
2|06|079|2006|88101|3|X|170|105|2|||1|SLAMS|0145|California Air Resources Board|20180128|4.5|||||||||||||||||||||||||||||||||||||||||||||||
2|06|079|2006|88101|3|X|170|105|2|||1|SLAMS|0145|California Air Resources Board|20180129|2.9|||||||||||||||||||||||||||||||||||||||||||||||
2|06|079|2006|88101|3|X|170|105|2|||1|SLAMS|0145|California Air Resources Board|20180130|3.8|||||||||||||||||||||||||||||||||||||||||||||||
2|06|079|2006|88101|3|X|170|105|2|||1|SLAMS|0145|California Air Resources Board|20180131|3.4|||||||||||||||||||||||||||||||||||||||||||||||
2|06|079|2006|88101|3|X|170|105|2|||1|SLAMS|0145|California Air Resources Board|20180201|3.5|||||||||||||||||||||||||||||||||||||||||||||||
2|06|079|2006|88101|3|X|170|105|2|||1|SLAMS|0145|California Air Resources Board|20180202|4.1|||||||||||||||||||||||||||||||||||||||||||||||
2|06|079|2006|88101|3|X|170|105|2|||1|SLAMS|0145|California Air Resources Board|20180203|5.8|||||||||||||||||||||||||||||||||||||||||||||||
2|06|079|2006|88101|3|X|170|105|2|||1|SLAMS|0145|California Air Resources Board|20180204|5.5|||||||||||||||||||||||||||||||||||||||||||||||
2|06|079|2006|88101|3|X|170|105|2|||1|SLAMS|0145|California Air Resources Board|20180205|6.7|||||||||||||||||||||||||||||||||||||||||||||||
2|06|079|2006|88101|3|X|170|105|2|||1|SLAMS|0145|California Air Resources Board|20180206|4.6|||||||||||||||||||||||||||||||||||||||||||||||
2|06|079|2006|88101|3|X|170|105|2|||1|SLAMS|0145|California Air Resources Board|20180207|6.5|||||||||||||||||||||||||||||||||||||||||||||||
2|06|079|2006|88101|3|X|170|105|2|||1|SLAMS|0145|California Air Resources Board|20180208|6.0|||||||||||||||||||||||||||||||||||||||||||||||
2|06|079|2006|88101|3|X|170|105|2|||1|SLAMS|0145|California Air Resources Board|20180209|5.1|||||||||||||||||||||||||||||||||||||||||||||||
2|06|079|2006|88101|3|X|170|105|2|||1|SLAMS|0145|California Air Resources Board|20180210|9.7|||||||||||||||||||||||||||||||||||||||||||||||
2|06|079|2006|88101|3|X|170|105|2|||1|SLAMS|0145|California Air Resources Board|20180211|7.2|||||||||||||||||||||||||||||||||||||||||||||||
2|06|079|2006|88101|3|X|170|105|2|||1|SLAMS|0145|California Air Resources Board|20180212|3.4|||||||||||||||||||||||||||||||||||||||||||||||
2|06|079|2006|88101|3|X|170|105|2|||1|SLAMS|0145|California Air Resources Board|20180213|6.0|||||||||||||||||||||||||||||||||||||||||||||||
2|06|079|2006|88101|3|X|170|105|2|||1|SLAMS|0145|California Air Resources Board|20180214|6.1|||||||||||||||||||||||||||||||||||||||||||||||
2|06|079|2006|88101|3|X|170|105|2|||1|SLAMS|0145|California Air Resources Board|20180215|4.2|||||||||||||||||||||||||||||||||||||||||||||||
2|06|079|2006|88101|3|X|170|105|2|||1|SLAMS|0145|California Air Resources Board|20180216|6.9|||||||||||||||||||||||||||||||||||||||||||||||
2|06|079|2006|88101|3|X|170|105|2|||1|SLAMS|0145|California Air Resources Board|20180217|6.4|||||||||||||||||||||||||||||||||||||||||||||||
2|06|079|2006|88101|3|X|170|105|2|||1|SLAMS|0145|California Air Resources Board|20180223|3.1|||||||||||||||||||||||||||||||||||||||||||||||
2|06|079|2006|88101|3|X|170|105|2|||1|SLAMS|0145|California Air Resources Board|20180224|3.0|||||||||||||||||||||||||||||||||||||||||||||||
2|06|079|2006|88101|3|X|170|105|2|||1|SLAMS|0145|California Air Resources Board|20180225|3.3|||||||||||||||||||||||||||||||||||||||||||||||
2|06|079|2006|88101|3|X|170|105|2|||1|SLAMS|0145|California Air Resources Board|20180226|3.7|||||||||||||||||||||||||||||||||||||||||||||||
2|06|079|2006|88101|3|X|170|105|2|||1|SLAMS|0145|California Air Resources Board|20180227|2.6|||||||||||||||||||||||||||||||||||||||||||||||
2|06|079|2006|88101|3|X|170|105|2|||1|SLAMS|0145|California Air Resources Board|20180228|4.0|||||||||||||||||||||||||||||||||||||||||||||||
2|06|079|2006|88101|3|X|170|105|2|||1|SLAMS|0145|California Air Resources Board|20180301|1.6|||||||||||||||||||||||||||||||||||||||||||||||
2|06|079|2006|88101|3|X|170|105|2|||1|SLAMS|0145|California Air Resources Board|20180302|1.6|||||||||||||||||||||||||||||||||||||||||||||||
2|06|079|2006|88101|3|X|170|105|2|||1|SLAMS|0145|California Air Resources Board|20180303|1.3|||||||||||||||||||||||||||||||||||||||||||||||
2|06|079|2006|88101|3|X|170|105|2|||1|SLAMS|0145|California Air Resources Board|20180304|2.3|||||||||||||||||||||||||||||||||||||||||||||||
2|06|079|2006|88101|3|X|170|105|2|||1|SLAMS|0145|California Air Resources Board|20180305|2.3|||||||||||||||||||||||||||||||||||||||||||||||
2|06|079|2006|88101|3|X|170|105|2|||1|SLAMS|0145|California Air Resources Board|20180306|3.6|||||||||||||||||||||||||||||||||||||||||||||||
2|06|079|2006|88101|3|X|170|105|2|||1|SLAMS|0145|California Air Resources Board|20180307|2.7|||||||||||||||||||||||||||||||||||||||||||||||
2|06|079|2006|88101|3|X|170|105|2|||1|SLAMS|0145|California Air Resources Board|20180308|1.7|||||||||||||||||||||||||||||||||||||||||||||||
2|06|079|2006|88101|3|X|170|105|2|||1|SLAMS|0145|California Air Resources Board|20180309|1.2|||||||||||||||||||||||||||||||||||||||||||||||
2|06|079|2006|88101|3|X|170|105|2|||1|SLAMS|0145|California Air Resources Board|20180310|2.7|||||||||||||||||||||||||||||||||||||||||||||||
2|06|079|2006|88101|3|X|170|105|2|||1|SLAMS|0145|California Air Resources Board|20180311|.7|||||||||||||||||||||||||||||||||||||||||||||||
2|06|079|2006|88101|3|X|170|105|2|||1|SLAMS|0145|California Air Resources Board|20180312|1.0|||||||||||||||||||||||||||||||||||||||||||||||
2|06|079|2006|88101|3|X|170|105|2|||1|SLAMS|0145|California Air Resources Board|20180313|.2|||||||||||||||||||||||||||||||||||||||||||||||
2|06|079|2006|88101|3|X|170|105|2|||1|SLAMS|0145|California Air Resources Board|20180314|1.4|||||||||||||||||||||||||||||||||||||||||||||||
2|06|079|2006|88101|3|X|170|105|2|||1|SLAMS|0145|California Air Resources Board|20180315|2.6|||||||||||||||||||||||||||||||||||||||||||||||
2|06|079|2006|88101|3|X|170|105|2|||1|SLAMS|0145|California Air Resources Board|20180316|1.9|||||||||||||||||||||||||||||||||||||||||||||||
2|06|079|2006|88101|3|X|170|105|2|||1|SLAMS|0145|California Air Resources Board|20180317|1.6|||||||||||||||||||||||||||||||||||||||||||||||
2|06|079|2006|88101|3|X|170|105|2|||1|SLAMS|0145|California Air Resources Board|20180318|2.1|||||||||||||||||||||||||||||||||||||||||||||||
2|06|079|2006|88101|3|X|170|105|2|||1|SLAMS|0145|California Air Resources Board|20180322|1.9|||||||||||||||||||||||||||||||||||||||||||||||
2|06|079|2006|88101|3|X|170|105|2|||1|SLAMS|0145|California Air Resources Board|20180323|4.0|||||||||||||||||||||||||||||||||||||||||||||||
2|06|079|2006|88101|3|X|170|105|2|||1|SLAMS|0145|California Air Resources Board|20180324|2.5|||||||||||||||||||||||||||||||||||||||||||||||
2|06|079|2006|88101|3|X|170|105|2|||1|SLAMS|0145|California Air Resources Board|20180325|3.3|||||||||||||||||||||||||||||||||||||||||||||||
2|06|079|2006|88101|3|X|170|105|2|||1|SLAMS|0145|California Air Resources Board|20180326|3.5|||||||||||||||||||||||||||||||||||||||||||||||
2|06|079|2006|88101|3|X|170|105|2|||1|SLAMS|0145|California Air Resources Board|20180327|3.8|||||||||||||||||||||||||||||||||||||||||||||||
2|06|079|2006|88101|3|X|170|105|2|||1|SLAMS|0145|California Air Resources Board|20180328|3.3|||||||||||||||||||||||||||||||||||||||||||||||
2|06|079|2006|88101|3|X|170|105|2|||1|SLAMS|0145|California Air Resources Board|20180329|2.9|||||||||||||||||||||||||||||||||||||||||||||||
2|06|079|2006|88101|3|X|170|105|2|||1|SLAMS|0145|California Air Resources Board|20180330|7.1|||||||||||||||||||||||||||||||||||||||||||||||
2|06|079|2006|88101|3|X|170|105|2|||1|SLAMS|0145|California Air Resources Board|20180331|4.3|||||||||||||||||||||||||||||||||||||||||||||||
2|06|079|2006|88101|3|X|170|105|2|||1|SLAMS|0145|California Air Resources Board|20180401|6.3|||||||||||||||||||||||||||||||||||||||||||||||
2|06|079|2006|88101|3|X|170|105|2|||1|SLAMS|0145|California Air Resources Board|20180402|7.1|||||||||||||||||||||||||||||||||||||||||||||||
2|06|079|2006|88101|3|X|170|105|2|||1|SLAMS|0145|California Air Resources Board|20180403|10.7|||||||||||||||||||||||||||||||||||||||||||||||
2|06|079|2006|88101|3|X|170|105|2|||1|SLAMS|0145|California Air Resources Board|20180404|9.0|||||||||||||||||||||||||||||||||||||||||||||||
2|06|079|2006|88101|3|X|170|105|2|||1|SLAMS|0145|California Air Resources Board|20180405|5.2|||||||||||||||||||||||||||||||||||||||||||||||
2|06|079|2006|88101|3|X|170|105|2|||1|SLAMS|0145|California Air Resources Board|20180406|3.3|||||||||||||||||||||||||||||||||||||||||||||||
2|06|079|2006|88101|3|X|170|105|2|||1|SLAMS|0145|California Air Resources Board|20180407|6.0|||||||||||||||||||||||||||||||||||||||||||||||
2|06|079|2006|88101|3|X|170|105|2|||1|SLAMS|0145|California Air Resources Board|20180408|8.1|||||||||||||||||||||||||||||||||||||||||||||||
2|06|079|2006|88101|3|X|170|105|2|||1|SLAMS|0145|California Air Resources Board|20180409|7.8|||||||||||||||||||||||||||||||||||||||||||||||
2|06|079|2006|88101|3|X|170|105|2|||1|SLAMS|0145|California Air Resources Board|20180410|8.1|||||||||||||||||||||||||||||||||||||||||||||||
2|06|079|2006|88101|3|X|170|105|2|||1|SLAMS|0145|California Air Resources Board|20180411|4.4|||||||||||||||||||||||||||||||||||||||||||||||
2|06|079|2006|88101|3|X|170|105|2|||1|SLAMS|0145|California Air Resources Board|20180412|5.2|||||||||||||||||||||||||||||||||||||||||||||||
2|06|079|2006|88101|3|X|170|105|2|||1|SLAMS|0145|California Air Resources Board|20180413|5.2|||||||||||||||||||||||||||||||||||||||||||||||
2|06|079|2006|88101|3|X|170|105|2|||1|SLAMS|0145|California Air Resources Board|20180414|8.6|||||||||||||||||||||||||||||||||||||||||||||||
2|06|079|2006|88101|3|X|170|105|2|||1|SLAMS|0145|California Air Resources Board|20180415|12.4|||||||||||||||||||||||||||||||||||||||||||||||
2|06|079|2006|88101|3|X|170|105|2|||1|SLAMS|0145|California Air Resources Board|20180416|2.0|||||||||||||||||||||||||||||||||||||||||||||||
2|06|079|2006|88101|3|X|170|105|2|||1|SLAMS|0145|California Air Resources Board|20180417|2.1|||||||||||||||||||||||||||||||||||||||||||||||
2|06|079|2006|88101|3|X|170|105|2|||1|SLAMS|0145|California Air Resources Board|20180418|4.1|||||||||||||||||||||||||||||||||||||||||||||||
2|06|079|2006|88101|3|X|170|105|2|||1|SLAMS|0145|California Air Resources Board|20180419|4.2|||||||||||||||||||||||||||||||||||||||||||||||
2|06|079|2006|88101|3|X|170|105|2|||1|SLAMS|0145|California Air Resources Board|20180420|8.4|||||||||||||||||||||||||||||||||||||||||||||||
2|06|079|2006|88101|3|X|170|105|2|||1|SLAMS|0145|California Air Resources Board|20180421|9.4|||||||||||||||||||||||||||||||||||||||||||||||
2|06|079|2006|88101|3|X|170|105|2|||1|SLAMS|0145|California Air Resources Board|20180422|12.9|||||||||||||||||||||||||||||||||||||||||||||||
2|06|079|2006|88101|3|X|170|105|2|||1|SLAMS|0145|California Air Resources Board|20180423|6.0|||||||||||||||||||||||||||||||||||||||||||||||
2|06|079|2006|88101|3|X|170|105|2|||1|SLAMS|0145|California Air Resources Board|20180424|6.4|||||||||||||||||||||||||||||||||||||||||||||||
2|06|079|2006|88101|3|X|170|105|2|||1|SLAMS|0145|California Air Resources Board|20180425|7.6|||||||||||||||||||||||||||||||||||||||||||||||
2|06|079|2006|88101|3|X|170|105|2|||1|SLAMS|0145|California Air Resources Board|20180426|8.9|||||||||||||||||||||||||||||||||||||||||||||||
2|06|079|2006|88101|3|X|170|105|2|||1|SLAMS|0145|California Air Resources Board|20180427|8.0|||||||||||||||||||||||||||||||||||||||||||||||
2|06|079|2006|88101|3|X|170|105|2|||1|SLAMS|0145|California Air Resources Board|20180428|5.9|||||||||||||||||||||||||||||||||||||||||||||||
2|06|079|2006|88101|3|X|170|105|2|||1|SLAMS|0145|California Air Resources Board|20180429|3.7|||||||||||||||||||||||||||||||||||||||||||||||
2|06|079|2006|88101|3|X|170|105|2|||1|SLAMS|0145|California Air Resources Board|20180430|7.1|||||||||||||||||||||||||||||||||||||||||||||||
2|06|079|2006|88101|3|X|170|105|2|||1|SLAMS|0145|California Air Resources Board|20180501|7.3|||||||||||||||||||||||||||||||||||||||||||||||
2|06|079|2006|88101|3|X|170|105|2|||1|SLAMS|0145|California Air Resources Board|20180502|5.0|||||||||||||||||||||||||||||||||||||||||||||||
2|06|079|2006|88101|3|X|170|105|2|||1|SLAMS|0145|California Air Resources Board|20180503|6.6|||||||||||||||||||||||||||||||||||||||||||||||
2|06|079|2006|88101|3|X|170|105|2|||1|SLAMS|0145|California Air Resources Board|20180504|6.6|||||||||||||||||||||||||||||||||||||||||||||||
2|06|079|2006|88101|3|X|170|105|2|||1|SLAMS|0145|California Air Resources Board|20180505|5.6|||||||||||||||||||||||||||||||||||||||||||||||
2|06|079|2006|88101|3|X|170|105|2|||1|SLAMS|0145|California Air Resources Board|20180506|5.2|||||||||||||||||||||||||||||||||||||||||||||||
2|06|079|2006|88101|3|X|170|105|2|||1|SLAMS|0145|California Air Resources Board|20180507|4.2|||||||||||||||||||||||||||||||||||||||||||||||
2|06|079|2006|88101|3|X|170|105|2|||1|SLAMS|0145|California Air Resources Board|20180508|3.0|||||||||||||||||||||||||||||||||||||||||||||||
2|06|079|2006|88101|3|X|170|105|2|||1|SLAMS|0145|California Air Resources Board|20180509|4.0|||||||||||||||||||||||||||||||||||||||||||||||
2|06|079|2006|88101|3|X|170|105|2|||1|SLAMS|0145|California Air Resources Board|20180510|8.2|||||||||||||||||||||||||||||||||||||||||||||||
2|06|079|2006|88101|3|X|170|105|2|||1|SLAMS|0145|California Air Resources Board|20180517|3.0|||||||||||||||||||||||||||||||||||||||||||||||
2|06|079|2006|88101|3|X|170|105|2|||1|SLAMS|0145|California Air Resources Board|20180518|4.0|||||||||||||||||||||||||||||||||||||||||||||||
2|06|079|2006|88101|3|X|170|105|2|||1|SLAMS|0145|California Air Resources Board|20180519|5.2|||||||||||||||||||||||||||||||||||||||||||||||
2|06|079|2006|88101|3|X|170|105|2|||1|SLAMS|0145|California Air Resources Board|20180520|6.3|||||||||||||||||||||||||||||||||||||||||||||||
2|06|079|2006|88101|3|X|170|105|2|||1|SLAMS|0145|California Air Resources Board|20180521|5.2|||||||||||||||||||||||||||||||||||||||||||||||
2|06|079|2006|88101|3|X|170|105|2|||1|SLAMS|0145|California Air Resources Board|20180522|2.4|||||||||||||||||||||||||||||||||||||||||||||||
2|06|079|2006|88101|3|X|170|105|2|||1|SLAMS|0145|California Air Resources Board|20180523|.0|||||||||||||||||||||||||||||||||||||||||||||||
2|06|079|2006|88101|3|X|170|105|2|||1|SLAMS|0145|California Air Resources Board|20180524|1.1|||||||||||||||||||||||||||||||||||||||||||||||
2|06|079|2006|88101|3|X|170|105|2|||1|SLAMS|0145|California Air Resources Board|20180525|.4|||||||||||||||||||||||||||||||||||||||||||||||
2|06|079|2006|88101|3|X|170|105|2|||1|SLAMS|0145|California Air Resources Board|20180526|3.0|||||||||||||||||||||||||||||||||||||||||||||||
2|06|079|2006|88101|3|X|170|105|2|||1|SLAMS|0145|California Air Resources Board|20180527|5.7|||||||||||||||||||||||||||||||||||||||||||||||
2|06|079|2006|88101|3|X|170|105|2|||1|SLAMS|0145|California Air Resources Board|20180528|4.2|||||||||||||||||||||||||||||||||||||||||||||||
2|06|079|2006|88101|3|X|170|105|2|||1|SLAMS|0145|California Air Resources Board|20180529|3.3|||||||||||||||||||||||||||||||||||||||||||||||
2|06|079|2006|88101|3|X|170|105|2|||1|SLAMS|0145|California Air Resources Board|20180530|5.6|||||||||||||||||||||||||||||||||||||||||||||||
2|06|079|2006|88101|3|X|170|105|2|||1|SLAMS|0145|California Air Resources Board|20180531|6.0|||||||||||||||||||||||||||||||||||||||||||||||
2|06|079|2006|88101|3|X|170|105|2|||1|SLAMS|0145|California Air Resources Board|20180601|5.5|||||||||||||||||||||||||||||||||||||||||||||||
2|06|079|2006|88101|3|X|170|105|2|||1|SLAMS|0145|California Air Resources Board|20180602|8.1|||||||||||||||||||||||||||||||||||||||||||||||
2|06|079|2006|88101|3|X|170|105|2|||1|SLAMS|0145|California Air Resources Board|20180603|7.5|||||||||||||||||||||||||||||||||||||||||||||||
2|06|079|2006|88101|3|X|170|105|2|||1|SLAMS|0145|California Air Resources Board|20180604|7.7|||||||||||||||||||||||||||||||||||||||||||||||
2|06|079|2006|88101|3|X|170|105|2|||1|SLAMS|0145|California Air Resources Board|20180605|8.9|||||||||||||||||||||||||||||||||||||||||||||||
2|06|079|2006|88101|3|X|170|105|2|||1|SLAMS|0145|California Air Resources Board|20180606|6.1|||||||||||||||||||||||||||||||||||||||||||||||
2|06|079|2006|88101|3|X|170|105|2|||1|SLAMS|0145|California Air Resources Board|20180607|5.6|||||||||||||||||||||||||||||||||||||||||||||||
2|06|079|2006|88101|3|X|170|105|2|||1|SLAMS|0145|California Air Resources Board|20180608|8.1|||||||||||||||||||||||||||||||||||||||||||||||
2|06|079|2006|88101|3|X|170|105|2|||1|SLAMS|0145|California Air Resources Board|20180609|5.7|||||||||||||||||||||||||||||||||||||||||||||||
2|06|079|2006|88101|3|X|170|105|2|||1|SLAMS|0145|California Air Resources Board|20180610|7.2|||||||||||||||||||||||||||||||||||||||||||||||
2|06|079|2006|88101|3|X|170|105|2|||1|SLAMS|0145|California Air Resources Board|20180611|5.8|||||||||||||||||||||||||||||||||||||||||||||||
2|06|079|2006|88101|3|X|170|105|2|||1|SLAMS|0145|California Air Resources Board|20180612|4.6|||||||||||||||||||||||||||||||||||||||||||||||
2|06|079|2006|88101|3|X|170|105|2|||1|SLAMS|0145|California Air Resources Board|20180613|6.8|||||||||||||||||||||||||||||||||||||||||||||||
2|06|079|2006|88101|3|X|170|105|2|||1|SLAMS|0145|California Air Resources Board|20180614|6.4|||||||||||||||||||||||||||||||||||||||||||||||
2|06|079|2006|88101|3|X|170|105|2|||1|SLAMS|0145|California Air Resources Board|20180615|4.4|||||||||||||||||||||||||||||||||||||||||||||||
2|06|079|2006|88101|3|X|170|105|2|||1|SLAMS|0145|California Air Resources Board|20180616|2.7|||||||||||||||||||||||||||||||||||||||||||||||
2|06|079|2006|88101|3|X|170|105|2|||1|SLAMS|0145|California Air Resources Board|20180617|4.8|||||||||||||||||||||||||||||||||||||||||||||||
2|06|079|2006|88101|3|X|170|105|2|||1|SLAMS|0145|California Air Resources Board|20180618|5.8|||||||||||||||||||||||||||||||||||||||||||||||
2|06|079|2006|88101|3|X|170|105|2|||1|SLAMS|0145|California Air Resources Board|20180619|4.5|||||||||||||||||||||||||||||||||||||||||||||||
2|06|079|2006|88101|3|X|170|105|2|||1|SLAMS|0145|California Air Resources Board|20180620|5.5|||||||||||||||||||||||||||||||||||||||||||||||
2|06|079|2006|88101|3|X|170|105|2|||1|SLAMS|0145|California Air Resources Board|20180621|5.5|||||||||||||||||||||||||||||||||||||||||||||||
2|06|079|2006|88101|3|X|170|105|2|||1|SLAMS|0145|California Air Resources Board|20180622|6.2|||||||||||||||||||||||||||||||||||||||||||||||
2|06|079|2006|88101|3|X|170|105|2|||1|SLAMS|0145|California Air Resources Board|20180623|5.7|||||||||||||||||||||||||||||||||||||||||||||||
2|06|079|2006|88101|3|X|170|105|2|||1|SLAMS|0145|California Air Resources Board|20180624|4.4|||||||||||||||||||||||||||||||||||||||||||||||
2|06|079|2006|88101|3|X|170|105|2|||1|SLAMS|0145|California Air Resources Board|20180625|2.4|||||||||||||||||||||||||||||||||||||||||||||||
2|06|079|2006|88101|3|X|170|105|2|||1|SLAMS|0145|California Air Resources Board|20180626|3.3|||||||||||||||||||||||||||||||||||||||||||||||
2|06|079|2006|88101|3|X|170|105|2|||1|SLAMS|0145|California Air Resources Board|20180627|3.0|||||||||||||||||||||||||||||||||||||||||||||||
2|06|079|2006|88101|3|X|170|105|2|||1|SLAMS|0145|California Air Resources Board|20180628|8.0|||||||||||||||||||||||||||||||||||||||||||||||
2|06|079|2006|88101|3|X|170|105|2|||1|SLAMS|0145|California Air Resources Board|20180629|9.6|||||||||||||||||||||||||||||||||||||||||||||||
2|06|079|2006|88101|3|X|170|105|2|||1|SLAMS|0145|California Air Resources Board|20180630|8.2|||||||||||||||||||||||||||||||||||||||||||||||
2|06|079|2006|88101|3|X|170|105|2|||1|SLAMS|0145|California Air Resources Board|20180701|4.2|||||||||||||||||||||||||||||||||||||||||||||||
2|06|079|2006|88101|3|X|170|105|2|||1|SLAMS|0145|California Air Resources Board|20180702|2.0|||||||||||||||||||||||||||||||||||||||||||||||
2|06|079|2006|88101|3|X|170|105|2|||1|SLAMS|0145|California Air Resources Board|20180703|1.9|||||||||||||||||||||||||||||||||||||||||||||||
2|06|079|2006|88101|3|X|170|105|2|||1|SLAMS|0145|California Air Resources Board|20180704|4.5|||||||||||||||||||||||||||||||||||||||||||||||
2|06|079|2006|88101|3|X|170|105|2|||1|SLAMS|0145|California Air Resources Board|20180705|5.3|||||||||||||||||||||||||||||||||||||||||||||||
2|06|079|2006|88101|3|X|170|105|2|||1|SLAMS|0145|California Air Resources Board|20180706|7.3|||||||||||||||||||||||||||||||||||||||||||||||
2|06|079|2006|88101|3|X|170|105|2|||1|SLAMS|0145|California Air Resources Board|20180707|9.7|||||||||||||||||||||||||||||||||||||||||||||||
2|06|079|2006|88101|3|X|170|105|2|||1|SLAMS|0145|California Air Resources Board|20180708|11.9|||||||||||||||||||||||||||||||||||||||||||||||
2|06|079|2006|88101|3|X|170|105|2|||1|SLAMS|0145|California Air Resources Board|20180709|8.0|||||||||||||||||||||||||||||||||||||||||||||||
2|06|079|2006|88101|3|X|170|105|2|||1|SLAMS|0145|California Air Resources Board|20180710|11.7|||||||||||||||||||||||||||||||||||||||||||||||
2|06|079|2006|88101|3|X|170|105|2|||1|SLAMS|0145|California Air Resources Board|20180711|6.0|||||||||||||||||||||||||||||||||||||||||||||||
2|06|079|2006|88101|3|X|170|105|2|||1|SLAMS|0145|California Air Resources Board|20180712|1.2|||||||||||||||||||||||||||||||||||||||||||||||
2|06|079|2006|88101|3|X|170|105|2|||1|SLAMS|0145|California Air Resources Board|20180713|.8|||||||||||||||||||||||||||||||||||||||||||||||
2|06|079|2006|88101|3|X|170|105|2|||1|SLAMS|0145|California Air Resources Board|20180714|1.2|||||||||||||||||||||||||||||||||||||||||||||||
2|06|079|2006|88101|3|X|170|105|2|||1|SLAMS|0145|California Air Resources Board|20180715|1.1|||||||||||||||||||||||||||||||||||||||||||||||
2|06|079|2006|88101|3|X|170|105|2|||1|SLAMS|0145|California Air Resources Board|20180716|2.8|||||||||||||||||||||||||||||||||||||||||||||||
2|06|079|2006|88101|3|X|170|105|2|||1|SLAMS|0145|California Air Resources Board|20180717|2.9|||||||||||||||||||||||||||||||||||||||||||||||
2|06|079|2006|88101|3|X|170|105|2|||1|SLAMS|0145|California Air Resources Board|20180718|3.0|||||||||||||||||||||||||||||||||||||||||||||||
2|06|079|2006|88101|3|X|170|105|2|||1|SLAMS|0145|California Air Resources Board|20180719|2.0|||||||||||||||||||||||||||||||||||||||||||||||
2|06|079|2006|88101|3|X|170|105|2|||1|SLAMS|0145|California Air Resources Board|20180720|1.6|||||||||||||||||||||||||||||||||||||||||||||||
2|06|079|2006|88101|3|X|170|105|2|||1|SLAMS|0145|California Air Resources Board|20180721|1.5|||||||||||||||||||||||||||||||||||||||||||||||
2|06|079|2006|88101|3|X|170|105|2|||1|SLAMS|0145|California Air Resources Board|20180722|.8|||||||||||||||||||||||||||||||||||||||||||||||
2|06|079|2006|88101|3|X|170|105|2|||1|SLAMS|0145|California Air Resources Board|20180723|6.1|||||||||||||||||||||||||||||||||||||||||||||||
2|06|079|2006|88101|3|X|170|105|2|||1|SLAMS|0145|California Air Resources Board|20180724|6.6|||||||||||||||||||||||||||||||||||||||||||||||
2|06|079|2006|88101|3|X|170|105|2|||1|SLAMS|0145|California Air Resources Board|20180725|8.8|||||||||||||||||||||||||||||||||||||||||||||||
2|06|079|2006|88101|3|X|170|105|2|||1|SLAMS|0145|California Air Resources Board|20180726|6.2|||||||||||||||||||||||||||||||||||||||||||||||
2|06|079|2006|88101|3|X|170|105|2|||1|SLAMS|0145|California Air Resources Board|20180727|4.5|||||||||||||||||||||||||||||||||||||||||||||||
2|06|079|2006|88101|3|X|170|105|2|||1|SLAMS|0145|California Air Resources Board|20180728|4.0|||||||||||||||||||||||||||||||||||||||||||||||
2|06|079|2006|88101|3|X|170|105|2|||1|SLAMS|0145|California Air Resources Board|20180729|3.7|||||||||||||||||||||||||||||||||||||||||||||||
2|06|079|2006|88101|3|X|170|105|2|||1|SLAMS|0145|California Air Resources Board|20180730|2.5|||||||||||||||||||||||||||||||||||||||||||||||
2|06|079|2006|88101|3|X|170|105|2|||1|SLAMS|0145|California Air Resources Board|20180731|3.5|||||||||||||||||||||||||||||||||||||||||||||||
2|06|079|2006|88101|3|X|170|105|2|||1|SLAMS|0145|California Air Resources Board|20180801|4.8|||||||||||||||||||||||||||||||||||||||||||||||
2|06|079|2006|88101|3|X|170|105|2|||1|SLAMS|0145|California Air Resources Board|20180804|10.3|||||||||||||||||||||||||||||||||||||||||||||||
2|06|079|2006|88101|3|X|170|105|2|||1|SLAMS|0145|California Air Resources Board|20180805|9.5|||||||||||||||||||||||||||||||||||||||||||||||
2|06|079|2006|88101|3|X|170|105|2|||1|SLAMS|0145|California Air Resources Board|20180806|7.6|||||||||||||||||||||||||||||||||||||||||||||||
2|06|079|2006|88101|3|X|170|105|2|||1|SLAMS|0145|California Air Resources Board|20180807|7.5|||||||||||||||||||||||||||||||||||||||||||||||
2|06|079|2006|88101|3|X|170|105|2|||1|SLAMS|0145|California Air Resources Board|20180808|7.7|||||||||||||||||||||||||||||||||||||||||||||||
2|06|079|2006|88101|3|X|170|105|2|||1|SLAMS|0145|California Air Resources Board|20180809|5.0|||||||||||||||||||||||||||||||||||||||||||||||
2|06|079|2006|88101|3|X|170|105|2|||1|SLAMS|0145|California Air Resources Board|20180810|4.2|||||||||||||||||||||||||||||||||||||||||||||||
2|06|079|2006|88101|3|X|170|105|2|||1|SLAMS|0145|California Air Resources Board|20180811|4.3|||||||||||||||||||||||||||||||||||||||||||||||
2|06|079|2006|88101|3|X|170|105|2|||1|SLAMS|0145|California Air Resources Board|20180812|6.5|||||||||||||||||||||||||||||||||||||||||||||||
2|06|079|2006|88101|3|X|170|105|2|||1|SLAMS|0145|California Air Resources Board|20180813|5.0|||||||||||||||||||||||||||||||||||||||||||||||
2|06|079|2006|88101|3|X|170|105|2|||1|SLAMS|0145|California Air Resources Board|20180814|6.0|||||||||||||||||||||||||||||||||||||||||||||||
2|06|079|2006|88101|3|X|170|105|2|||1|SLAMS|0145|California Air Resources Board|20180815|9.5|||||||||||||||||||||||||||||||||||||||||||||||
2|06|079|2006|88101|3|X|170|105|2|||1|SLAMS|0145|California Air Resources Board|20180816|14.9|||||||||||||||||||||||||||||||||||||||||||||||
2|06|079|2006|88101|3|X|170|105|2|||1|SLAMS|0145|California Air Resources Board|20180817|17.8|||||||||||||||||||||||||||||||||||||||||||||||
2|06|079|2006|88101|3|X|170|105|2|||1|SLAMS|0145|California Air Resources Board|20180818|13.6|||||||||||||||||||||||||||||||||||||||||||||||
2|06|079|2006|88101|3|X|170|105|2|||1|SLAMS|0145|California Air Resources Board|20180819|13.3|||||||||||||||||||||||||||||||||||||||||||||||
2|06|079|2006|88101|3|X|170|105|2|||1|SLAMS|0145|California Air Resources Board|20180820|19.7|||||||||||||||||||||||||||||||||||||||||||||||
2|06|079|2006|88101|3|X|170|105|2|||1|SLAMS|0145|California Air Resources Board|20180821|17.1|||||||||||||||||||||||||||||||||||||||||||||||
2|06|079|2006|88101|3|X|170|105|2|||1|SLAMS|0145|California Air Resources Board|20180822|17.5|||||||||||||||||||||||||||||||||||||||||||||||
2|06|079|2006|88101|3|X|170|105|2|||1|SLAMS|0145|California Air Resources Board|20180823|35.2|||||||||||||||||||||||||||||||||||||||||||||||
2|06|079|2006|88101|3|X|170|105|2|||1|SLAMS|0145|California Air Resources Board|20180824|38.4|||||||||||||||||||||||||||||||||||||||||||||||
2|06|079|2006|88101|3|X|170|105|2|||1|SLAMS|0145|California Air Resources Board|20180825|17.1|||||||||||||||||||||||||||||||||||||||||||||||
2|06|079|2006|88101|3|X|170|105|2|||1|SLAMS|0145|California Air Resources Board|20180826|11.6|||||||||||||||||||||||||||||||||||||||||||||||
2|06|079|2006|88101|3|X|170|105|2|||1|SLAMS|0145|California Air Resources Board|20180827|8.3|||||||||||||||||||||||||||||||||||||||||||||||
2|06|079|2006|88101|3|X|170|105|2|||1|SLAMS|0145|California Air Resources Board|20180828|7.7|||||||||||||||||||||||||||||||||||||||||||||||
2|06|079|2006|88101|3|X|170|105|2|||1|SLAMS|0145|California Air Resources Board|20180829|6.6|||||||||||||||||||||||||||||||||||||||||||||||
2|06|079|2006|88101|3|X|170|105|2|||1|SLAMS|0145|California Air Resources Board|20180830|10.4|||||||||||||||||||||||||||||||||||||||||||||||
2|06|079|2006|88101|3|X|170|105|2|||1|SLAMS|0145|California Air Resources Board|20180831|9.5|||||||||||||||||||||||||||||||||||||||||||||||
2|06|079|2006|88101|3|X|170|105|2|||1|SLAMS|0145|California Air Resources Board|20180901|8.3|||||||||||||||||||||||||||||||||||||||||||||||
2|06|079|2006|88101|3|X|170|105|2|||1|SLAMS|0145|California Air Resources Board|20180902|9.5|||||||||||||||||||||||||||||||||||||||||||||||
2|06|079|2006|88101|3|X|170|105|2|||1|SLAMS|0145|California Air Resources Board|20180903|5.5|||||||||||||||||||||||||||||||||||||||||||||||
2|06|079|2006|88101|3|X|170|105|2|||1|SLAMS|0145|California Air Resources Board|20180904|6.5|||||||||||||||||||||||||||||||||||||||||||||||
2|06|079|2006|88101|3|X|170|105|2|||1|SLAMS|0145|California Air Resources Board|20180905|6.3|||||||||||||||||||||||||||||||||||||||||||||||
2|06|079|2006|88101|3|X|170|105|2|||1|SLAMS|0145|California Air Resources Board|20180906|8.0|||||||||||||||||||||||||||||||||||||||||||||||
2|06|079|2006|88101|3|X|170|105|2|||1|SLAMS|0145|California Air Resources Board|20180907|9.8|||||||||||||||||||||||||||||||||||||||||||||||
2|06|079|2006|88101|3|X|170|105|2|||1|SLAMS|0145|California Air Resources Board|20180908|9.5|||||||||||||||||||||||||||||||||||||||||||||||
2|06|079|2006|88101|3|X|170|105|2|||1|SLAMS|0145|California Air Resources Board|20180909|9.5|||||||||||||||||||||||||||||||||||||||||||||||
2|06|079|2006|88101|3|X|170|105|2|||1|SLAMS|0145|California Air Resources Board|20180910|7.1|||||||||||||||||||||||||||||||||||||||||||||||
2|06|079|2006|88101|3|X|170|105|2|||1|SLAMS|0145|California Air Resources Board|20180911|9.4|||||||||||||||||||||||||||||||||||||||||||||||
2|06|079|2006|88101|3|X|170|105|2|||1|SLAMS|0145|California Air Resources Board|20180912|7.0|||||||||||||||||||||||||||||||||||||||||||||||
2|06|079|2006|88101|3|X|170|105|2|||1|SLAMS|0145|California Air Resources Board|20180913|5.2|||||||||||||||||||||||||||||||||||||||||||||||
2|06|079|2006|88101|3|X|170|105|2|||1|SLAMS|0145|California Air Resources Board|20180914|5.7|||||||||||||||||||||||||||||||||||||||||||||||
2|06|079|2006|88101|3|X|170|105|2|||1|SLAMS|0145|California Air Resources Board|20180915|6.2|||||||||||||||||||||||||||||||||||||||||||||||
2|06|079|2006|88101|3|X|170|105|2|||1|SLAMS|0145|California Air Resources Board|20180916|12.5|||||||||||||||||||||||||||||||||||||||||||||||
2|06|079|2006|88101|3|X|170|105|2|||1|SLAMS|0145|California Air Resources Board|20180917|4.7|||||||||||||||||||||||||||||||||||||||||||||||
2|06|079|2006|88101|3|X|170|105|2|||1|SLAMS|0145|California Air Resources Board|20180918|7.0|||||||||||||||||||||||||||||||||||||||||||||||
2|06|079|2006|88101|3|X|170|105|2|||1|SLAMS|0145|California Air Resources Board|20180919|9.0|||||||||||||||||||||||||||||||||||||||||||||||
2|06|079|2006|88101|3|X|170|105|2|||1|SLAMS|0145|California Air Resources Board|20180920|11.6|||||||||||||||||||||||||||||||||||||||||||||||
2|06|079|2006|88101|3|X|170|105|2|||1|SLAMS|0145|California Air Resources Board|20180921|7.7|||||||||||||||||||||||||||||||||||||||||||||||
2|06|079|2006|88101|3|X|170|105|2|||1|SLAMS|0145|California Air Resources Board|20180922|5.9|||||||||||||||||||||||||||||||||||||||||||||||
2|06|079|2006|88101|3|X|170|105|2|||1|SLAMS|0145|California Air Resources Board|20180923|4.3|||||||||||||||||||||||||||||||||||||||||||||||
2|06|079|2006|88101|3|X|170|105|2|||1|SLAMS|0145|California Air Resources Board|20180924|7.5|||||||||||||||||||||||||||||||||||||||||||||||
2|06|079|2006|88101|3|X|170|105|2|||1|SLAMS|0145|California Air Resources Board|20180925|9.5|||||||||||||||||||||||||||||||||||||||||||||||
2|06|079|2006|88101|3|X|170|105|2|||1|SLAMS|0145|California Air Resources Board|20180926|9.6|||||||||||||||||||||||||||||||||||||||||||||||
2|06|079|2006|88101|3|X|170|105|2|||1|SLAMS|0145|California Air Resources Board|20180927|5.5|||||||||||||||||||||||||||||||||||||||||||||||
2|06|079|2006|88101|3|X|170|105|2|||1|SLAMS|0145|California Air Resources Board|20180928|7.0|||||||||||||||||||||||||||||||||||||||||||||||
2|06|079|2006|88101|3|X|170|105|2|||1|SLAMS|0145|California Air Resources Board|20180929|6.5|||||||||||||||||||||||||||||||||||||||||||||||
2|06|079|2006|88101|3|X|170|105|2|||1|SLAMS|0145|California Air Resources Board|20180930|3.8|||||||||||||||||||||||||||||||||||||||||||||||
2|06|079|2006|88101|3|X|170|105|2|||1|SLAMS|0145|California Air Resources Board|20181001|3.4|||||||||||||||||||||||||||||||||||||||||||||||
2|06|079|2006|88101|3|X|170|105|2|||1|SLAMS|0145|California Air Resources Board|20181002|3.9|||||||||||||||||||||||||||||||||||||||||||||||
2|06|079|2006|88101|3|X|170|105|2|||1|SLAMS|0145|California Air Resources Board|20181003|3.0|||||||||||||||||||||||||||||||||||||||||||||||
2|06|079|2006|88101|3|X|170|105|2|||1|SLAMS|0145|California Air Resources Board|20181004|2.0|||||||||||||||||||||||||||||||||||||||||||||||
2|06|079|2006|88101|3|X|170|105|2|||1|SLAMS|0145|California Air Resources Board|20181005|4.5|||||||||||||||||||||||||||||||||||||||||||||||
2|06|079|2006|88101|3|X|170|105|2|||1|SLAMS|0145|California Air Resources Board|20181006|6.7|||||||||||||||||||||||||||||||||||||||||||||||
2|06|079|2006|88101|3|X|170|105|2|||1|SLAMS|0145|California Air Resources Board|20181007|6.5|||||||||||||||||||||||||||||||||||||||||||||||
2|06|079|2006|88101|3|X|170|105|2|||1|SLAMS|0145|California Air Resources Board|20181008|7.7|||||||||||||||||||||||||||||||||||||||||||||||
2|06|079|2006|88101|3|X|170|105|2|||1|SLAMS|0145|California Air Resources Board|20181009|7.0|||||||||||||||||||||||||||||||||||||||||||||||
2|06|079|2006|88101|3|X|170|105|2|||1|SLAMS|0145|California Air Resources Board|20181010|5.8|||||||||||||||||||||||||||||||||||||||||||||||
2|06|079|2006|88101|3|X|170|105|2|||1|SLAMS|0145|California Air Resources Board|20181011|4.4|||||||||||||||||||||||||||||||||||||||||||||||
2|06|079|2006|88101|3|X|170|105|2|||1|SLAMS|0145|California Air Resources Board|20181012|5.8|||||||||||||||||||||||||||||||||||||||||||||||
2|06|079|2006|88101|3|X|170|105|2|||1|SLAMS|0145|California Air Resources Board|20181013|8.3|||||||||||||||||||||||||||||||||||||||||||||||
2|06|079|2006|88101|3|X|170|105|2|||1|SLAMS|0145|California Air Resources Board|20181014|7.1|||||||||||||||||||||||||||||||||||||||||||||||
2|06|079|2006|88101|3|X|170|105|2|||1|SLAMS|0145|California Air Resources Board|20181015|6.6|||||||||||||||||||||||||||||||||||||||||||||||
2|06|079|2006|88101|3|X|170|105|2|||1|SLAMS|0145|California Air Resources Board|20181016|4.7|||||||||||||||||||||||||||||||||||||||||||||||
2|06|079|2006|88101|3|X|170|105|2|||1|SLAMS|0145|California Air Resources Board|20181017|3.7|||||||||||||||||||||||||||||||||||||||||||||||
2|06|079|2006|88101|3|X|170|105|2|||1|SLAMS|0145|California Air Resources Board|20181018|7.4|||||||||||||||||||||||||||||||||||||||||||||||
2|06|079|2006|88101|3|X|170|105|2|||1|SLAMS|0145|California Air Resources Board|20181019|7.8|||||||||||||||||||||||||||||||||||||||||||||||
2|06|079|2006|88101|3|X|170|105|2|||1|SLAMS|0145|California Air Resources Board|20181020|8.4|||||||||||||||||||||||||||||||||||||||||||||||
2|06|079|2006|88101|3|X|170|105|2|||1|SLAMS|0145|California Air Resources Board|20181021|8.9|||||||||||||||||||||||||||||||||||||||||||||||
2|06|079|2006|88101|3|X|170|105|2|||1|SLAMS|0145|California Air Resources Board|20181022|9.3|||||||||||||||||||||||||||||||||||||||||||||||
2|06|079|2006|88101|3|X|170|105|2|||1|SLAMS|0145|California Air Resources Board|20181023|4.6|||||||||||||||||||||||||||||||||||||||||||||||
2|06|079|2006|88101|3|X|170|105|2|||1|SLAMS|0145|California Air Resources Board|20181024|5.0|||||||||||||||||||||||||||||||||||||||||||||||
2|06|079|2006|88101|3|X|170|105|2|||1|SLAMS|0145|California Air Resources Board|20181025|5.2|||||||||||||||||||||||||||||||||||||||||||||||
2|06|079|2006|88101|3|X|170|105|2|||1|SLAMS|0145|California Air Resources Board|20181026|6.4|||||||||||||||||||||||||||||||||||||||||||||||
2|06|079|2006|88101|3|X|170|105|2|||1|SLAMS|0145|California Air Resources Board|20181027|6.4|||||||||||||||||||||||||||||||||||||||||||||||
2|06|079|2006|88101|3|X|170|105|2|||1|SLAMS|0145|California Air Resources Board|20181028|4.7|||||||||||||||||||||||||||||||||||||||||||||||
2|06|079|2006|88101|3|X|170|105|2|||1|SLAMS|0145|California Air Resources Board|20181029|2.3|||||||||||||||||||||||||||||||||||||||||||||||
2|06|079|2006|88101|3|X|170|105|2|||1|SLAMS|0145|California Air Resources Board|20181030|4.1|||||||||||||||||||||||||||||||||||||||||||||||
2|06|079|2006|88101|3|X|170|105|2|||1|SLAMS|0145|California Air Resources Board|20181031|4.7|||||||||||||||||||||||||||||||||||||||||||||||
2|06|079|2006|88101|3|X|170|105|2|||1|SLAMS|0145|California Air Resources Board|20181101|4.7|||||||||||||||||||||||||||||||||||||||||||||||
2|06|079|2006|88101|3|X|170|105|2|||1|SLAMS|0145|California Air Resources Board|20181102|5.5|||||||||||||||||||||||||||||||||||||||||||||||
2|06|079|2006|88101|3|X|170|105|2|||1|SLAMS|0145|California Air Resources Board|20181103|7.1|||||||||||||||||||||||||||||||||||||||||||||||
2|06|079|2006|88101|3|X|170|105|2|||1|SLAMS|0145|California Air Resources Board|20181104|7.2|||||||||||||||||||||||||||||||||||||||||||||||
2|06|079|2006|88101|3|X|170|105|2|||1|SLAMS|0145|California Air Resources Board|20181105|6.2|||||||||||||||||||||||||||||||||||||||||||||||
2|06|079|2006|88101|3|X|170|105|2|||1|SLAMS|0145|California Air Resources Board|20181106|7.6|||||||||||||||||||||||||||||||||||||||||||||||
2|06|079|2006|88101|3|X|170|105|2|||1|SLAMS|0145|California Air Resources Board|20181107|5.8|||||||||||||||||||||||||||||||||||||||||||||||
2|06|079|2006|88101|3|X|170|105|2|||1|SLAMS|0145|California Air Resources Board|20181108|6.3|||||||||||||||||||||||||||||||||||||||||||||||
2|06|079|2006|88101|3|X|170|105|2|||1|SLAMS|0145|California Air Resources Board|20181109|4.8|||||||||||||||||||||||||||||||||||||||||||||||
2|06|079|2006|88101|3|X|170|105|2|||1|SLAMS|0145|California Air Resources Board|20181110|12.6|||||||||||||||||||||||||||||||||||||||||||||||
2|06|079|2006|88101|3|X|170|105|2|||1|SLAMS|0145|California Air Resources Board|20181111|17.0|||||||||||||||||||||||||||||||||||||||||||||||
2|06|079|2006|88101|3|X|170|105|2|||1|SLAMS|0145|California Air Resources Board|20181112|13.8|||||||||||||||||||||||||||||||||||||||||||||||
2|06|079|2006|88101|3|X|170|105|2|||1|SLAMS|0145|California Air Resources Board|20181113|8.7|||||||||||||||||||||||||||||||||||||||||||||||
2|06|079|2006|88101|3|X|170|105|2|||1|SLAMS|0145|California Air Resources Board|20181114|8.0|||||||||||||||||||||||||||||||||||||||||||||||
2|06|079|2006|88101|3|X|170|105|2|||1|SLAMS|0145|California Air Resources Board|20181115|12.0|||||||||||||||||||||||||||||||||||||||||||||||
2|06|079|2006|88101|3|X|170|105|2|||1|SLAMS|0145|California Air Resources Board|20181116|14.4|||||||||||||||||||||||||||||||||||||||||||||||
2|06|079|2006|88101|3|X|170|105|2|||1|SLAMS|0145|California Air Resources Board|20181117|32.0|||||||||||||||||||||||||||||||||||||||||||||||
2|06|079|2006|88101|3|X|170|105|2|||1|SLAMS|0145|California Air Resources Board|20181118|28.6|||||||||||||||||||||||||||||||||||||||||||||||
2|06|079|2006|88101|3|X|170|105|2|||1|SLAMS|0145|California Air Resources Board|20181119|19.9|||||||||||||||||||||||||||||||||||||||||||||||
2|06|079|2006|88101|3|X|170|105|2|||1|SLAMS|0145|California Air Resources Board|20181120|11.5|||||||||||||||||||||||||||||||||||||||||||||||
2|06|079|2006|88101|3|X|170|105|2|||1|SLAMS|0145|California Air Resources Board|20181121|5.2|||||||||||||||||||||||||||||||||||||||||||||||
2|06|079|2006|88101|3|X|170|105|2|||1|SLAMS|0145|California Air Resources Board|20181122|1.0|||||||||||||||||||||||||||||||||||||||||||||||
2|06|079|2006|88101|3|X|170|105|2|||1|SLAMS|0145|California Air Resources Board|20181123|1.2|||||||||||||||||||||||||||||||||||||||||||||||
2|06|079|2006|88101|3|X|170|105|2|||1|SLAMS|0145|California Air Resources Board|20181124|1.5|||||||||||||||||||||||||||||||||||||||||||||||
2|06|079|2006|88101|3|X|170|105|2|||1|SLAMS|0145|California Air Resources Board|20181125|3.3|||||||||||||||||||||||||||||||||||||||||||||||
2|06|079|2006|88101|3|X|170|105|2|||1|SLAMS|0145|California Air Resources Board|20181126|4.1|||||||||||||||||||||||||||||||||||||||||||||||
2|06|079|2006|88101|3|X|170|105|2|||1|SLAMS|0145|California Air Resources Board|20181127|3.9|||||||||||||||||||||||||||||||||||||||||||||||
2|06|079|2006|88101|3|X|170|105|2|||1|SLAMS|0145|California Air Resources Board|20181128|1.4|||||||||||||||||||||||||||||||||||||||||||||||
2|06|079|2006|88101|3|X|170|105|2|||1|SLAMS|0145|California Air Resources Board|20181129|4.0|||||||||||||||||||||||||||||||||||||||||||||||
2|06|079|2006|88101|3|X|170|105|2|||1|SLAMS|0145|California Air Resources Board|20181130|4.4|||||||||||||||||||||||||||||||||||||||||||||||
2|06|079|2006|88101|3|X|170|105|2|||1|SLAMS|0145|California Air Resources Board|20181201|2.9|||||||||||||||||||||||||||||||||||||||||||||||
2|06|079|2006|88101|3|X|170|105|2|||1|SLAMS|0145|California Air Resources Board|20181202|1.9|||||||||||||||||||||||||||||||||||||||||||||||
2|06|079|2006|88101|3|X|170|105|2|||1|SLAMS|0145|California Air Resources Board|20181203|3.0|||||||||||||||||||||||||||||||||||||||||||||||
2|06|079|2006|88101|3|X|170|105|2|||1|SLAMS|0145|California Air Resources Board|20181204|1.9|||||||||||||||||||||||||||||||||||||||||||||||
2|06|079|2006|88101|3|X|170|105|2|||1|SLAMS|0145|California Air Resources Board|20181205|.2|||||||||||||||||||||||||||||||||||||||||||||||
2|06|079|2006|88101|3|X|170|105|2|||1|SLAMS|0145|California Air Resources Board|20181206|3.5|||||||||||||||||||||||||||||||||||||||||||||||
2|06|079|2006|88101|3|X|170|105|2|||1|SLAMS|0145|California Air Resources Board|20181207|4.4|||||||||||||||||||||||||||||||||||||||||||||||
2|06|079|2006|88101|3|X|170|105|2|||1|SLAMS|0145|California Air Resources Board|20181208|5.1|||||||||||||||||||||||||||||||||||||||||||||||
2|06|079|2006|88101|3|X|170|105|2|||1|SLAMS|0145|California Air Resources Board|20181209|4.7|||||||||||||||||||||||||||||||||||||||||||||||
2|06|079|2006|88101|3|X|170|105|2|||1|SLAMS|0145|California Air Resources Board|20181210|4.6|||||||||||||||||||||||||||||||||||||||||||||||
2|06|079|2006|88101|3|X|170|105|2|||1|SLAMS|0145|California Air Resources Board|20181211|7.0|||||||||||||||||||||||||||||||||||||||||||||||
2|06|079|2006|88101|3|X|170|105|2|||1|SLAMS|0145|California Air Resources Board|20181212|4.3|||||||||||||||||||||||||||||||||||||||||||||||
2|06|079|2006|88101|3|X|170|105|2|||1|SLAMS|0145|California Air Resources Board|20181213|7.2|||||||||||||||||||||||||||||||||||||||||||||||
2|06|079|2006|88101|3|X|170|105|2|||1|SLAMS|0145|California Air Resources Board|20181214|6.4|||||||||||||||||||||||||||||||||||||||||||||||
2|06|079|2006|88101|3|X|170|105|2|||1|SLAMS|0145|California Air Resources Board|20181215|4.5|||||||||||||||||||||||||||||||||||||||||||||||
2|06|079|2006|88101|3|X|170|105|2|||1|SLAMS|0145|California Air Resources Board|20181216|2.5|||||||||||||||||||||||||||||||||||||||||||||||
2|06|079|2006|88101|3|X|170|105|2|||1|SLAMS|0145|California Air Resources Board|20181217|2.5|||||||||||||||||||||||||||||||||||||||||||||||
2|06|079|2006|88101|3|X|170|105|2|||1|SLAMS|0145|California Air Resources Board|20181218|1.5|||||||||||||||||||||||||||||||||||||||||||||||
2|06|079|2006|88101|3|X|170|105|2|||1|SLAMS|0145|California Air Resources Board|20181219|2.5|||||||||||||||||||||||||||||||||||||||||||||||
2|06|079|2006|88101|3|X|170|105|2|||1|SLAMS|0145|California Air Resources Board|20181220|5.0|||||||||||||||||||||||||||||||||||||||||||||||
2|06|079|2006|88101|3|X|170|105|2|||1|SLAMS|0145|California Air Resources Board|20181221|4.6|||||||||||||||||||||||||||||||||||||||||||||||
2|06|079|2006|88101|3|X|170|105|2|||1|SLAMS|0145|California Air Resources Board|20181222|4.8|||||||||||||||||||||||||||||||||||||||||||||||
2|06|079|2006|88101|3|X|170|105|2|||1|SLAMS|0145|California Air Resources Board|20181223|8.7|||||||||||||||||||||||||||||||||||||||||||||||
2|06|079|2006|88101|3|X|170|105|2|||1|SLAMS|0145|California Air Resources Board|20181224|3.7|||||||||||||||||||||||||||||||||||||||||||||||
2|06|079|2006|88101|3|X|170|105|2|||1|SLAMS|0145|California Air Resources Board|20181225|2.2|||||||||||||||||||||||||||||||||||||||||||||||
2|06|079|2006|88101|3|X|170|105|2|||1|SLAMS|0145|California Air Resources Board|20181226|2.6|||||||||||||||||||||||||||||||||||||||||||||||
2|06|079|2006|88101|3|X|170|105|2|||1|SLAMS|0145|California Air Resources Board|20181227|.7|||||||||||||||||||||||||||||||||||||||||||||||
2|06|079|2006|88101|3|X|170|105|2|||1|SLAMS|0145|California Air Resources Board|20181228|1.1|||||||||||||||||||||||||||||||||||||||||||||||
2|06|079|2006|88101|3|X|170|105|2|||1|SLAMS|0145|California Air Resources Board|20181229|3.5|||||||||||||||||||||||||||||||||||||||||||||||
2|06|079|2006|88101|3|X|170|105|2|||1|SLAMS|0145|California Air Resources Board|20181230|5.2|||||||||||||||||||||||||||||||||||||||||||||||
2|06|079|2006|88101|3|X|170|105|2|||1|SLAMS|0145|California Air Resources Board|20181231|4.0|||||||||||||||||||||||||||||||||||||||||||||||
1|06|California|079|San Luis Obispo|2007|88101|PM2.5 - Local Conditions|1|02868|Arroyo Grande|2391 Willow Road, Arroyo Grande, California|032|SOUTH CENTRAL COAST|42020|San Luis Obispo-Paso Robles-Arroyo Grande, CA|||09|SOURCE ORIENTED|||7460|SAN LUIS OBISPO, CA|INDUSTRIAL|RURAL|35.0467300008874|-120.58777||||103|GPS|NAD83|1||37.5|001|GPS CARRIER PHASE STATIC RELATIVE POSITION|MEAN SEA-LEVEL|1
2|06|079|2007|88101|1|X|170|105|5|||1|SLAMS|0145|California Air Resources Board|20180101|10.3|||||||||||||||||||||||||||||||||||||||||||||||
2|06|079|2007|88101|1|X|170|105|5|||1|SLAMS|0145|California Air Resources Board|20180102|11.7|||||||||||||||||||||||||||||||||||||||||||||||
2|06|079|2007|88101|1|X|170|105|5|||1|SLAMS|0145|California Air Resources Board|20180103|8.0|||||||||||||||||||||||||||||||||||||||||||||||
2|06|079|2007|88101|1|X|170|105|5|||1|SLAMS|0145|California Air Resources Board|20180104|2.1|||||||||||||||||||||||||||||||||||||||||||||||
2|06|079|2007|88101|1|X|170|105|5|||1|SLAMS|0145|California Air Resources Board|20180105|.4|||||||||||||||||||||||||||||||||||||||||||||||
2|06|079|2007|88101|1|X|170|105|5|||1|SLAMS|0145|California Air Resources Board|20180106|3.5|||||||||||||||||||||||||||||||||||||||||||||||
2|06|079|2007|88101|1|X|170|105|5|||1|SLAMS|0145|California Air Resources Board|20180107|3.6|||||||||||||||||||||||||||||||||||||||||||||||
2|06|079|2007|88101|1|X|170|105|5|||1|SLAMS|0145|California Air Resources Board|20180108|1.0|||||||||||||||||||||||||||||||||||||||||||||||
2|06|079|2007|88101|1|X|170|105|5|||1|SLAMS|0145|California Air Resources Board|20180109|2.8|||||||||||||||||||||||||||||||||||||||||||||||
2|06|079|2007|88101|1|X|170|105|5|||1|SLAMS|0145|California Air Resources Board|20180110|6.1|||||||||||||||||||||||||||||||||||||||||||||||
2|06|079|2007|88101|1|X|170|105|5|||1|SLAMS|0145|California Air Resources Board|20180111|5.3|||||||||||||||||||||||||||||||||||||||||||||||
2|06|079|2007|88101|1|X|170|105|5|||1|SLAMS|0145|California Air Resources Board|20180112|7.0|||||||||||||||||||||||||||||||||||||||||||||||
2|06|079|2007|88101|1|X|170|105|5|||1|SLAMS|0145|California Air Resources Board|20180113|11.3|||||||||||||||||||||||||||||||||||||||||||||||
2|06|079|2007|88101|1|X|170|105|5|||1|SLAMS|0145|California Air Resources Board|20180114|5.5|||||||||||||||||||||||||||||||||||||||||||||||
2|06|079|2007|88101|1|X|170|105|5|||1|SLAMS|0145|California Air Resources Board|20180115|5.7|||||||||||||||||||||||||||||||||||||||||||||||
2|06|079|2007|88101|1|X|170|105|5|||1|SLAMS|0145|California Air Resources Board|20180116|7.1|||||||||||||||||||||||||||||||||||||||||||||||
2|06|079|2007|88101|1|X|170|105|5|||1|SLAMS|0145|California Air Resources Board|20180117|6.0|||||||||||||||||||||||||||||||||||||||||||||||
2|06|079|2007|88101|1|X|170|105|5|||1|SLAMS|0145|California Air Resources Board|20180118|4.1|||||||||||||||||||||||||||||||||||||||||||||||
2|06|079|2007|88101|1|X|170|105|5|||1|SLAMS|0145|California Air Resources Board|20180119|4.2|||||||||||||||||||||||||||||||||||||||||||||||
2|06|079|2007|88101|1|X|170|105|5|||1|SLAMS|0145|California Air Resources Board|20180120|9.7|||||||||||||||||||||||||||||||||||||||||||||||
2|06|079|2007|88101|1|X|170|105|5|||1|SLAMS|0145|California Air Resources Board|20180121|9.5|||||||||||||||||||||||||||||||||||||||||||||||
2|06|079|2007|88101|1|X|170|105|5|||1|SLAMS|0145|California Air Resources Board|20180122|8.7|||||||||||||||||||||||||||||||||||||||||||||||
2|06|079|2007|88101|1|X|170|105|5|||1|SLAMS|0145|California Air Resources Board|20180123|6.1|||||||||||||||||||||||||||||||||||||||||||||||
2|06|079|2007|88101|1|X|170|105|5|||1|SLAMS|0145|California Air Resources Board|20180124|8.7|||||||||||||||||||||||||||||||||||||||||||||||
2|06|079|2007|88101|1|X|170|105|5|||1|SLAMS|0145|California Air Resources Board|20180125|7.2|||||||||||||||||||||||||||||||||||||||||||||||
2|06|079|2007|88101|1|X|170|105|5|||1|SLAMS|0145|California Air Resources Board|20180126|5.6|||||||||||||||||||||||||||||||||||||||||||||||
2|06|079|2007|88101|1|X|170|105|5|||1|SLAMS|0145|California Air Resources Board|20180127|7.6|||||||||||||||||||||||||||||||||||||||||||||||
2|06|079|2007|88101|1|X|170|105|5|||1|SLAMS|0145|California Air Resources Board|20180128|8.2|||||||||||||||||||||||||||||||||||||||||||||||
2|06|079|2007|88101|1|X|170|105|5|||1|SLAMS|0145|California Air Resources Board|20180129|8.5|||||||||||||||||||||||||||||||||||||||||||||||
2|06|079|2007|88101|1|X|170|105|5|||1|SLAMS|0145|California Air Resources Board|20180130|8.5|||||||||||||||||||||||||||||||||||||||||||||||
2|06|079|2007|88101|1|X|170|105|5|||1|SLAMS|0145|California Air Resources Board|20180131|8.3|||||||||||||||||||||||||||||||||||||||||||||||
2|06|079|2007|88101|1|X|170|105|5|||1|SLAMS|0145|California Air Resources Board|20180201|7.3|||||||||||||||||||||||||||||||||||||||||||||||
2|06|079|2007|88101|1|X|170|105|5|||1|SLAMS|0145|California Air Resources Board|20180202|10.1|||||||||||||||||||||||||||||||||||||||||||||||
2|06|079|2007|88101|1|X|170|105|5|||1|SLAMS|0145|California Air Resources Board|20180203|12.2|||||||||||||||||||||||||||||||||||||||||||||||
2|06|079|2007|88101|1|X|170|105|5|||1|SLAMS|0145|California Air Resources Board|20180204|10.7|||||||||||||||||||||||||||||||||||||||||||||||
2|06|079|2007|88101|1|X|170|105|5|||1|SLAMS|0145|California Air Resources Board|20180205|14.7|||||||||||||||||||||||||||||||||||||||||||||||
2|06|079|2007|88101|1|X|170|105|5|||1|SLAMS|0145|California Air Resources Board|20180206|16.1|||||||||||||||||||||||||||||||||||||||||||||||
2|06|079|2007|88101|1|X|170|105|5|||1|SLAMS|0145|California Air Resources Board|20180207|12.1|||||||||||||||||||||||||||||||||||||||||||||||
2|06|079|2007|88101|1|X|170|105|5|||1|SLAMS|0145|California Air Resources Board|20180208|10.7|||||||||||||||||||||||||||||||||||||||||||||||
2|06|079|2007|88101|1|X|170|105|5|||1|SLAMS|0145|California Air Resources Board|20180209|14.5|||||||||||||||||||||||||||||||||||||||||||||||
2|06|079|2007|88101|1|X|170|105|5|||1|SLAMS|0145|California Air Resources Board|20180210|18.0|||||||||||||||||||||||||||||||||||||||||||||||
2|06|079|2007|88101|1|X|170|105|5|||1|SLAMS|0145|California Air Resources Board|20180211|10.5|||||||||||||||||||||||||||||||||||||||||||||||
2|06|079|2007|88101|1|X|170|105|5|||1|SLAMS|0145|California Air Resources Board|20180212|9.9|||||||||||||||||||||||||||||||||||||||||||||||
2|06|079|2007|88101|1|X|170|105|5|||1|SLAMS|0145|California Air Resources Board|20180213|11.6|||||||||||||||||||||||||||||||||||||||||||||||
2|06|079|2007|88101|1|X|170|105|5|||1|SLAMS|0145|California Air Resources Board|20180214|9.1|||||||||||||||||||||||||||||||||||||||||||||||
2|06|079|2007|88101|1|X|170|105|5|||1|SLAMS|0145|California Air Resources Board|20180215|8.7|||||||||||||||||||||||||||||||||||||||||||||||
2|06|079|2007|88101|1|X|170|105|5|||1|SLAMS|0145|California Air Resources Board|20180221|6.2|||||||||||||||||||||||||||||||||||||||||||||||
2|06|079|2007|88101|1|X|170|105|5|||1|SLAMS|0145|California Air Resources Board|20180222|9.5|||||||||||||||||||||||||||||||||||||||||||||||
2|06|079|2007|88101|1|X|170|105|5|||1|SLAMS|0145|California Air Resources Board|20180223|12.0|||||||||||||||||||||||||||||||||||||||||||||||
2|06|079|2007|88101|1|X|170|105|5|||1|SLAMS|0145|California Air Resources Board|20180224|15.1|||||||||||||||||||||||||||||||||||||||||||||||
2|06|079|2007|88101|1|X|170|105|5|||1|SLAMS|0145|California Air Resources Board|20180225|8.1|||||||||||||||||||||||||||||||||||||||||||||||
2|06|079|2007|88101|1|X|170|105|5|||1|SLAMS|0145|California Air Resources Board|20180226|4.3|||||||||||||||||||||||||||||||||||||||||||||||
2|06|079|2007|88101|1|X|170|105|5|||1|SLAMS|0145|California Air Resources Board|20180227|4.2|||||||||||||||||||||||||||||||||||||||||||||||
2|06|079|2007|88101|1|X|170|105|5|||1|SLAMS|0145|California Air Resources Board|20180228|7.1|||||||||||||||||||||||||||||||||||||||||||||||
2|06|079|2007|88101|1|X|170|105|5|||1|SLAMS|0145|California Air Resources Board|20180301|1.9|||||||||||||||||||||||||||||||||||||||||||||||
2|06|079|2007|88101|1|X|170|105|5|||1|SLAMS|0145|California Air Resources Board|20180302|2.2|||||||||||||||||||||||||||||||||||||||||||||||
2|06|079|2007|88101|1|X|170|105|5|||1|SLAMS|0145|California Air Resources Board|20180303|2.2|||||||||||||||||||||||||||||||||||||||||||||||
2|06|079|2007|88101|1|X|170|105|5|||1|SLAMS|0145|California Air Resources Board|20180304|4.0|||||||||||||||||||||||||||||||||||||||||||||||
2|06|079|2007|88101|1|X|170|105|5|||1|SLAMS|0145|California Air Resources Board|20180305|3.5|||||||||||||||||||||||||||||||||||||||||||||||
2|06|079|2007|88101|1|X|170|105|5|||1|SLAMS|0145|California Air Resources Board|20180306|5.8|||||||||||||||||||||||||||||||||||||||||||||||
2|06|079|2007|88101|1|X|170|105|5|||1|SLAMS|0145|California Air Resources Board|20180307|7.4|||||||||||||||||||||||||||||||||||||||||||||||
2|06|079|2007|88101|1|X|170|105|5|||1|SLAMS|0145|California Air Resources Board|20180308|8.7|||||||||||||||||||||||||||||||||||||||||||||||
2|06|079|2007|88101|1|X|170|105|5|||1|SLAMS|0145|California Air Resources Board|20180309|.0|||||||||||||||||||||||||||||||||||||||||||||||
2|06|079|2007|88101|1|X|170|105|5|||1|SLAMS|0145|California Air Resources Board|20180310|2.0|||||||||||||||||||||||||||||||||||||||||||||||
2|06|079|2007|88101|1|X|170|105|5|||1|SLAMS|0145|California Air Resources Board|20180311|2.0|||||||||||||||||||||||||||||||||||||||||||||||
2|06|079|2007|88101|1|X|170|105|5|||1|SLAMS|0145|California Air Resources Board|20180312|1.4|||||||||||||||||||||||||||||||||||||||||||||||
2|06|079|2007|88101|1|X|170|105|5|||1|SLAMS|0145|California Air Resources Board|20180314|.6|||||||||||||||||||||||||||||||||||||||||||||||
2|06|079|2007|88101|1|X|170|105|5|||1|SLAMS|0145|California Air Resources Board|20180315|3.8|||||||||||||||||||||||||||||||||||||||||||||||
2|06|079|2007|88101|1|X|170|105|5|||1|SLAMS|0145|California Air Resources Board|20180316|.7|||||||||||||||||||||||||||||||||||||||||||||||
2|06|079|2007|88101|1|X|170|105|5|||1|SLAMS|0145|California Air Resources Board|20180317|3.1|||||||||||||||||||||||||||||||||||||||||||||||
2|06|079|2007|88101|1|X|170|105|5|||1|SLAMS|0145|California Air Resources Board|20180318|3.4|||||||||||||||||||||||||||||||||||||||||||||||
2|06|079|2007|88101|1|X|170|105|5|||1|SLAMS|0145|California Air Resources Board|20180319|2.9|||||||||||||||||||||||||||||||||||||||||||||||
2|06|079|2007|88101|1|X|170|105|5|||1|SLAMS|0145|California Air Resources Board|20180320|.7|||||||||||||||||||||||||||||||||||||||||||||||
2|06|079|2007|88101|1|X|170|105|5|||1|SLAMS|0145|California Air Resources Board|20180321|-1.4|||||||||||||||||||||||||||||||||||||||||||||||
2|06|079|2007|88101|1|X|170|105|5|||1|SLAMS|0145|California Air Resources Board|20180322|-.3|||||||||||||||||||||||||||||||||||||||||||||||
2|06|079|2007|88101|1|X|170|105|5|||1|SLAMS|0145|California Air Resources Board|20180323|7.6|||||||||||||||||||||||||||||||||||||||||||||||
2|06|079|2007|88101|1|X|170|105|5|||1|SLAMS|0145|California Air Resources Board|20180324|4.0|||||||||||||||||||||||||||||||||||||||||||||||
2|06|079|2007|88101|1|X|170|105|5|||1|SLAMS|0145|California Air Resources Board|20180325|10.5|||||||||||||||||||||||||||||||||||||||||||||||
2|06|079|2007|88101|1|X|170|105|5|||1|SLAMS|0145|California Air Resources Board|20180326|12.2|||||||||||||||||||||||||||||||||||||||||||||||
2|06|079|2007|88101|1|X|170|105|5|||1|SLAMS|0145|California Air Resources Board|20180327|6.2|||||||||||||||||||||||||||||||||||||||||||||||
2|06|079|2007|88101|1|X|170|105|5|||1|SLAMS|0145|California Air Resources Board|20180328|5.8|||||||||||||||||||||||||||||||||||||||||||||||
2|06|079|2007|88101|1|X|170|105|5|||1|SLAMS|0145|California Air Resources Board|20180329|2.9|||||||||||||||||||||||||||||||||||||||||||||||
2|06|079|2007|88101|1|X|170|105|5|||1|SLAMS|0145|California Air Resources Board|20180330|5.3|||||||||||||||||||||||||||||||||||||||||||||||
2|06|079|2007|88101|1|X|170|105|5|||1|SLAMS|0145|California Air Resources Board|20180331|1.8|||||||||||||||||||||||||||||||||||||||||||||||
2|06|079|2007|88101|1|X|170|105|5|||1|SLAMS|0145|California Air Resources Board|20180401|5.7|||||||||||||||||||||||||||||||||||||||||||||||
2|06|079|2007|88101|1|X|170|105|5|||1|SLAMS|0145|California Air Resources Board|20180402|8.9|||||||||||||||||||||||||||||||||||||||||||||||
2|06|079|2007|88101|1|X|170|105|5|||1|SLAMS|0145|California Air Resources Board|20180403|6.5|||||||||||||||||||||||||||||||||||||||||||||||
2|06|079|2007|88101|1|X|170|105|5|||1|SLAMS|0145|California Air Resources Board|20180404|7.0|||||||||||||||||||||||||||||||||||||||||||||||
2|06|079|2007|88101|1|X|170|105|5|||1|SLAMS|0145|California Air Resources Board|20180405|9.3|||||||||||||||||||||||||||||||||||||||||||||||
2|06|079|2007|88101|1|X|170|105|5|||1|SLAMS|0145|California Air Resources Board|20180406|3.8|||||||||||||||||||||||||||||||||||||||||||||||
2|06|079|2007|88101|1|X|170|105|5|||1|SLAMS|0145|California Air Resources Board|20180407|6.1|||||||||||||||||||||||||||||||||||||||||||||||
2|06|079|2007|88101|1|X|170|105|5|||1|SLAMS|0145|California Air Resources Board|20180408|15.3|||||||||||||||||||||||||||||||||||||||||||||||
2|06|079|2007|88101|1|X|170|105|5|||1|SLAMS|0145|California Air Resources Board|20180409|7.0|||||||||||||||||||||||||||||||||||||||||||||||
2|06|079|2007|88101|1|X|170|105|5|||1|SLAMS|0145|California Air Resources Board|20180410|8.2|||||||||||||||||||||||||||||||||||||||||||||||
2|06|079|2007|88101|1|X|170|105|5|||1|SLAMS|0145|California Air Resources Board|20180411|10.7|||||||||||||||||||||||||||||||||||||||||||||||
2|06|079|2007|88101|1|X|170|105|5|||1|SLAMS|0145|California Air Resources Board|20180412|15.9|||||||||||||||||||||||||||||||||||||||||||||||
2|06|079|2007|88101|1|X|170|105|5|||1|SLAMS|0145|California Air Resources Board|20180413|12.6|||||||||||||||||||||||||||||||||||||||||||||||
2|06|079|2007|88101|1|X|170|105|5|||1|SLAMS|0145|California Air Resources Board|20180414|9.4|||||||||||||||||||||||||||||||||||||||||||||||
2|06|079|2007|88101|1|X|170|105|5|||1|SLAMS|0145|California Air Resources Board|20180415|11.9|||||||||||||||||||||||||||||||||||||||||||||||
2|06|079|2007|88101|1|X|170|105|5|||1|SLAMS|0145|California Air Resources Board|20180416|4.1|||||||||||||||||||||||||||||||||||||||||||||||
2|06|079|2007|88101|1|X|170|105|5|||1|SLAMS|0145|California Air Resources Board|20180417|8.4|||||||||||||||||||||||||||||||||||||||||||||||
2|06|079|2007|88101|1|X|170|105|5|||1|SLAMS|0145|California Air Resources Board|20180418|7.6|||||||||||||||||||||||||||||||||||||||||||||||
2|06|079|2007|88101|1|X|170|105|5|||1|SLAMS|0145|California Air Resources Board|20180419|8.5|||||||||||||||||||||||||||||||||||||||||||||||
2|06|079|2007|88101|1|X|170|105|5|||1|SLAMS|0145|California Air Resources Board|20180420|11.5|||||||||||||||||||||||||||||||||||||||||||||||
2|06|079|2007|88101|1|X|170|105|5|||1|SLAMS|0145|California Air Resources Board|20180421|8.0|||||||||||||||||||||||||||||||||||||||||||||||
2|06|079|2007|88101|1|X|170|105|5|||1|SLAMS|0145|California Air Resources Board|20180422|12.0|||||||||||||||||||||||||||||||||||||||||||||||
2|06|079|2007|88101|1|X|170|105|5|||1|SLAMS|0145|California Air Resources Board|20180423|6.2|||||||||||||||||||||||||||||||||||||||||||||||
2|06|079|2007|88101|1|X|170|105|5|||1|SLAMS|0145|California Air Resources Board|20180424|6.6|||||||||||||||||||||||||||||||||||||||||||||||
2|06|079|2007|88101|1|X|170|105|5|||1|SLAMS|0145|California Air Resources Board|20180425|8.1|||||||||||||||||||||||||||||||||||||||||||||||
2|06|079|2007|88101|1|X|170|105|5|||1|SLAMS|0145|California Air Resources Board|20180426|7.9|||||||||||||||||||||||||||||||||||||||||||||||
2|06|079|2007|88101|1|X|170|105|5|||1|SLAMS|0145|California Air Resources Board|20180427|20.1|||||||||||||||||||||||||||||||||||||||||||||||
2|06|079|2007|88101|1|X|170|105|5|||1|SLAMS|0145|California Air Resources Board|20180428|18.3|||||||||||||||||||||||||||||||||||||||||||||||
2|06|079|2007|88101|1|X|170|105|5|||1|SLAMS|0145|California Air Resources Board|20180429|15.7|||||||||||||||||||||||||||||||||||||||||||||||
2|06|079|2007|88101|1|X|170|105|5|||1|SLAMS|0145|California Air Resources Board|20180430|18.3|||||||||||||||||||||||||||||||||||||||||||||||
2|06|079|2007|88101|1|X|170|105|5|||1|SLAMS|0145|California Air Resources Board|20180501|12.0|||||||||||||||||||||||||||||||||||||||||||||||
2|06|079|2007|88101|1|X|170|105|5|||1|SLAMS|0145|California Air Resources Board|20180502|6.6|||||||||||||||||||||||||||||||||||||||||||||||
2|06|079|2007|88101|1|X|170|105|5|||1|SLAMS|0145|California Air Resources Board|20180503|11.4|||||||||||||||||||||||||||||||||||||||||||||||
2|06|079|2007|88101|1|X|170|105|5|||1|SLAMS|0145|California Air Resources Board|20180504|9.3|||||||||||||||||||||||||||||||||||||||||||||||
2|06|079|2007|88101|1|X|170|105|5|||1|SLAMS|0145|California Air Resources Board|20180505|9.2|||||||||||||||||||||||||||||||||||||||||||||||
2|06|079|2007|88101|1|X|170|105|5|||1|SLAMS|0145|California Air Resources Board|20180506|8.4|||||||||||||||||||||||||||||||||||||||||||||||
2|06|079|2007|88101|1|X|170|105|5|||1|SLAMS|0145|California Air Resources Board|20180507|22.0|||||||||||||||||||||||||||||||||||||||||||||||
2|06|079|2007|88101|1|X|170|105|5|||1|SLAMS|0145|California Air Resources Board|20180508|10.5|||||||||||||||||||||||||||||||||||||||||||||||
2|06|079|2007|88101|1|X|170|105|5|||1|SLAMS|0145|California Air Resources Board|20180509|26.1|||||||||||||||||||||||||||||||||||||||||||||||
2|06|079|2007|88101|1|X|170|105|5|||1|SLAMS|0145|California Air Resources Board|20180510|29.5|||||||||||||||||||||||||||||||||||||||||||||||
2|06|079|2007|88101|1|X|170|105|5|||1|SLAMS|0145|California Air Resources Board|20180526|20.2|||||||||||||||||||||||||||||||||||||||||||||||
2|06|079|2007|88101|1|X|170|105|5|||1|SLAMS|0145|California Air Resources Board|20180527|11.5|||||||||||||||||||||||||||||||||||||||||||||||
2|06|079|2007|88101|1|X|170|105|5|||1|SLAMS|0145|California Air Resources Board|20180528|1.3|||||||||||||||||||||||||||||||||||||||||||||||
2|06|079|2007|88101|1|X|170|105|5|||1|SLAMS|0145|California Air Resources Board|20180529|2.1|||||||||||||||||||||||||||||||||||||||||||||||
2|06|079|2007|88101|1|X|170|105|5|||1|SLAMS|0145|California Air Resources Board|20180530|6.0|||||||||||||||||||||||||||||||||||||||||||||||
2|06|079|2007|88101|1|X|170|105|5|||1|SLAMS|0145|California Air Resources Board|20180531|16.8|||||||||||||||||||||||||||||||||||||||||||||||
2|06|079|2007|88101|1|X|170|105|5|||1|SLAMS|0145|California Air Resources Board|20180601|20.2|||||||||||||||||||||||||||||||||||||||||||||||
2|06|079|2007|88101|1|X|170|105|5|||1|SLAMS|0145|California Air Resources Board|20180602|8.6|||||||||||||||||||||||||||||||||||||||||||||||
2|06|079|2007|88101|1|X|170|105|5|||1|SLAMS|0145|California Air Resources Board|20180603|6.2|||||||||||||||||||||||||||||||||||||||||||||||
2|06|079|2007|88101|1|X|170|105|5|||1|SLAMS|0145|California Air Resources Board|20180604|7.7|||||||||||||||||||||||||||||||||||||||||||||||
2|06|079|2007|88101|1|X|170|105|5|||1|SLAMS|0145|California Air Resources Board|20180605|10.5|||||||||||||||||||||||||||||||||||||||||||||||
2|06|079|2007|88101|1|X|170|105|5|||1|SLAMS|0145|California Air Resources Board|20180606|12.2|||||||||||||||||||||||||||||||||||||||||||||||
2|06|079|2007|88101|1|X|170|105|5|||1|SLAMS|0145|California Air Resources Board|20180607|15.3|||||||||||||||||||||||||||||||||||||||||||||||
2|06|079|2007|88101|1|X|170|105|5|||1|SLAMS|0145|California Air Resources Board|20180608|25.9|||||||||||||||||||||||||||||||||||||||||||||||
2|06|079|2007|88101|1|X|170|105|5|||1|SLAMS|0145|California Air Resources Board|20180609|26.1|||||||||||||||||||||||||||||||||||||||||||||||
2|06|079|2007|88101|1|X|170|105|5|||1|SLAMS|0145|California Air Resources Board|20180610|29.5|||||||||||||||||||||||||||||||||||||||||||||||
2|06|079|2007|88101|1|X|170|105|5|||1|SLAMS|0145|California Air Resources Board|20180611|21.1|||||||||||||||||||||||||||||||||||||||||||||||
2|06|079|2007|88101|1|X|170|105|5|||1|SLAMS|0145|California Air Resources Board|20180612|2.4|||||||||||||||||||||||||||||||||||||||||||||||
2|06|079|2007|88101|1|X|170|105|5|||1|SLAMS|0145|California Air Resources Board|20180613|6.0|||||||||||||||||||||||||||||||||||||||||||||||
2|06|079|2007|88101|1|X|170|105|5|||1|SLAMS|0145|California Air Resources Board|20180614|4.7|||||||||||||||||||||||||||||||||||||||||||||||
2|06|079|2007|88101|1|X|170|105|5|||1|SLAMS|0145|California Air Resources Board|20180615|4.2|||||||||||||||||||||||||||||||||||||||||||||||
2|06|079|2007|88101|1|X|170|105|5|||1|SLAMS|0145|California Air Resources Board|20180616|4.3|||||||||||||||||||||||||||||||||||||||||||||||
2|06|079|2007|88101|1|X|170|105|5|||1|SLAMS|0145|California Air Resources Board|20180617|5.5|||||||||||||||||||||||||||||||||||||||||||||||
2|06|079|2007|88101|1|X|170|105|5|||1|SLAMS|0145|California Air Resources Board|20180618|13.6|||||||||||||||||||||||||||||||||||||||||||||||
2|06|079|2007|88101|1|X|170|105|5|||1|SLAMS|0145|California Air Resources Board|20180619|6.2|||||||||||||||||||||||||||||||||||||||||||||||
2|06|079|2007|88101|1|X|170|105|5|||1|SLAMS|0145|California Air Resources Board|20180620|6.2|||||||||||||||||||||||||||||||||||||||||||||||
2|06|079|2007|88101|1|X|170|105|5|||1|SLAMS|0145|California Air Resources Board|20180621|5.4|||||||||||||||||||||||||||||||||||||||||||||||
2|06|079|2007|88101|1|X|170|105|5|||1|SLAMS|0145|California Air Resources Board|20180622|5.8|||||||||||||||||||||||||||||||||||||||||||||||
2|06|079|2007|88101|1|X|170|105|5|||1|SLAMS|0145|California Air Resources Board|20180623|7.7|||||||||||||||||||||||||||||||||||||||||||||||
2|06|079|2007|88101|1|X|170|105|5|||1|SLAMS|0145|California Air Resources Board|20180624|2.8|||||||||||||||||||||||||||||||||||||||||||||||
2|06|079|2007|88101|1|X|170|105|5|||1|SLAMS|0145|California Air Resources Board|20180625|2.0|||||||||||||||||||||||||||||||||||||||||||||||
2|06|079|2007|88101|1|X|170|105|5|||1|SLAMS|0145|California Air Resources Board|20180626|2.9|||||||||||||||||||||||||||||||||||||||||||||||
2|06|079|2007|88101|1|X|170|105|5|||1|SLAMS|0145|California Air Resources Board|20180627|4.7|||||||||||||||||||||||||||||||||||||||||||||||
2|06|079|2007|88101|1|X|170|105|5|||1|SLAMS|0145|California Air Resources Board|20180628|14.6|||||||||||||||||||||||||||||||||||||||||||||||
2|06|079|2007|88101|1|X|170|105|5|||1|SLAMS|0145|California Air Resources Board|20180629|6.6|||||||||||||||||||||||||||||||||||||||||||||||
2|06|079|2007|88101|1|X|170|105|5|||1|SLAMS|0145|California Air Resources Board|20180630|8.8|||||||||||||||||||||||||||||||||||||||||||||||
2|06|079|2007|88101|1|X|170|105|5|||1|SLAMS|0145|California Air Resources Board|20180701|3.2|||||||||||||||||||||||||||||||||||||||||||||||
2|06|079|2007|88101|1|X|170|105|5|||1|SLAMS|0145|California Air Resources Board|20180702|2.1|||||||||||||||||||||||||||||||||||||||||||||||
2|06|079|2007|88101|1|X|170|105|5|||1|SLAMS|0145|California Air Resources Board|20180703|1.6|||||||||||||||||||||||||||||||||||||||||||||||
2|06|079|2007|88101|1|X|170|105|5|||1|SLAMS|0145|California Air Resources Board|20180704|5.5|||||||||||||||||||||||||||||||||||||||||||||||
2|06|079|2007|88101|1|X|170|105|5|||1|SLAMS|0145|California Air Resources Board|20180705|5.9|||||||||||||||||||||||||||||||||||||||||||||||
2|06|079|2007|88101|1|X|170|105|5|||1|SLAMS|0145|California Air Resources Board|20180706|22.7|||||||||||||||||||||||||||||||||||||||||||||||
2|06|079|2007|88101|1|X|170|105|5|||1|SLAMS|0145|California Air Resources Board|20180707|22.7|||||||||||||||||||||||||||||||||||||||||||||||
2|06|079|2007|88101|1|X|170|105|5|||1|SLAMS|0145|California Air Resources Board|20180708|14.9|||||||||||||||||||||||||||||||||||||||||||||||
2|06|079|2007|88101|1|X|170|105|5|||1|SLAMS|0145|California Air Resources Board|20180709|11.4|||||||||||||||||||||||||||||||||||||||||||||||
2|06|079|2007|88101|1|X|170|105|5|||1|SLAMS|0145|California Air Resources Board|20180710|9.5|||||||||||||||||||||||||||||||||||||||||||||||
2|06|079|2007|88101|1|X|170|105|5|||1|SLAMS|0145|California Air Resources Board|20180726|5.1|||||||||||||||||||||||||||||||||||||||||||||||
2|06|079|2007|88101|1|X|170|105|5|||1|SLAMS|0145|California Air Resources Board|20180727|3.7|||||||||||||||||||||||||||||||||||||||||||||||
2|06|079|2007|88101|1|X|170|105|5|||1|SLAMS|0145|California Air Resources Board|20180728|.0|||||||||||||||||||||||||||||||||||||||||||||||
2|06|079|2007|88101|1|X|170|105|5|||1|SLAMS|0145|California Air Resources Board|20180729|-1.7|||||||||||||||||||||||||||||||||||||||||||||||
2|06|079|2007|88101|1|X|170|105|5|||1|SLAMS|0145|California Air Resources Board|20180730|-1.7|||||||||||||||||||||||||||||||||||||||||||||||
2|06|079|2007|88101|1|X|170|105|5|||1|SLAMS|0145|California Air Resources Board|20180731|-1.4|||||||||||||||||||||||||||||||||||||||||||||||
2|06|079|2007|88101|1|X|170|105|5|||1|SLAMS|0145|California Air Resources Board|20180801|.0|||||||||||||||||||||||||||||||||||||||||||||||
2|06|079|2007|88101|1|X|170|105|5|||1|SLAMS|0145|California Air Resources Board|20180802|1.0|||||||||||||||||||||||||||||||||||||||||||||||
2|06|079|2007|88101|1|X|170|105|5|||1|SLAMS|0145|California Air Resources Board|20180803|.9|||||||||||||||||||||||||||||||||||||||||||||||
2|06|079|2007|88101|1|X|170|105|5|||1|SLAMS|0145|California Air Resources Board|20180804|3.0|||||||||||||||||||||||||||||||||||||||||||||||
2|06|079|2007|88101|1|X|170|105|5|||1|SLAMS|0145|California Air Resources Board|20180805|3.8|||||||||||||||||||||||||||||||||||||||||||||||
2|06|079|2007|88101|1|X|170|105|5|||1|SLAMS|0145|California Air Resources Board|20180806|21.3|||||||||||||||||||||||||||||||||||||||||||||||
2|06|079|2007|88101|1|X|170|105|5|||1|SLAMS|0145|California Air Resources Board|20180807|8.2|||||||||||||||||||||||||||||||||||||||||||||||
2|06|079|2007|88101|1|X|170|105|5|||1|SLAMS|0145|California Air Resources Board|20180808|.0|||||||||||||||||||||||||||||||||||||||||||||||
2|06|079|2007|88101|1|X|170|105|5|||1|SLAMS|0145|California Air Resources Board|20180809|2.4|||||||||||||||||||||||||||||||||||||||||||||||
2|06|079|2007|88101|1|X|170|105|5|||1|SLAMS|0145|California Air Resources Board|20180810|5.4|||||||||||||||||||||||||||||||||||||||||||||||
2|06|079|2007|88101|1|X|170|105|5|||1|SLAMS|0145|California Air Resources Board|20180811|6.5|||||||||||||||||||||||||||||||||||||||||||||||
2|06|079|2007|88101|1|X|170|105|5|||1|SLAMS|0145|California Air Resources Board|20180812|8.8|||||||||||||||||||||||||||||||||||||||||||||||
2|06|079|2007|88101|1|X|170|105|5|||1|SLAMS|0145|California Air Resources Board|20180813|7.2|||||||||||||||||||||||||||||||||||||||||||||||
2|06|079|2007|88101|1|X|170|105|5|||1|SLAMS|0145|California Air Resources Board|20180814|8.7|||||||||||||||||||||||||||||||||||||||||||||||
2|06|079|2007|88101|1|X|170|105|5|||1|SLAMS|0145|California Air Resources Board|20180815|12.5|||||||||||||||||||||||||||||||||||||||||||||||
2|06|079|2007|88101|1|X|170|105|5|||1|SLAMS|0145|California Air Resources Board|20180816|18.0|||||||||||||||||||||||||||||||||||||||||||||||
2|06|079|2007|88101|1|X|170|105|5|||1|SLAMS|0145|California Air Resources Board|20180817|20.6|||||||||||||||||||||||||||||||||||||||||||||||
2|06|079|2007|88101|1|X|170|105|5|||1|SLAMS|0145|California Air Resources Board|20180818|18.3|||||||||||||||||||||||||||||||||||||||||||||||
2|06|079|2007|88101|1|X|170|105|5|||1|SLAMS|0145|California Air Resources Board|20180819|18.9|||||||||||||||||||||||||||||||||||||||||||||||
2|06|079|2007|88101|1|X|170|105|5|||1|SLAMS|0145|California Air Resources Board|20180820|23.2|||||||||||||||||||||||||||||||||||||||||||||||
2|06|079|2007|88101|1|X|170|105|5|||1|SLAMS|0145|California Air Resources Board|20180821|18.0|||||||||||||||||||||||||||||||||||||||||||||||
2|06|079|2007|88101|1|X|170|105|5|||1|SLAMS|0145|California Air Resources Board|20180822|20.7|||||||||||||||||||||||||||||||||||||||||||||||
2|06|079|2007|88101|1|X|170|105|5|||1|SLAMS|0145|California Air Resources Board|20180823|40.7|||||||||||||||||||||||||||||||||||||||||||||||
2|06|079|2007|88101|1|X|170|105|5|||1|SLAMS|0145|California Air Resources Board|20180824|46.8|||||||||||||||||||||||||||||||||||||||||||||||
2|06|079|2007|88101|1|X|170|105|5|||1|SLAMS|0145|California Air Resources Board|20180825|21.0|||||||||||||||||||||||||||||||||||||||||||||||
2|06|079|2007|88101|1|X|170|105|5|||1|SLAMS|0145|California Air Resources Board|20180826|15.5|||||||||||||||||||||||||||||||||||||||||||||||
2|06|079|2007|88101|1|X|170|105|5|||1|SLAMS|0145|California Air Resources Board|20180827|12.1|||||||||||||||||||||||||||||||||||||||||||||||
2|06|079|2007|88101|1|X|170|105|5|||1|SLAMS|0145|California Air Resources Board|20180828|10.7|||||||||||||||||||||||||||||||||||||||||||||||
2|06|079|2007|88101|1|X|170|105|5|||1|SLAMS|0145|California Air Resources Board|20180829|11.7|||||||||||||||||||||||||||||||||||||||||||||||
2|06|079|2007|88101|1|X|170|105|5|||1|SLAMS|0145|California Air Resources Board|20180830|22.6|||||||||||||||||||||||||||||||||||||||||||||||
2|06|079|2007|88101|1|X|170|105|5|||1|SLAMS|0145|California Air Resources Board|20180831|34.6|||||||||||||||||||||||||||||||||||||||||||||||
2|06|079|2007|88101|1|X|170|105|5|||1|SLAMS|0145|California Air Resources Board|20180901|26.3|||||||||||||||||||||||||||||||||||||||||||||||
2|06|079|2007|88101|1|X|170|105|5|||1|SLAMS|0145|California Air Resources Board|20180902|13.7|||||||||||||||||||||||||||||||||||||||||||||||
2|06|079|2007|88101|1|X|170|105|5|||1|SLAMS|0145|California Air Resources Board|20180903|9.5|||||||||||||||||||||||||||||||||||||||||||||||
2|06|079|2007|88101|1|X|170|105|5|||1|SLAMS|0145|California Air Resources Board|20180904|9.4|||||||||||||||||||||||||||||||||||||||||||||||
2|06|079|2007|88101|1|X|170|105|5|||1|SLAMS|0145|California Air Resources Board|20180905|8.2|||||||||||||||||||||||||||||||||||||||||||||||
2|06|079|2007|88101|1|X|170|105|5|||1|SLAMS|0145|California Air Resources Board|20180906|11.2|||||||||||||||||||||||||||||||||||||||||||||||
2|06|079|2007|88101|1|X|170|105|5|||1|SLAMS|0145|California Air Resources Board|20180907|12.0|||||||||||||||||||||||||||||||||||||||||||||||
2|06|079|2007|88101|1|X|170|105|5|||1|SLAMS|0145|California Air Resources Board|20180908|14.6|||||||||||||||||||||||||||||||||||||||||||||||
2|06|079|2007|88101|1|X|170|105|5|||1|SLAMS|0145|California Air Resources Board|20180909|11.6|||||||||||||||||||||||||||||||||||||||||||||||
2|06|079|2007|88101|1|X|170|105|5|||1|SLAMS|0145|California Air Resources Board|20180910|10.2|||||||||||||||||||||||||||||||||||||||||||||||
2|06|079|2007|88101|1|X|170|105|5|||1|SLAMS|0145|California Air Resources Board|20180911|9.3|||||||||||||||||||||||||||||||||||||||||||||||
2|06|079|2007|88101|1|X|170|105|5|||1|SLAMS|0145|California Air Resources Board|20180912|12.0|||||||||||||||||||||||||||||||||||||||||||||||
2|06|079|2007|88101|1|X|170|105|5|||1|SLAMS|0145|California Air Resources Board|20180913|13.8|||||||||||||||||||||||||||||||||||||||||||||||
2|06|079|2007|88101|1|X|170|105|5|||1|SLAMS|0145|California Air Resources Board|20180914|7.7|||||||||||||||||||||||||||||||||||||||||||||||
2|06|079|2007|88101|1|X|170|105|5|||1|SLAMS|0145|California Air Resources Board|20180915|15.7|||||||||||||||||||||||||||||||||||||||||||||||
2|06|079|2007|88101|1|X|170|105|5|||1|SLAMS|0145|California Air Resources Board|20180916|7.4|||||||||||||||||||||||||||||||||||||||||||||||
2|06|079|2007|88101|1|X|170|105|5|||1|SLAMS|0145|California Air Resources Board|20180922|5.3|||||||||||||||||||||||||||||||||||||||||||||||
2|06|079|2007|88101|1|X|170|105|5|||1|SLAMS|0145|California Air Resources Board|20180923|6.6|||||||||||||||||||||||||||||||||||||||||||||||
2|06|079|2007|88101|1|X|170|105|5|||1|SLAMS|0145|California Air Resources Board|20180924|7.5|||||||||||||||||||||||||||||||||||||||||||||||
2|06|079|2007|88101|1|X|170|105|5|||1|SLAMS|0145|California Air Resources Board|20180925|7.5|||||||||||||||||||||||||||||||||||||||||||||||
2|06|079|2007|88101|1|X|170|105|5|||1|SLAMS|0145|California Air Resources Board|20180926|9.7|||||||||||||||||||||||||||||||||||||||||||||||
2|06|079|2007|88101|1|X|170|105|5|||1|SLAMS|0145|California Air Resources Board|20180927|7.2|||||||||||||||||||||||||||||||||||||||||||||||
2|06|079|2007|88101|1|X|170|105|5|||1|SLAMS|0145|California Air Resources Board|20180928|6.8|||||||||||||||||||||||||||||||||||||||||||||||
2|06|079|2007|88101|1|X|170|105|5|||1|SLAMS|0145|California Air Resources Board|20180929|6.2|||||||||||||||||||||||||||||||||||||||||||||||
2|06|079|2007|88101|1|X|170|105|5|||1|SLAMS|0145|California Air Resources Board|20180930|3.1|||||||||||||||||||||||||||||||||||||||||||||||
2|06|079|2007|88101|1|X|170|105|5|||1|SLAMS|0145|California Air Resources Board|20181001|2.7|||||||||||||||||||||||||||||||||||||||||||||||
2|06|079|2007|88101|1|X|170|105|5|||1|SLAMS|0145|California Air Resources Board|20181002|3.4|||||||||||||||||||||||||||||||||||||||||||||||
2|06|079|2007|88101|1|X|170|105|5|||1|SLAMS|0145|California Air Resources Board|20181003|1.9|||||||||||||||||||||||||||||||||||||||||||||||
2|06|079|2007|88101|1|X|170|105|5|||1|SLAMS|0145|California Air Resources Board|20181004|1.3|||||||||||||||||||||||||||||||||||||||||||||||
2|06|079|2007|88101|1|X|170|105|5|||1|SLAMS|0145|California Air Resources Board|20181005|10.9|||||||||||||||||||||||||||||||||||||||||||||||
2|06|079|2007|88101|1|X|170|105|5|||1|SLAMS|0145|California Air Resources Board|20181006|13.3|||||||||||||||||||||||||||||||||||||||||||||||
2|06|079|2007|88101|1|X|170|105|5|||1|SLAMS|0145|California Air Resources Board|20181007|9.7|||||||||||||||||||||||||||||||||||||||||||||||
2|06|079|2007|88101|1|X|170|105|5|||1|SLAMS|0145|California Air Resources Board|20181008|6.7|||||||||||||||||||||||||||||||||||||||||||||||
2|06|079|2007|88101|1|X|170|105|5|||1|SLAMS|0145|California Air Resources Board|20181009|6.6|||||||||||||||||||||||||||||||||||||||||||||||
2|06|079|2007|88101|1|X|170|105|5|||1|SLAMS|0145|California Air Resources Board|20181010|4.8|||||||||||||||||||||||||||||||||||||||||||||||
2|06|079|2007|88101|1|X|170|105|5|||1|SLAMS|0145|California Air Resources Board|20181011|3.3|||||||||||||||||||||||||||||||||||||||||||||||
2|06|079|2007|88101|1|X|170|105|5|||1|SLAMS|0145|California Air Resources Board|20181012|6.2|||||||||||||||||||||||||||||||||||||||||||||||
2|06|079|2007|88101|1|X|170|105|5|||1|SLAMS|0145|California Air Resources Board|20181013|6.2|||||||||||||||||||||||||||||||||||||||||||||||
2|06|079|2007|88101|1|X|170|105|5|||1|SLAMS|0145|California Air Resources Board|20181014|6.1|||||||||||||||||||||||||||||||||||||||||||||||
2|06|079|2007|88101|1|X|170|105|5|||1|SLAMS|0145|California Air Resources Board|20181015|5.7|||||||||||||||||||||||||||||||||||||||||||||||
2|06|079|2007|88101|1|X|170|105|5|||1|SLAMS|0145|California Air Resources Board|20181016|8.5|||||||||||||||||||||||||||||||||||||||||||||||
2|06|079|2007|88101|1|X|170|105|5|||1|SLAMS|0145|California Air Resources Board|20181017|5.6|||||||||||||||||||||||||||||||||||||||||||||||
2|06|079|2007|88101|1|X|170|105|5|||1|SLAMS|0145|California Air Resources Board|20181018|7.2|||||||||||||||||||||||||||||||||||||||||||||||
2|06|079|2007|88101|1|X|170|105|5|||1|SLAMS|0145|California Air Resources Board|20181019|10.8|||||||||||||||||||||||||||||||||||||||||||||||
2|06|079|2007|88101|1|X|170|105|5|||1|SLAMS|0145|California Air Resources Board|20181020|10.4|||||||||||||||||||||||||||||||||||||||||||||||
2|06|079|2007|88101|1|X|170|105|5|||1|SLAMS|0145|California Air Resources Board|20181021|9.8|||||||||||||||||||||||||||||||||||||||||||||||
2|06|079|2007|88101|1|X|170|105|5|||1|SLAMS|0145|California Air Resources Board|20181022|10.0|||||||||||||||||||||||||||||||||||||||||||||||
2|06|079|2007|88101|1|X|170|105|5|||1|SLAMS|0145|California Air Resources Board|20181023|9.1|||||||||||||||||||||||||||||||||||||||||||||||
2|06|079|2007|88101|1|X|170|105|5|||1|SLAMS|0145|California Air Resources Board|20181024|8.9|||||||||||||||||||||||||||||||||||||||||||||||
2|06|079|2007|88101|1|X|170|105|5|||1|SLAMS|0145|California Air Resources Board|20181025|8.2|||||||||||||||||||||||||||||||||||||||||||||||
2|06|079|2007|88101|1|X|170|105|5|||1|SLAMS|0145|California Air Resources Board|20181026|6.8|||||||||||||||||||||||||||||||||||||||||||||||
2|06|079|2007|88101|1|X|170|105|5|||1|SLAMS|0145|California Air Resources Board|20181027|5.6|||||||||||||||||||||||||||||||||||||||||||||||
2|06|079|2007|88101|1|X|170|105|5|||1|SLAMS|0145|California Air Resources Board|20181028|7.3|||||||||||||||||||||||||||||||||||||||||||||||
2|06|079|2007|88101|1|X|170|105|5|||1|SLAMS|0145|California Air Resources Board|20181029|1.8|||||||||||||||||||||||||||||||||||||||||||||||
2|06|079|2007|88101|1|X|170|105|5|||1|SLAMS|0145|California Air Resources Board|20181030|6.4|||||||||||||||||||||||||||||||||||||||||||||||
2|06|079|2007|88101|1|X|170|105|5|||1|SLAMS|0145|California Air Resources Board|20181031|6.1|||||||||||||||||||||||||||||||||||||||||||||||
2|06|079|2007|88101|1|X|170|105|5|||1|SLAMS|0145|California Air Resources Board|20181101|6.2|||||||||||||||||||||||||||||||||||||||||||||||
2|06|079|2007|88101|1|X|170|105|5|||1|SLAMS|0145|California Air Resources Board|20181102|8.6|||||||||||||||||||||||||||||||||||||||||||||||
2|06|079|2007|88101|1|X|170|105|5|||1|SLAMS|0145|California Air Resources Board|20181103|9.2|||||||||||||||||||||||||||||||||||||||||||||||
2|06|079|2007|88101|1|X|170|105|5|||1|SLAMS|0145|California Air Resources Board|20181104|8.1|||||||||||||||||||||||||||||||||||||||||||||||
2|06|079|2007|88101|1|X|170|105|5|||1|SLAMS|0145|California Air Resources Board|20181105|8.4|||||||||||||||||||||||||||||||||||||||||||||||
2|06|079|2007|88101|1|X|170|105|5|||1|SLAMS|0145|California Air Resources Board|20181106|7.1|||||||||||||||||||||||||||||||||||||||||||||||
2|06|079|2007|88101|1|X|170|105|5|||1|SLAMS|0145|California Air Resources Board|20181107|5.7|||||||||||||||||||||||||||||||||||||||||||||||
2|06|079|2007|88101|1|X|170|105|5|||1|SLAMS|0145|California Air Resources Board|20181108|5.2|||||||||||||||||||||||||||||||||||||||||||||||
2|06|079|2007|88101|1|X|170|105|5|||1|SLAMS|0145|California Air Resources Board|20181109|4.7|||||||||||||||||||||||||||||||||||||||||||||||
2|06|079|2007|88101|1|X|170|105|5|||1|SLAMS|0145|California Air Resources Board|20181110|13.7|||||||||||||||||||||||||||||||||||||||||||||||
2|06|079|2007|88101|1|X|170|105|5|||1|SLAMS|0145|California Air Resources Board|20181111|17.8|||||||||||||||||||||||||||||||||||||||||||||||
2|06|079|2007|88101|1|X|170|105|5|||1|SLAMS|0145|California Air Resources Board|20181112|12.2|||||||||||||||||||||||||||||||||||||||||||||||
2|06|079|2007|88101|1|X|170|105|5|||1|SLAMS|0145|California Air Resources Board|20181113|7.0|||||||||||||||||||||||||||||||||||||||||||||||
2|06|079|2007|88101|1|X|170|105|5|||1|SLAMS|0145|California Air Resources Board|20181114|8.3|||||||||||||||||||||||||||||||||||||||||||||||
2|06|079|2007|88101|1|X|170|105|5|||1|SLAMS|0145|California Air Resources Board|20181115|9.5|||||||||||||||||||||||||||||||||||||||||||||||
2|06|079|2007|88101|1|X|170|105|5|||1|SLAMS|0145|California Air Resources Board|20181116|21.5|||||||||||||||||||||||||||||||||||||||||||||||
2|06|079|2007|88101|1|X|170|105|5|||1|SLAMS|0145|California Air Resources Board|20181117|30.0|||||||||||||||||||||||||||||||||||||||||||||||
2|06|079|2007|88101|1|X|170|105|5|||1|SLAMS|0145|California Air Resources Board|20181118|28.8|||||||||||||||||||||||||||||||||||||||||||||||
2|06|079|2007|88101|1|X|170|105|5|||1|SLAMS|0145|California Air Resources Board|20181119|20.1|||||||||||||||||||||||||||||||||||||||||||||||
2|06|079|2007|88101|1|X|170|105|5|||1|SLAMS|0145|California Air Resources Board|20181120|13.1|||||||||||||||||||||||||||||||||||||||||||||||
2|06|079|2007|88101|1|X|170|105|5|||1|SLAMS|0145|California Air Resources Board|20181121|5.0|||||||||||||||||||||||||||||||||||||||||||||||
2|06|079|2007|88101|1|X|170|105|5|||1|SLAMS|0145|California Air Resources Board|20181122|2.1|||||||||||||||||||||||||||||||||||||||||||||||
2|06|079|2007|88101|1|X|170|105|5|||1|SLAMS|0145|California Air Resources Board|20181123|1.5|||||||||||||||||||||||||||||||||||||||||||||||
2|06|079|2007|88101|1|X|170|105|5|||1|SLAMS|0145|California Air Resources Board|20181124|2.5|||||||||||||||||||||||||||||||||||||||||||||||
2|06|079|2007|88101|1|X|170|105|5|||1|SLAMS|0145|California Air Resources Board|20181125|4.1|||||||||||||||||||||||||||||||||||||||||||||||
2|06|079|2007|88101|1|X|170|105|5|||1|SLAMS|0145|California Air Resources Board|20181126|5.2|||||||||||||||||||||||||||||||||||||||||||||||
2|06|079|2007|88101|1|X|170|105|5|||1|SLAMS|0145|California Air Resources Board|20181127|5.2|||||||||||||||||||||||||||||||||||||||||||||||
2|06|079|2007|88101|1|X|170|105|5|||1|SLAMS|0145|California Air Resources Board|20181128|.8|||||||||||||||||||||||||||||||||||||||||||||||
2|06|079|2007|88101|1|X|170|105|5|||1|SLAMS|0145|California Air Resources Board|20181129|5.6|||||||||||||||||||||||||||||||||||||||||||||||
2|06|079|2007|88101|1|X|170|105|5|||1|SLAMS|0145|California Air Resources Board|20181130|7.3|||||||||||||||||||||||||||||||||||||||||||||||
2|06|079|2007|88101|1|X|170|105|5|||1|SLAMS|0145|California Air Resources Board|20181201|2.7|||||||||||||||||||||||||||||||||||||||||||||||
2|06|079|2007|88101|1|X|170|105|5|||1|SLAMS|0145|California Air Resources Board|20181202|2.0|||||||||||||||||||||||||||||||||||||||||||||||
2|06|079|2007|88101|1|X|170|105|5|||1|SLAMS|0145|California Air Resources Board|20181203|3.3|||||||||||||||||||||||||||||||||||||||||||||||
2|06|079|2007|88101|1|X|170|105|5|||1|SLAMS|0145|California Air Resources Board|20181204|1.5|||||||||||||||||||||||||||||||||||||||||||||||
2|06|079|2007|88101|1|X|170|105|5|||1|SLAMS|0145|California Air Resources Board|20181205|.3|||||||||||||||||||||||||||||||||||||||||||||||
2|06|079|2007|88101|1|X|170|105|5|||1|SLAMS|0145|California Air Resources Board|20181206|1.1|||||||||||||||||||||||||||||||||||||||||||||||
2|06|079|2007|88101|1|X|170|105|5|||1|SLAMS|0145|California Air Resources Board|20181207|3.8|||||||||||||||||||||||||||||||||||||||||||||||
2|06|079|2007|88101|1|X|170|105|5|||1|SLAMS|0145|California Air Resources Board|20181208|4.9|||||||||||||||||||||||||||||||||||||||||||||||
2|06|079|2007|88101|1|X|170|105|5|||1|SLAMS|0145|California Air Resources Board|20181209|4.5|||||||||||||||||||||||||||||||||||||||||||||||
2|06|079|2007|88101|1|X|170|105|5|||1|SLAMS|0145|California Air Resources Board|20181210|2.5|||||||||||||||||||||||||||||||||||||||||||||||
2|06|079|2007|88101|1|X|170|105|5|||1|SLAMS|0145|California Air Resources Board|20181211|7.5|||||||||||||||||||||||||||||||||||||||||||||||
2|06|079|2007|88101|1|X|170|105|5|||1|SLAMS|0145|California Air Resources Board|20181212|2.6|||||||||||||||||||||||||||||||||||||||||||||||
2|06|079|2007|88101|1|X|170|105|5|||1|SLAMS|0145|California Air Resources Board|20181213|8.4|||||||||||||||||||||||||||||||||||||||||||||||
2|06|079|2007|88101|1|X|170|105|5|||1|SLAMS|0145|California Air Resources Board|20181214|8.0|||||||||||||||||||||||||||||||||||||||||||||||
2|06|079|2007|88101|1|X|170|105|5|||1|SLAMS|0145|California Air Resources Board|20181215|6.0|||||||||||||||||||||||||||||||||||||||||||||||
2|06|079|2007|88101|1|X|170|105|5|||1|SLAMS|0145|California Air Resources Board|20181216|3.6|||||||||||||||||||||||||||||||||||||||||||||||
2|06|079|2007|88101|1|X|170|105|5|||1|SLAMS|0145|California Air Resources Board|20181217|3.4|||||||||||||||||||||||||||||||||||||||||||||||
2|06|079|2007|88101|1|X|170|105|5|||1|SLAMS|0145|California Air Resources Board|20181218|1.7|||||||||||||||||||||||||||||||||||||||||||||||
2|06|079|2007|88101|1|X|170|105|5|||1|SLAMS|0145|California Air Resources Board|20181219|4.7|||||||||||||||||||||||||||||||||||||||||||||||
2|06|079|2007|88101|1|X|170|105|5|||1|SLAMS|0145|California Air Resources Board|20181220|5.7|||||||||||||||||||||||||||||||||||||||||||||||
2|06|079|2007|88101|1|X|170|105|5|||1|SLAMS|0145|California Air Resources Board|20181221|6.0|||||||||||||||||||||||||||||||||||||||||||||||
2|06|079|2007|88101|1|X|170|105|5|||1|SLAMS|0145|California Air Resources Board|20181222|7.7|||||||||||||||||||||||||||||||||||||||||||||||
2|06|079|2007|88101|1|X|170|105|5|||1|SLAMS|0145|California Air Resources Board|20181223|9.4|||||||||||||||||||||||||||||||||||||||||||||||
2|06|079|2007|88101|1|X|170|105|5|||1|SLAMS|0145|California Air Resources Board|20181224|4.2|||||||||||||||||||||||||||||||||||||||||||||||
2|06|079|2007|88101|1|X|170|105|5|||1|SLAMS|0145|California Air Resources Board|20181225|3.2|||||||||||||||||||||||||||||||||||||||||||||||
2|06|079|2007|88101|1|X|170|105|5|||1|SLAMS|0145|California Air Resources Board|20181226|2.7|||||||||||||||||||||||||||||||||||||||||||||||
2|06|079|2007|88101|1|X|170|105|5|||1|SLAMS|0145|California Air Resources Board|20181227|1.9|||||||||||||||||||||||||||||||||||||||||||||||
2|06|079|2007|88101|1|X|170|105|5|||1|SLAMS|0145|California Air Resources Board|20181228|2.5|||||||||||||||||||||||||||||||||||||||||||||||
2|06|079|2007|88101|1|X|170|105|5|||1|SLAMS|0145|California Air Resources Board|20181229|6.0|||||||||||||||||||||||||||||||||||||||||||||||
2|06|079|2007|88101|1|X|170|105|5|||1|SLAMS|0145|California Air Resources Board|20181230|8.1|||||||||||||||||||||||||||||||||||||||||||||||
2|06|079|2007|88101|1|X|170|105|5|||1|SLAMS|0145|California Air Resources Board|20181231|4.6|||||||||||||||||||||||||||||||||||||||||||||||
1|06|California|079|San Luis Obispo|8002|88101|PM2.5 - Local Conditions|3|03064|Atascadero|5599 Traffic Way, Atascadero CA|032|SOUTH CENTRAL COAST|42020|San Luis Obispo-Paso Robles-Arroyo Grande, CA|||09|POPULATION EXPOSURE|||0000|NOT IN AN URBAN AREA|COMMERCIAL|SUBURBAN|35.49453|-120.66617||||103|GPS|WGS84|30||260|008|OTHER|MEAN SEA-LEVEL|30
2|06|079|8002|88101|3|X|170|105|5|||1|SLAMS|0145|California Air Resources Board|20180101|19.2|||||||||||||||||||||||||||||||||||||||||||||||
2|06|079|8002|88101|3|X|170|105|5|||1|SLAMS|0145|California Air Resources Board|20180102|21.2|||||||||||||||||||||||||||||||||||||||||||||||
2|06|079|8002|88101|3|X|170|105|5|||1|SLAMS|0145|California Air Resources Board|20180103|23.4|||||||||||||||||||||||||||||||||||||||||||||||
2|06|079|8002|88101|3|X|170|105|5|||1|SLAMS|0145|California Air Resources Board|20180104|.7|||||||||||||||||||||||||||||||||||||||||||||||
2|06|079|8002|88101|3|X|170|105|5|||1|SLAMS|0145|California Air Resources Board|20180105|2.1|||||||||||||||||||||||||||||||||||||||||||||||
2|06|079|8002|88101|3|X|170|105|5|||1|SLAMS|0145|California Air Resources Board|20180106|3.5|||||||||||||||||||||||||||||||||||||||||||||||
2|06|079|8002|88101|3|X|170|105|5|||1|SLAMS|0145|California Air Resources Board|20180107|4.0|||||||||||||||||||||||||||||||||||||||||||||||
2|06|079|8002|88101|3|X|170|105|5|||1|SLAMS|0145|California Air Resources Board|20180108|-1.0|||||||||||||||||||||||||||||||||||||||||||||||
2|06|079|8002|88101|3|X|170|105|5|||1|SLAMS|0145|California Air Resources Board|20180109|-1.1|||||||||||||||||||||||||||||||||||||||||||||||
2|06|079|8002|88101|3|X|170|105|5|||1|SLAMS|0145|California Air Resources Board|20180110|1.5|||||||||||||||||||||||||||||||||||||||||||||||
2|06|079|8002|88101|3|X|170|105|5|||1|SLAMS|0145|California Air Resources Board|20180111|4.8|||||||||||||||||||||||||||||||||||||||||||||||
2|06|079|8002|88101|3|X|170|105|5|||1|SLAMS|0145|California Air Resources Board|20180112|12.5|||||||||||||||||||||||||||||||||||||||||||||||
2|06|079|8002|88101|3|X|170|105|5|||1|SLAMS|0145|California Air Resources Board|20180113|13.7|||||||||||||||||||||||||||||||||||||||||||||||
2|06|079|8002|88101|3|X|170|105|5|||1|SLAMS|0145|California Air Resources Board|20180114|7.0|||||||||||||||||||||||||||||||||||||||||||||||
2|06|079|8002|88101|3|X|170|105|5|||1|SLAMS|0145|California Air Resources Board|20180115|6.9|||||||||||||||||||||||||||||||||||||||||||||||
2|06|079|8002|88101|3|X|170|105|5|||1|SLAMS|0145|California Air Resources Board|20180116|6.3|||||||||||||||||||||||||||||||||||||||||||||||
2|06|079|8002|88101|3|X|170|105|5|||1|SLAMS|0145|California Air Resources Board|20180117|7.7|||||||||||||||||||||||||||||||||||||||||||||||
2|06|079|8002|88101|3|X|170|105|5|||1|SLAMS|0145|California Air Resources Board|20180118|2.5|||||||||||||||||||||||||||||||||||||||||||||||
2|06|079|8002|88101|3|X|170|105|5|||1|SLAMS|0145|California Air Resources Board|20180119|4.2|||||||||||||||||||||||||||||||||||||||||||||||
2|06|079|8002|88101|3|X|170|105|5|||1|SLAMS|0145|California Air Resources Board|20180120|6.8|||||||||||||||||||||||||||||||||||||||||||||||
2|06|079|8002|88101|3|X|170|105|5|||1|SLAMS|0145|California Air Resources Board|20180121|10.0|||||||||||||||||||||||||||||||||||||||||||||||
2|06|079|8002|88101|3|X|170|105|5|||1|SLAMS|0145|California Air Resources Board|20180122|7.0|||||||||||||||||||||||||||||||||||||||||||||||
2|06|079|8002|88101|3|X|170|105|5|||1|SLAMS|0145|California Air Resources Board|20180123|10.3|||||||||||||||||||||||||||||||||||||||||||||||
2|06|079|8002|88101|3|X|170|105|5|||1|SLAMS|0145|California Air Resources Board|20180124|11.4|||||||||||||||||||||||||||||||||||||||||||||||
2|06|079|8002|88101|3|X|170|105|5|||1|SLAMS|0145|California Air Resources Board|20180125|5.4|||||||||||||||||||||||||||||||||||||||||||||||
2|06|079|8002|88101|3|X|170|105|5|||1|SLAMS|0145|California Air Resources Board|20180126|8.1|||||||||||||||||||||||||||||||||||||||||||||||
2|06|079|8002|88101|3|X|170|105|5|||1|SLAMS|0145|California Air Resources Board|20180127|8.4|||||||||||||||||||||||||||||||||||||||||||||||
2|06|079|8002|88101|3|X|170|105|5|||1|SLAMS|0145|California Air Resources Board|20180128|10.3|||||||||||||||||||||||||||||||||||||||||||||||
2|06|079|8002|88101|3|X|170|105|5|||1|SLAMS|0145|California Air Resources Board|20180129|7.4|||||||||||||||||||||||||||||||||||||||||||||||
2|06|079|8002|88101|3|X|170|105|5|||1|SLAMS|0145|California Air Resources Board|20180130|7.4|||||||||||||||||||||||||||||||||||||||||||||||
2|06|079|8002|88101|3|X|170|105|5|||1|SLAMS|0145|California Air Resources Board|20180131|10.2|||||||||||||||||||||||||||||||||||||||||||||||
2|06|079|8002|88101|3|X|170|105|5|||1|SLAMS|0145|California Air Resources Board|20180201|10.0|||||||||||||||||||||||||||||||||||||||||||||||
2|06|079|8002|88101|3|X|170|105|5|||1|SLAMS|0145|California Air Resources Board|20180202|11.0|||||||||||||||||||||||||||||||||||||||||||||||
2|06|079|8002|88101|3|X|170|105|5|||1|SLAMS|0145|California Air Resources Board|20180203|13.7|||||||||||||||||||||||||||||||||||||||||||||||
2|06|079|8002|88101|3|X|170|105|5|||1|SLAMS|0145|California Air Resources Board|20180204|14.0|||||||||||||||||||||||||||||||||||||||||||||||
2|06|079|8002|88101|3|X|170|105|5|||1|SLAMS|0145|California Air Resources Board|20180205|8.7|||||||||||||||||||||||||||||||||||||||||||||||
2|06|079|8002|88101|3|X|170|105|5|||1|SLAMS|0145|California Air Resources Board|20180206|6.3|||||||||||||||||||||||||||||||||||||||||||||||
2|06|079|8002|88101|3|X|170|105|5|||1|SLAMS|0145|California Air Resources Board|20180207|4.9|||||||||||||||||||||||||||||||||||||||||||||||
2|06|079|8002|88101|3|X|170|105|5|||1|SLAMS|0145|California Air Resources Board|20180208|6.7|||||||||||||||||||||||||||||||||||||||||||||||
2|06|079|8002|88101|3|X|170|105|5|||1|SLAMS|0145|California Air Resources Board|20180209|5.9|||||||||||||||||||||||||||||||||||||||||||||||
2|06|079|8002|88101|3|X|170|105|5|||1|SLAMS|0145|California Air Resources Board|20180210|6.5|||||||||||||||||||||||||||||||||||||||||||||||
2|06|079|8002|88101|3|X|170|105|5|||1|SLAMS|0145|California Air Resources Board|20180211|7.7|||||||||||||||||||||||||||||||||||||||||||||||
2|06|079|8002|88101|3|X|170|105|5|||1|SLAMS|0145|California Air Resources Board|20180212|3.7|||||||||||||||||||||||||||||||||||||||||||||||
2|06|079|8002|88101|3|X|170|105|5|||1|SLAMS|0145|California Air Resources Board|20180213|11.3|||||||||||||||||||||||||||||||||||||||||||||||
2|06|079|8002|88101|3|X|170|105|5|||1|SLAMS|0145|California Air Resources Board|20180214|8.8|||||||||||||||||||||||||||||||||||||||||||||||
2|06|079|8002|88101|3|X|170|105|5|||1|SLAMS|0145|California Air Resources Board|20180215|5.9|||||||||||||||||||||||||||||||||||||||||||||||
2|06|079|8002|88101|3|X|170|105|5|||1|SLAMS|0145|California Air Resources Board|20180216|10.2|||||||||||||||||||||||||||||||||||||||||||||||
2|06|079|8002|88101|3|X|170|105|5|||1|SLAMS|0145|California Air Resources Board|20180217|11.9|||||||||||||||||||||||||||||||||||||||||||||||
2|06|079|8002|88101|3|X|170|105|5|||1|SLAMS|0145|California Air Resources Board|20180218|4.4|||||||||||||||||||||||||||||||||||||||||||||||
2|06|079|8002|88101|3|X|170|105|5|||1|SLAMS|0145|California Air Resources Board|20180219|6.6|||||||||||||||||||||||||||||||||||||||||||||||
2|06|079|8002|88101|3|X|170|105|5|||1|SLAMS|0145|California Air Resources Board|20180220|7.1|||||||||||||||||||||||||||||||||||||||||||||||
2|06|079|8002|88101|3|X|170|105|5|||1|SLAMS|0145|California Air Resources Board|20180221|4.7|||||||||||||||||||||||||||||||||||||||||||||||
2|06|079|8002|88101|3|X|170|105|5|||1|SLAMS|0145|California Air Resources Board|20180222|5.5|||||||||||||||||||||||||||||||||||||||||||||||
2|06|079|8002|88101|3|X|170|105|5|||1|SLAMS|0145|California Air Resources Board|20180223|5.3|||||||||||||||||||||||||||||||||||||||||||||||
2|06|079|8002|88101|3|X|170|105|5|||1|SLAMS|0145|California Air Resources Board|20180224|5.8|||||||||||||||||||||||||||||||||||||||||||||||
2|06|079|8002|88101|3|X|170|105|5|||1|SLAMS|0145|California Air Resources Board|20180225|4.2|||||||||||||||||||||||||||||||||||||||||||||||
2|06|079|8002|88101|3|X|170|105|5|||1|SLAMS|0145|California Air Resources Board|20180226|5.2|||||||||||||||||||||||||||||||||||||||||||||||
2|06|079|8002|88101|3|X|170|105|5|||1|SLAMS|0145|California Air Resources Board|20180227|3.7|||||||||||||||||||||||||||||||||||||||||||||||
2|06|079|8002|88101|3|X|170|105|5|||1|SLAMS|0145|California Air Resources Board|20180228|4.6|||||||||||||||||||||||||||||||||||||||||||||||
2|06|079|8002|88101|3|X|170|105|5|||1|SLAMS|0145|California Air Resources Board|20180301|-.2|||||||||||||||||||||||||||||||||||||||||||||||
2|06|079|8002|88101|3|X|170|105|5|||1|SLAMS|0145|California Air Resources Board|20180302|1.4|||||||||||||||||||||||||||||||||||||||||||||||
2|06|079|8002|88101|3|X|170|105|5|||1|SLAMS|0145|California Air Resources Board|20180303|1.3|||||||||||||||||||||||||||||||||||||||||||||||
2|06|079|8002|88101|3|X|170|105|5|||1|SLAMS|0145|California Air Resources Board|20180304|3.9|||||||||||||||||||||||||||||||||||||||||||||||
2|06|079|8002|88101|3|X|170|105|5|||1|SLAMS|0145|California Air Resources Board|20180305|4.5|||||||||||||||||||||||||||||||||||||||||||||||
2|06|079|8002|88101|3|X|170|105|5|||1|SLAMS|0145|California Air Resources Board|20180306|5.2|||||||||||||||||||||||||||||||||||||||||||||||
2|06|079|8002|88101|3|X|170|105|5|||1|SLAMS|0145|California Air Resources Board|20180307|3.8|||||||||||||||||||||||||||||||||||||||||||||||
2|06|079|8002|88101|3|X|170|105|5|||1|SLAMS|0145|California Air Resources Board|20180308|.8|||||||||||||||||||||||||||||||||||||||||||||||
2|06|079|8002|88101|3|X|170|105|5|||1|SLAMS|0145|California Air Resources Board|20180309|.4|||||||||||||||||||||||||||||||||||||||||||||||
2|06|079|8002|88101|3|X|170|105|5|||1|SLAMS|0145|California Air Resources Board|20180310|2.2|||||||||||||||||||||||||||||||||||||||||||||||
2|06|079|8002|88101|3|X|170|105|5|||1|SLAMS|0145|California Air Resources Board|20180311|1.5|||||||||||||||||||||||||||||||||||||||||||||||
2|06|079|8002|88101|3|X|170|105|5|||1|SLAMS|0145|California Air Resources Board|20180312|-.2|||||||||||||||||||||||||||||||||||||||||||||||
2|06|079|8002|88101|3|X|170|105|5|||1|SLAMS|0145|California Air Resources Board|20180313|-1.3|||||||||||||||||||||||||||||||||||||||||||||||
2|06|079|8002|88101|3|X|170|105|5|||1|SLAMS|0145|California Air Resources Board|20180314|.5|||||||||||||||||||||||||||||||||||||||||||||||
2|06|079|8002|88101|3|X|170|105|5|||1|SLAMS|0145|California Air Resources Board|20180315|2.1|||||||||||||||||||||||||||||||||||||||||||||||
2|06|079|8002|88101|3|X|170|105|5|||1|SLAMS|0145|California Air Resources Board|20180316|1.4|||||||||||||||||||||||||||||||||||||||||||||||
2|06|079|8002|88101|3|X|170|105|5|||1|SLAMS|0145|California Air Resources Board|20180317|3.5|||||||||||||||||||||||||||||||||||||||||||||||
2|06|079|8002|88101|3|X|170|105|5|||1|SLAMS|0145|California Air Resources Board|20180318|2.6|||||||||||||||||||||||||||||||||||||||||||||||
2|06|079|8002|88101|3|X|170|105|5|||1|SLAMS|0145|California Air Resources Board|20180319|3.2|||||||||||||||||||||||||||||||||||||||||||||||
2|06|079|8002|88101|3|X|170|105|5|||1|SLAMS|0145|California Air Resources Board|20180320|2.7|||||||||||||||||||||||||||||||||||||||||||||||
2|06|079|8002|88101|3|X|170|105|5|||1|SLAMS|0145|California Air Resources Board|20180321|-1.5|||||||||||||||||||||||||||||||||||||||||||||||
2|06|079|8002|88101|3|X|170|105|5|||1|SLAMS|0145|California Air Resources Board|20180322|-1.0|||||||||||||||||||||||||||||||||||||||||||||||
2|06|079|8002|88101|3|X|170|105|5|||1|SLAMS|0145|California Air Resources Board|20180323|3.5|||||||||||||||||||||||||||||||||||||||||||||||
2|06|079|8002|88101|3|X|170|105|5|||1|SLAMS|0145|California Air Resources Board|20180324|2.9|||||||||||||||||||||||||||||||||||||||||||||||
2|06|079|8002|88101|3|X|170|105|5|||1|SLAMS|0145|California Air Resources Board|20180325|3.2|||||||||||||||||||||||||||||||||||||||||||||||
2|06|079|8002|88101|3|X|170|105|5|||1|SLAMS|0145|California Air Resources Board|20180326|3.0|||||||||||||||||||||||||||||||||||||||||||||||
2|06|079|8002|88101|3|X|170|105|5|||1|SLAMS|0145|California Air Resources Board|20180327|2.1|||||||||||||||||||||||||||||||||||||||||||||||
2|06|079|8002|88101|3|X|170|105|5|||1|SLAMS|0145|California Air Resources Board|20180328|5.1|||||||||||||||||||||||||||||||||||||||||||||||
2|06|079|8002|88101|3|X|170|105|5|||1|SLAMS|0145|California Air Resources Board|20180329|2.2|||||||||||||||||||||||||||||||||||||||||||||||
2|06|079|8002|88101|3|X|170|105|5|||1|SLAMS|0145|California Air Resources Board|20180330|3.6|||||||||||||||||||||||||||||||||||||||||||||||
2|06|079|8002|88101|3|X|170|105|5|||1|SLAMS|0145|California Air Resources Board|20180331|1.8|||||||||||||||||||||||||||||||||||||||||||||||
2|06|079|8002|88101|3|X|170|105|5|||1|SLAMS|0145|California Air Resources Board|20180401|3.6|||||||||||||||||||||||||||||||||||||||||||||||
2|06|079|8002|88101|3|X|170|105|5|||1|SLAMS|0145|California Air Resources Board|20180402|4.2|||||||||||||||||||||||||||||||||||||||||||||||
2|06|079|8002|88101|3|X|170|105|5|||1|SLAMS|0145|California Air Resources Board|20180403|4.6|||||||||||||||||||||||||||||||||||||||||||||||
2|06|079|8002|88101|3|X|170|105|5|||1|SLAMS|0145|California Air Resources Board|20180404|4.8|||||||||||||||||||||||||||||||||||||||||||||||
2|06|079|8002|88101|3|X|170|105|5|||1|SLAMS|0145|California Air Resources Board|20180405|3.4|||||||||||||||||||||||||||||||||||||||||||||||
2|06|079|8002|88101|3|X|170|105|5|||1|SLAMS|0145|California Air Resources Board|20180406|.4|||||||||||||||||||||||||||||||||||||||||||||||
2|06|079|8002|88101|3|X|170|105|5|||1|SLAMS|0145|California Air Resources Board|20180407|.7|||||||||||||||||||||||||||||||||||||||||||||||
2|06|079|8002|88101|3|X|170|105|5|||1|SLAMS|0145|California Air Resources Board|20180408|4.0|||||||||||||||||||||||||||||||||||||||||||||||
2|06|079|8002|88101|3|X|170|105|5|||1|SLAMS|0145|California Air Resources Board|20180409|3.5|||||||||||||||||||||||||||||||||||||||||||||||
2|06|079|8002|88101|3|X|170|105|5|||1|SLAMS|0145|California Air Resources Board|20180410|4.3|||||||||||||||||||||||||||||||||||||||||||||||
2|06|079|8002|88101|3|X|170|105|5|||1|SLAMS|0145|California Air Resources Board|20180411|.8|||||||||||||||||||||||||||||||||||||||||||||||
2|06|079|8002|88101|3|X|170|105|5|||1|SLAMS|0145|California Air Resources Board|20180412|2.1|||||||||||||||||||||||||||||||||||||||||||||||
2|06|079|8002|88101|3|X|170|105|5|||1|SLAMS|0145|California Air Resources Board|20180413|3.8|||||||||||||||||||||||||||||||||||||||||||||||
2|06|079|8002|88101|3|X|170|105|5|||1|SLAMS|0145|California Air Resources Board|20180414|5.2|||||||||||||||||||||||||||||||||||||||||||||||
2|06|079|8002|88101|3|X|170|105|5|||1|SLAMS|0145|California Air Resources Board|20180415|5.3|||||||||||||||||||||||||||||||||||||||||||||||
2|06|079|8002|88101|3|X|170|105|5|||1|SLAMS|0145|California Air Resources Board|20180416|2.5|||||||||||||||||||||||||||||||||||||||||||||||
2|06|079|8002|88101|3|X|170|105|5|||1|SLAMS|0145|California Air Resources Board|20180417|2.6|||||||||||||||||||||||||||||||||||||||||||||||
2|06|079|8002|88101|3|X|170|105|5|||1|SLAMS|0145|California Air Resources Board|20180418|3.4|||||||||||||||||||||||||||||||||||||||||||||||
2|06|079|8002|88101|3|X|170|105|5|||1|SLAMS|0145|California Air Resources Board|20180419|2.2|||||||||||||||||||||||||||||||||||||||||||||||
2|06|079|8002|88101|3|X|170|105|5|||1|SLAMS|0145|California Air Resources Board|20180420|3.6|||||||||||||||||||||||||||||||||||||||||||||||
2|06|079|8002|88101|3|X|170|105|5|||1|SLAMS|0145|California Air Resources Board|20180421|3.3|||||||||||||||||||||||||||||||||||||||||||||||
2|06|079|8002|88101|3|X|170|105|5|||1|SLAMS|0145|California Air Resources Board|20180422|2.7|||||||||||||||||||||||||||||||||||||||||||||||
2|06|079|8002|88101|3|X|170|105|5|||1|SLAMS|0145|California Air Resources Board|20180423|4.1|||||||||||||||||||||||||||||||||||||||||||||||
2|06|079|8002|88101|3|X|170|105|5|||1|SLAMS|0145|California Air Resources Board|20180424|7.4|||||||||||||||||||||||||||||||||||||||||||||||
2|06|079|8002|88101|3|X|170|105|5|||1|SLAMS|0145|California Air Resources Board|20180425|4.7|||||||||||||||||||||||||||||||||||||||||||||||
2|06|079|8002|88101|3|X|170|105|5|||1|SLAMS|0145|California Air Resources Board|20180426|5.0|||||||||||||||||||||||||||||||||||||||||||||||
2|06|079|8002|88101|3|X|170|105|5|||1|SLAMS|0145|California Air Resources Board|20180427|2.5|||||||||||||||||||||||||||||||||||||||||||||||
2|06|079|8002|88101|3|X|170|105|5|||1|SLAMS|0145|California Air Resources Board|20180428|1.1|||||||||||||||||||||||||||||||||||||||||||||||
2|06|079|8002|88101|3|X|170|105|5|||1|SLAMS|0145|California Air Resources Board|20180429|1.0|||||||||||||||||||||||||||||||||||||||||||||||
2|06|079|8002|88101|3|X|170|105|5|||1|SLAMS|0145|California Air Resources Board|20180430|3.1|||||||||||||||||||||||||||||||||||||||||||||||
2|06|079|8002|88101|3|X|170|105|5|||1|SLAMS|0145|California Air Resources Board|20180501|5.1|||||||||||||||||||||||||||||||||||||||||||||||
2|06|079|8002|88101|3|X|170|105|5|||1|SLAMS|0145|California Air Resources Board|20180502|4.4|||||||||||||||||||||||||||||||||||||||||||||||
2|06|079|8002|88101|3|X|170|105|5|||1|SLAMS|0145|California Air Resources Board|20180503|2.7|||||||||||||||||||||||||||||||||||||||||||||||
2|06|079|8002|88101|3|X|170|105|5|||1|SLAMS|0145|California Air Resources Board|20180504|2.5|||||||||||||||||||||||||||||||||||||||||||||||
2|06|079|8002|88101|3|X|170|105|5|||1|SLAMS|0145|California Air Resources Board|20180505|3.2|||||||||||||||||||||||||||||||||||||||||||||||
2|06|079|8002|88101|3|X|170|105|5|||1|SLAMS|0145|California Air Resources Board|20180506|2.1|||||||||||||||||||||||||||||||||||||||||||||||
2|06|079|8002|88101|3|X|170|105|5|||1|SLAMS|0145|California Air Resources Board|20180507|.4|||||||||||||||||||||||||||||||||||||||||||||||
2|06|079|8002|88101|3|X|170|105|5|||1|SLAMS|0145|California Air Resources Board|20180508|.7|||||||||||||||||||||||||||||||||||||||||||||||
2|06|079|8002|88101|3|X|170|105|5|||1|SLAMS|0145|California Air Resources Board|20180509|.3|||||||||||||||||||||||||||||||||||||||||||||||
2|06|079|8002|88101|3|X|170|105|5|||1|SLAMS|0145|California Air Resources Board|20180510|2.7|||||||||||||||||||||||||||||||||||||||||||||||
2|06|079|8002|88101|3|X|170|105|5|||1|SLAMS|0145|California Air Resources Board|20180511|4.1|||||||||||||||||||||||||||||||||||||||||||||||
2|06|079|8002|88101|3|X|170|105|5|||1|SLAMS|0145|California Air Resources Board|20180512|4.4|||||||||||||||||||||||||||||||||||||||||||||||
2|06|079|8002|88101|3|X|170|105|5|||1|SLAMS|0145|California Air Resources Board|20180513|2.3|||||||||||||||||||||||||||||||||||||||||||||||
2|06|079|8002|88101|3|X|170|105|5|||1|SLAMS|0145|California Air Resources Board|20180514|1.7|||||||||||||||||||||||||||||||||||||||||||||||
2|06|079|8002|88101|3|X|170|105|5|||1|SLAMS|0145|California Air Resources Board|20180515|.2|||||||||||||||||||||||||||||||||||||||||||||||
2|06|079|8002|88101|3|X|170|105|5|||1|SLAMS|0145|California Air Resources Board|20180516|-1.0|||||||||||||||||||||||||||||||||||||||||||||||
2|06|079|8002|88101|3|X|170|105|5|||1|SLAMS|0145|California Air Resources Board|20180517|.9|||||||||||||||||||||||||||||||||||||||||||||||
2|06|079|8002|88101|3|X|170|105|5|||1|SLAMS|0145|California Air Resources Board|20180518|1.3|||||||||||||||||||||||||||||||||||||||||||||||
2|06|079|8002|88101|3|X|170|105|5|||1|SLAMS|0145|California Air Resources Board|20180519|1.7|||||||||||||||||||||||||||||||||||||||||||||||
2|06|079|8002|88101|3|X|170|105|5|||1|SLAMS|0145|California Air Resources Board|20180520|2.4|||||||||||||||||||||||||||||||||||||||||||||||
2|06|079|8002|88101|3|X|170|105|5|||1|SLAMS|0145|California Air Resources Board|20180521|3.2|||||||||||||||||||||||||||||||||||||||||||||||
2|06|079|8002|88101|3|X|170|105|5|||1|SLAMS|0145|California Air Resources Board|20180522|.6|||||||||||||||||||||||||||||||||||||||||||||||
2|06|079|8002|88101|3|X|170|105|5|||1|SLAMS|0145|California Air Resources Board|20180523|-.9|||||||||||||||||||||||||||||||||||||||||||||||
2|06|079|8002|88101|3|X|170|105|5|||1|SLAMS|0145|California Air Resources Board|20180524|-.4|||||||||||||||||||||||||||||||||||||||||||||||
2|06|079|8002|88101|3|X|170|105|5|||1|SLAMS|0145|California Air Resources Board|20180525|-.8|||||||||||||||||||||||||||||||||||||||||||||||
2|06|079|8002|88101|3|X|170|105|5|||1|SLAMS|0145|California Air Resources Board|20180526|.2|||||||||||||||||||||||||||||||||||||||||||||||
2|06|079|8002|88101|3|X|170|105|5|||1|SLAMS|0145|California Air Resources Board|20180527|2.6|||||||||||||||||||||||||||||||||||||||||||||||
2|06|079|8002|88101|3|X|170|105|5|||1|SLAMS|0145|California Air Resources Board|20180528|1.0|||||||||||||||||||||||||||||||||||||||||||||||
2|06|079|8002|88101|3|X|170|105|5|||1|SLAMS|0145|California Air Resources Board|20180529|.2|||||||||||||||||||||||||||||||||||||||||||||||
2|06|079|8002|88101|3|X|170|105|5|||1|SLAMS|0145|California Air Resources Board|20180530|.7|||||||||||||||||||||||||||||||||||||||||||||||
2|06|079|8002|88101|3|X|170|105|5|||1|SLAMS|0145|California Air Resources Board|20180531|2.9|||||||||||||||||||||||||||||||||||||||||||||||
2|06|079|8002|88101|3|X|170|105|5|||1|SLAMS|0145|California Air Resources Board|20180601|3.8|||||||||||||||||||||||||||||||||||||||||||||||
2|06|079|8002|88101|3|X|170|105|5|||1|SLAMS|0145|California Air Resources Board|20180602|2.9|||||||||||||||||||||||||||||||||||||||||||||||
2|06|079|8002|88101|3|X|170|105|5|||1|SLAMS|0145|California Air Resources Board|20180603|5.1|||||||||||||||||||||||||||||||||||||||||||||||
2|06|079|8002|88101|3|X|170|105|5|||1|SLAMS|0145|California Air Resources Board|20180604|5.3|||||||||||||||||||||||||||||||||||||||||||||||
2|06|079|8002|88101|3|X|170|105|5|||1|SLAMS|0145|California Air Resources Board|20180605|6.0|||||||||||||||||||||||||||||||||||||||||||||||
2|06|079|8002|88101|3|X|170|105|5|||1|SLAMS|0145|California Air Resources Board|20180606|4.6|||||||||||||||||||||||||||||||||||||||||||||||
2|06|079|8002|88101|3|X|170|105|5|||1|SLAMS|0145|California Air Resources Board|20180607|1.6|||||||||||||||||||||||||||||||||||||||||||||||
2|06|079|8002|88101|3|X|170|105|5|||1|SLAMS|0145|California Air Resources Board|20180608|4.2|||||||||||||||||||||||||||||||||||||||||||||||
2|06|079|8002|88101|3|X|170|105|5|||1|SLAMS|0145|California Air Resources Board|20180609|.7|||||||||||||||||||||||||||||||||||||||||||||||
2|06|079|8002|88101|3|X|170|105|5|||1|SLAMS|0145|California Air Resources Board|20180610|1.7|||||||||||||||||||||||||||||||||||||||||||||||
2|06|079|8002|88101|3|X|170|105|5|||1|SLAMS|0145|California Air Resources Board|20180611|2.2|||||||||||||||||||||||||||||||||||||||||||||||
2|06|079|8002|88101|3|X|170|105|5|||1|SLAMS|0145|California Air Resources Board|20180612|4.6|||||||||||||||||||||||||||||||||||||||||||||||
2|06|079|8002|88101|3|X|170|105|5|||1|SLAMS|0145|California Air Resources Board|20180613|5.3|||||||||||||||||||||||||||||||||||||||||||||||
2|06|079|8002|88101|3|X|170|105|5|||1|SLAMS|0145|California Air Resources Board|20180614|7.2|||||||||||||||||||||||||||||||||||||||||||||||
2|06|079|8002|88101|3|X|170|105|5|||1|SLAMS|0145|California Air Resources Board|20180615|3.3|||||||||||||||||||||||||||||||||||||||||||||||
2|06|079|8002|88101|3|X|170|105|5|||1|SLAMS|0145|California Air Resources Board|20180616|2.4|||||||||||||||||||||||||||||||||||||||||||||||
2|06|079|8002|88101|3|X|170|105|5|||1|SLAMS|0145|California Air Resources Board|20180617|4.6|||||||||||||||||||||||||||||||||||||||||||||||
2|06|079|8002|88101|3|X|170|105|5|||1|SLAMS|0145|California Air Resources Board|20180618|7.6|||||||||||||||||||||||||||||||||||||||||||||||
2|06|079|8002|88101|3|X|170|105|5|||1|SLAMS|0145|California Air Resources Board|20180619|4.3|||||||||||||||||||||||||||||||||||||||||||||||
2|06|079|8002|88101|3|X|170|105|5|||1|SLAMS|0145|California Air Resources Board|20180620|18.6|||||||||||||||||||||||||||||||||||||||||||||||
2|06|079|8002|88101|3|X|170|105|5|||1|SLAMS|0145|California Air Resources Board|20180621|11.4|||||||||||||||||||||||||||||||||||||||||||||||
2|06|079|8002|88101|3|X|170|105|5|||1|SLAMS|0145|California Air Resources Board|20180622|8.8|||||||||||||||||||||||||||||||||||||||||||||||
2|06|079|8002|88101|3|X|170|105|5|||1|SLAMS|0145|California Air Resources Board|20180623|8.5|||||||||||||||||||||||||||||||||||||||||||||||
2|06|079|8002|88101|3|X|170|105|5|||1|SLAMS|0145|California Air Resources Board|20180624|6.5|||||||||||||||||||||||||||||||||||||||||||||||
2|06|079|8002|88101|3|X|170|105|5|||1|SLAMS|0145|California Air Resources Board|20180625|7.3|||||||||||||||||||||||||||||||||||||||||||||||
2|06|079|8002|88101|3|X|170|105|5|||1|SLAMS|0145|California Air Resources Board|20180626|8.1|||||||||||||||||||||||||||||||||||||||||||||||
2|06|079|8002|88101|3|X|170|105|5|||1|SLAMS|0145|California Air Resources Board|20180627|8.9|||||||||||||||||||||||||||||||||||||||||||||||
2|06|079|8002|88101|3|X|170|105|5|||1|SLAMS|0145|California Air Resources Board|20180628|10.8|||||||||||||||||||||||||||||||||||||||||||||||
2|06|079|8002|88101|3|X|170|105|5|||1|SLAMS|0145|California Air Resources Board|20180629|11.2|||||||||||||||||||||||||||||||||||||||||||||||
2|06|079|8002|88101|3|X|170|105|5|||1|SLAMS|0145|California Air Resources Board|20180630|10.0|||||||||||||||||||||||||||||||||||||||||||||||
2|06|079|8002|88101|3|X|170|105|5|||1|SLAMS|0145|California Air Resources Board|20180701|9.4|||||||||||||||||||||||||||||||||||||||||||||||
2|06|079|8002|88101|3|X|170|105|5|||1|SLAMS|0145|California Air Resources Board|20180702|6.0|||||||||||||||||||||||||||||||||||||||||||||||
2|06|079|8002|88101|3|X|170|105|5|||1|SLAMS|0145|California Air Resources Board|20180703|4.0|||||||||||||||||||||||||||||||||||||||||||||||
2|06|079|8002|88101|3|X|170|105|5|||1|SLAMS|0145|California Air Resources Board|20180704|5.9|||||||||||||||||||||||||||||||||||||||||||||||
2|06|079|8002|88101|3|X|170|105|5|||1|SLAMS|0145|California Air Resources Board|20180705|7.0|||||||||||||||||||||||||||||||||||||||||||||||
2|06|079|8002|88101|3|X|170|105|5|||1|SLAMS|0145|California Air Resources Board|20180706|7.9|||||||||||||||||||||||||||||||||||||||||||||||
2|06|079|8002|88101|3|X|170|105|5|||1|SLAMS|0145|California Air Resources Board|20180707|8.1|||||||||||||||||||||||||||||||||||||||||||||||
2|06|079|8002|88101|3|X|170|105|5|||1|SLAMS|0145|California Air Resources Board|20180708|6.9|||||||||||||||||||||||||||||||||||||||||||||||
2|06|079|8002|88101|3|X|170|105|5|||1|SLAMS|0145|California Air Resources Board|20180709|5.9|||||||||||||||||||||||||||||||||||||||||||||||
2|06|079|8002|88101|3|X|170|105|5|||1|SLAMS|0145|California Air Resources Board|20180710|4.3|||||||||||||||||||||||||||||||||||||||||||||||
2|06|079|8002|88101|3|X|170|105|5|||1|SLAMS|0145|California Air Resources Board|20180711|6.3|||||||||||||||||||||||||||||||||||||||||||||||
2|06|079|8002|88101|3|X|170|105|5|||1|SLAMS|0145|California Air Resources Board|20180712|8.5|||||||||||||||||||||||||||||||||||||||||||||||
2|06|079|8002|88101|3|X|170|105|5|||1|SLAMS|0145|California Air Resources Board|20180713|6.7|||||||||||||||||||||||||||||||||||||||||||||||
2|06|079|8002|88101|3|X|170|105|5|||1|SLAMS|0145|California Air Resources Board|20180714|7.5|||||||||||||||||||||||||||||||||||||||||||||||
2|06|079|8002|88101|3|X|170|105|5|||1|SLAMS|0145|California Air Resources Board|20180715|6.0|||||||||||||||||||||||||||||||||||||||||||||||
2|06|079|8002|88101|3|X|170|105|5|||1|SLAMS|0145|California Air Resources Board|20180716|4.8|||||||||||||||||||||||||||||||||||||||||||||||
2|06|079|8002|88101|3|X|170|105|5|||1|SLAMS|0145|California Air Resources Board|20180717|6.2|||||||||||||||||||||||||||||||||||||||||||||||
2|06|079|8002|88101|3|X|170|105|5|||1|SLAMS|0145|California Air Resources Board|20180718|6.7|||||||||||||||||||||||||||||||||||||||||||||||
2|06|079|8002|88101|3|X|170|105|5|||1|SLAMS|0145|California Air Resources Board|20180719|8.4|||||||||||||||||||||||||||||||||||||||||||||||
2|06|079|8002|88101|3|X|170|105|5|||1|SLAMS|0145|California Air Resources Board|20180720|6.8|||||||||||||||||||||||||||||||||||||||||||||||
2|06|079|8002|88101|3|X|170|105|5|||1|SLAMS|0145|California Air Resources Board|20180721|5.3|||||||||||||||||||||||||||||||||||||||||||||||
2|06|079|8002|88101|3|X|170|105|5|||1|SLAMS|0145|California Air Resources Board|20180722|4.6|||||||||||||||||||||||||||||||||||||||||||||||
2|06|079|8002|88101|3|X|170|105|5|||1|SLAMS|0145|California Air Resources Board|20180723|7.3|||||||||||||||||||||||||||||||||||||||||||||||
2|06|079|8002|88101|3|X|170|105|5|||1|SLAMS|0145|California Air Resources Board|20180724|8.6|||||||||||||||||||||||||||||||||||||||||||||||
2|06|079|8002|88101|3|X|170|105|5|||1|SLAMS|0145|California Air Resources Board|20180725|7.9|||||||||||||||||||||||||||||||||||||||||||||||
2|06|079|8002|88101|3|X|170|105|5|||1|SLAMS|0145|California Air Resources Board|20180726|7.7|||||||||||||||||||||||||||||||||||||||||||||||
2|06|079|8002|88101|3|X|170|105|5|||1|SLAMS|0145|California Air Resources Board|20180727|9.6|||||||||||||||||||||||||||||||||||||||||||||||
2|06|079|8002|88101|3|X|170|105|5|||1|SLAMS|0145|California Air Resources Board|20180728|12.2|||||||||||||||||||||||||||||||||||||||||||||||
2|06|079|8002|88101|3|X|170|105|5|||1|SLAMS|0145|California Air Resources Board|20180729|10.5|||||||||||||||||||||||||||||||||||||||||||||||
2|06|079|8002|88101|3|X|170|105|5|||1|SLAMS|0145|California Air Resources Board|20180730|8.5|||||||||||||||||||||||||||||||||||||||||||||||
2|06|079|8002|88101|3|X|170|105|5|||1|SLAMS|0145|California Air Resources Board|20180731|6.9|||||||||||||||||||||||||||||||||||||||||||||||
2|06|079|8002|88101|3|X|170|105|5|||1|SLAMS|0145|California Air Resources Board|20180801|6.7|||||||||||||||||||||||||||||||||||||||||||||||
2|06|079|8002|88101|3|X|170|105|5|||1|SLAMS|0145|California Air Resources Board|20180802|7.0|||||||||||||||||||||||||||||||||||||||||||||||
2|06|079|8002|88101|3|X|170|105|5|||1|SLAMS|0145|California Air Resources Board|20180803|9.2|||||||||||||||||||||||||||||||||||||||||||||||
2|06|079|8002|88101|3|X|170|105|5|||1|SLAMS|0145|California Air Resources Board|20180804|11.0|||||||||||||||||||||||||||||||||||||||||||||||
2|06|079|8002|88101|3|X|170|105|5|||1|SLAMS|0145|California Air Resources Board|20180805|3.5|||||||||||||||||||||||||||||||||||||||||||||||
2|06|079|8002|88101|3|X|170|105|5|||1|SLAMS|0145|California Air Resources Board|20180806|14.5|||||||||||||||||||||||||||||||||||||||||||||||
2|06|079|8002|88101|3|X|170|105|5|||1|SLAMS|0145|California Air Resources Board|20180807|11.4|||||||||||||||||||||||||||||||||||||||||||||||
2|06|079|8002|88101|3|X|170|105|5|||1|SLAMS|0145|California Air Resources Board|20180808|12.8|||||||||||||||||||||||||||||||||||||||||||||||
2|06|079|8002|88101|3|X|170|105|5|||1|SLAMS|0145|California Air Resources Board|20180809|15.4|||||||||||||||||||||||||||||||||||||||||||||||
2|06|079|8002|88101|3|X|170|105|5|||1|SLAMS|0145|California Air Resources Board|20180810|10.4|||||||||||||||||||||||||||||||||||||||||||||||
2|06|079|8002|88101|3|X|170|105|5|||1|SLAMS|0145|California Air Resources Board|20180811|6.4|||||||||||||||||||||||||||||||||||||||||||||||
2|06|079|8002|88101|3|X|170|105|5|||1|SLAMS|0145|California Air Resources Board|20180812|6.8|||||||||||||||||||||||||||||||||||||||||||||||
2|06|079|8002|88101|3|X|170|105|5|||1|SLAMS|0145|California Air Resources Board|20180813|5.6|||||||||||||||||||||||||||||||||||||||||||||||
2|06|079|8002|88101|3|X|170|105|5|||1|SLAMS|0145|California Air Resources Board|20180814|5.7|||||||||||||||||||||||||||||||||||||||||||||||
2|06|079|8002|88101|3|X|170|105|5|||1|SLAMS|0145|California Air Resources Board|20180815|8.5|||||||||||||||||||||||||||||||||||||||||||||||
2|06|079|8002|88101|3|X|170|105|5|||1|SLAMS|0145|California Air Resources Board|20180816|10.3|||||||||||||||||||||||||||||||||||||||||||||||
2|06|079|8002|88101|3|X|170|105|5|||1|SLAMS|0145|California Air Resources Board|20180817|14.7|||||||||||||||||||||||||||||||||||||||||||||||
2|06|079|8002|88101|3|X|170|105|5|||1|SLAMS|0145|California Air Resources Board|20180818|7.9|||||||||||||||||||||||||||||||||||||||||||||||
2|06|079|8002|88101|3|X|170|105|5|||1|SLAMS|0145|California Air Resources Board|20180819|15.6|||||||||||||||||||||||||||||||||||||||||||||||
2|06|079|8002|88101|3|X|170|105|5|||1|SLAMS|0145|California Air Resources Board|20180820|20.6|||||||||||||||||||||||||||||||||||||||||||||||
2|06|079|8002|88101|3|X|170|105|5|||1|SLAMS|0145|California Air Resources Board|20180821|15.5|||||||||||||||||||||||||||||||||||||||||||||||
2|06|079|8002|88101|3|X|170|105|5|||1|SLAMS|0145|California Air Resources Board|20180822|16.6|||||||||||||||||||||||||||||||||||||||||||||||
2|06|079|8002|88101|3|X|170|105|5|||1|SLAMS|0145|California Air Resources Board|20180823|27.6|||||||||||||||||||||||||||||||||||||||||||||||
2|06|079|8002|88101|3|X|170|105|5|||1|SLAMS|0145|California Air Resources Board|20180824|34.1|||||||||||||||||||||||||||||||||||||||||||||||
2|06|079|8002|88101|3|X|170|105|5|||1|SLAMS|0145|California Air Resources Board|20180825|22.1|||||||||||||||||||||||||||||||||||||||||||||||
2|06|079|8002|88101|3|X|170|105|5|||1|SLAMS|0145|California Air Resources Board|20180826|12.0|||||||||||||||||||||||||||||||||||||||||||||||
2|06|079|8002|88101|3|X|170|105|5|||1|SLAMS|0145|California Air Resources Board|20180827|8.3|||||||||||||||||||||||||||||||||||||||||||||||
2|06|079|8002|88101|3|X|170|105|5|||1|SLAMS|0145|California Air Resources Board|20180828|8.4|||||||||||||||||||||||||||||||||||||||||||||||
2|06|079|8002|88101|3|X|170|105|5|||1|SLAMS|0145|California Air Resources Board|20180829|6.4|||||||||||||||||||||||||||||||||||||||||||||||
2|06|079|8002|88101|3|X|170|105|5|||1|SLAMS|0145|California Air Resources Board|20180830|10.1|||||||||||||||||||||||||||||||||||||||||||||||
2|06|079|8002|88101|3|X|170|105|5|||1|SLAMS|0145|California Air Resources Board|20180831|10.7|||||||||||||||||||||||||||||||||||||||||||||||
2|06|079|8002|88101|3|X|170|105|5|||1|SLAMS|0145|California Air Resources Board|20180901|8.5|||||||||||||||||||||||||||||||||||||||||||||||
2|06|079|8002|88101|3|X|170|105|5|||1|SLAMS|0145|California Air Resources Board|20180902|10.5|||||||||||||||||||||||||||||||||||||||||||||||
2|06|079|8002|88101|3|X|170|105|5|||1|SLAMS|0145|California Air Resources Board|20180903|7.8|||||||||||||||||||||||||||||||||||||||||||||||
2|06|079|8002|88101|3|X|170|105|5|||1|SLAMS|0145|California Air Resources Board|20180904|7.4|||||||||||||||||||||||||||||||||||||||||||||||
2|06|079|8002|88101|3|X|170|105|5|||1|SLAMS|0145|California Air Resources Board|20180905|6.7|||||||||||||||||||||||||||||||||||||||||||||||
2|06|079|8002|88101|3|X|170|105|5|||1|SLAMS|0145|California Air Resources Board|20180906|7.4|||||||||||||||||||||||||||||||||||||||||||||||
2|06|079|8002|88101|3|X|170|105|5|||1|SLAMS|0145|California Air Resources Board|20180907|8.5|||||||||||||||||||||||||||||||||||||||||||||||
2|06|079|8002|88101|3|X|170|105|5|||1|SLAMS|0145|California Air Resources Board|20180908|6.3|||||||||||||||||||||||||||||||||||||||||||||||
2|06|079|8002|88101|3|X|170|105|5|||1|SLAMS|0145|California Air Resources Board|20180909|6.5|||||||||||||||||||||||||||||||||||||||||||||||
2|06|079|8002|88101|3|X|170|105|5|||1|SLAMS|0145|California Air Resources Board|20180910|8.1|||||||||||||||||||||||||||||||||||||||||||||||
2|06|079|8002|88101|3|X|170|105|5|||1|SLAMS|0145|California Air Resources Board|20180911|7.1|||||||||||||||||||||||||||||||||||||||||||||||
2|06|079|8002|88101|3|X|170|105|5|||1|SLAMS|0145|California Air Resources Board|20180912|7.4|||||||||||||||||||||||||||||||||||||||||||||||
2|06|079|8002|88101|3|X|170|105|5|||1|SLAMS|0145|California Air Resources Board|20180913|5.0|||||||||||||||||||||||||||||||||||||||||||||||
2|06|079|8002|88101|3|X|170|105|5|||1|SLAMS|0145|California Air Resources Board|20180914|6.1|||||||||||||||||||||||||||||||||||||||||||||||
2|06|079|8002|88101|3|X|170|105|5|||1|SLAMS|0145|California Air Resources Board|20180915|4.2|||||||||||||||||||||||||||||||||||||||||||||||
2|06|079|8002|88101|3|X|170|105|5|||1|SLAMS|0145|California Air Resources Board|20180916|3.8|||||||||||||||||||||||||||||||||||||||||||||||
2|06|079|8002|88101|3|X|170|105|5|||1|SLAMS|0145|California Air Resources Board|20180917|4.8|||||||||||||||||||||||||||||||||||||||||||||||
2|06|079|8002|88101|3|X|170|105|5|||1|SLAMS|0145|California Air Resources Board|20180918|6.4|||||||||||||||||||||||||||||||||||||||||||||||
2|06|079|8002|88101|3|X|170|105|5|||1|SLAMS|0145|California Air Resources Board|20180919|7.7|||||||||||||||||||||||||||||||||||||||||||||||
2|06|079|8002|88101|3|X|170|105|5|||1|SLAMS|0145|California Air Resources Board|20180920|7.4|||||||||||||||||||||||||||||||||||||||||||||||
2|06|079|8002|88101|3|X|170|105|5|||1|SLAMS|0145|California Air Resources Board|20180921|8.7|||||||||||||||||||||||||||||||||||||||||||||||
2|06|079|8002|88101|3|X|170|105|5|||1|SLAMS|0145|California Air Resources Board|20180922|8.4|||||||||||||||||||||||||||||||||||||||||||||||
2|06|079|8002|88101|3|X|170|105|5|||1|SLAMS|0145|California Air Resources Board|20180923|5.6|||||||||||||||||||||||||||||||||||||||||||||||
2|06|079|8002|88101|3|X|170|105|5|||1|SLAMS|0145|California Air Resources Board|20180924|7.0|||||||||||||||||||||||||||||||||||||||||||||||
2|06|079|8002|88101|3|X|170|105|5|||1|SLAMS|0145|California Air Resources Board|20180925|9.8|||||||||||||||||||||||||||||||||||||||||||||||
2|06|079|8002|88101|3|X|170|105|5|||1|SLAMS|0145|California Air Resources Board|20180926|10.0|||||||||||||||||||||||||||||||||||||||||||||||
2|06|079|8002|88101|3|X|170|105|5|||1|SLAMS|0145|California Air Resources Board|20180927|7.5|||||||||||||||||||||||||||||||||||||||||||||||
2|06|079|8002|88101|3|X|170|105|5|||1|SLAMS|0145|California Air Resources Board|20180928|7.9|||||||||||||||||||||||||||||||||||||||||||||||
2|06|079|8002|88101|3|X|170|105|5|||1|SLAMS|0145|California Air Resources Board|20180929|6.0|||||||||||||||||||||||||||||||||||||||||||||||
2|06|079|8002|88101|3|X|170|105|5|||1|SLAMS|0145|California Air Resources Board|20180930|5.2|||||||||||||||||||||||||||||||||||||||||||||||
2|06|079|8002|88101|3|X|170|105|5|||1|SLAMS|0145|California Air Resources Board|20181001|4.7|||||||||||||||||||||||||||||||||||||||||||||||
2|06|079|8002|88101|3|X|170|105|5|||1|SLAMS|0145|California Air Resources Board|20181002|3.5|||||||||||||||||||||||||||||||||||||||||||||||
2|06|079|8002|88101|3|X|170|105|5|||1|SLAMS|0145|California Air Resources Board|20181003|4.2|||||||||||||||||||||||||||||||||||||||||||||||
2|06|079|8002|88101|3|X|170|105|5|||1|SLAMS|0145|California Air Resources Board|20181004|1.5|||||||||||||||||||||||||||||||||||||||||||||||
2|06|079|8002|88101|3|X|170|105|5|||1|SLAMS|0145|California Air Resources Board|20181005|5.8|||||||||||||||||||||||||||||||||||||||||||||||
2|06|079|8002|88101|3|X|170|105|5|||1|SLAMS|0145|California Air Resources Board|20181006|4.3|||||||||||||||||||||||||||||||||||||||||||||||
2|06|079|8002|88101|3|X|170|105|5|||1|SLAMS|0145|California Air Resources Board|20181007|5.4|||||||||||||||||||||||||||||||||||||||||||||||
2|06|079|8002|88101|3|X|170|105|5|||1|SLAMS|0145|California Air Resources Board|20181008|7.0|||||||||||||||||||||||||||||||||||||||||||||||
2|06|079|8002|88101|3|X|170|105|5|||1|SLAMS|0145|California Air Resources Board|20181009|9.1|||||||||||||||||||||||||||||||||||||||||||||||
2|06|079|8002|88101|3|X|170|105|5|||1|SLAMS|0145|California Air Resources Board|20181010|6.6|||||||||||||||||||||||||||||||||||||||||||||||
2|06|079|8002|88101|3|X|170|105|5|||1|SLAMS|0145|California Air Resources Board|20181011|5.8|||||||||||||||||||||||||||||||||||||||||||||||
2|06|079|8002|88101|3|X|170|105|5|||1|SLAMS|0145|California Air Resources Board|20181012|6.3|||||||||||||||||||||||||||||||||||||||||||||||
2|06|079|8002|88101|3|X|170|105|5|||1|SLAMS|0145|California Air Resources Board|20181013|6.7|||||||||||||||||||||||||||||||||||||||||||||||
2|06|079|8002|88101|3|X|170|105|5|||1|SLAMS|0145|California Air Resources Board|20181014|6.4|||||||||||||||||||||||||||||||||||||||||||||||
2|06|079|8002|88101|3|X|170|105|5|||1|SLAMS|0145|California Air Resources Board|20181015|6.4|||||||||||||||||||||||||||||||||||||||||||||||
2|06|079|8002|88101|3|X|170|105|5|||1|SLAMS|0145|California Air Resources Board|20181016|7.5|||||||||||||||||||||||||||||||||||||||||||||||
2|06|079|8002|88101|3|X|170|105|5|||1|SLAMS|0145|California Air Resources Board|20181017|6.8|||||||||||||||||||||||||||||||||||||||||||||||
2|06|079|8002|88101|3|X|170|105|5|||1|SLAMS|0145|California Air Resources Board|20181018|7.7|||||||||||||||||||||||||||||||||||||||||||||||
2|06|079|8002|88101|3|X|170|105|5|||1|SLAMS|0145|California Air Resources Board|20181019|8.4|||||||||||||||||||||||||||||||||||||||||||||||
2|06|079|8002|88101|3|X|170|105|5|||1|SLAMS|0145|California Air Resources Board|20181020|7.3|||||||||||||||||||||||||||||||||||||||||||||||
2|06|079|8002|88101|3|X|170|105|5|||1|SLAMS|0145|California Air Resources Board|20181021|8.1|||||||||||||||||||||||||||||||||||||||||||||||
2|06|079|8002|88101|3|X|170|105|5|||1|SLAMS|0145|California Air Resources Board|20181022|9.0|||||||||||||||||||||||||||||||||||||||||||||||
2|06|079|8002|88101|3|X|170|105|5|||1|SLAMS|0145|California Air Resources Board|20181023|8.0|||||||||||||||||||||||||||||||||||||||||||||||
2|06|079|8002|88101|3|X|170|105|5|||1|SLAMS|0145|California Air Resources Board|20181024|11.1|||||||||||||||||||||||||||||||||||||||||||||||
2|06|079|8002|88101|3|X|170|105|5|||1|SLAMS|0145|California Air Resources Board|20181025|7.2|||||||||||||||||||||||||||||||||||||||||||||||
2|06|079|8002|88101|3|X|170|105|5|||1|SLAMS|0145|California Air Resources Board|20181026|8.7|||||||||||||||||||||||||||||||||||||||||||||||
2|06|079|8002|88101|3|X|170|105|5|||1|SLAMS|0145|California Air Resources Board|20181027|8.2|||||||||||||||||||||||||||||||||||||||||||||||
2|06|079|8002|88101|3|X|170|105|5|||1|SLAMS|0145|California Air Resources Board|20181028|3.4|||||||||||||||||||||||||||||||||||||||||||||||
2|06|079|8002|88101|3|X|170|105|5|||1|SLAMS|0145|California Air Resources Board|20181103|5.6|||||||||||||||||||||||||||||||||||||||||||||||
2|06|079|8002|88101|3|X|170|105|5|||1|SLAMS|0145|California Air Resources Board|20181104|3.4|||||||||||||||||||||||||||||||||||||||||||||||
2|06|079|8002|88101|3|X|170|105|5|||1|SLAMS|0145|California Air Resources Board|20181105|2.8|||||||||||||||||||||||||||||||||||||||||||||||
2|06|079|8002|88101|3|X|170|105|5|||1|SLAMS|0145|California Air Resources Board|20181106|3.6|||||||||||||||||||||||||||||||||||||||||||||||
2|06|079|8002|88101|3|X|170|105|5|||1|SLAMS|0145|California Air Resources Board|20181107|6.7|||||||||||||||||||||||||||||||||||||||||||||||
2|06|079|8002|88101|3|X|170|105|5|||1|SLAMS|0145|California Air Resources Board|20181108|7.6|||||||||||||||||||||||||||||||||||||||||||||||
2|06|079|8002|88101|3|X|170|105|5|||1|SLAMS|0145|California Air Resources Board|20181109|10.0|||||||||||||||||||||||||||||||||||||||||||||||
2|06|079|8002|88101|3|X|170|105|5|||1|SLAMS|0145|California Air Resources Board|20181110|13.0|||||||||||||||||||||||||||||||||||||||||||||||
2|06|079|8002|88101|3|X|170|105|5|||1|SLAMS|0145|California Air Resources Board|20181111|19.0|||||||||||||||||||||||||||||||||||||||||||||||
2|06|079|8002|88101|3|X|170|105|5|||1|SLAMS|0145|California Air Resources Board|20181112|15.0|||||||||||||||||||||||||||||||||||||||||||||||
2|06|079|8002|88101|3|X|170|105|5|||1|SLAMS|0145|California Air Resources Board|20181113|9.5|||||||||||||||||||||||||||||||||||||||||||||||
2|06|079|8002|88101|3|X|170|105|5|||1|SLAMS|0145|California Air Resources Board|20181114|11.5|||||||||||||||||||||||||||||||||||||||||||||||
2|06|079|8002|88101|3|X|170|105|5|||1|SLAMS|0145|California Air Resources Board|20181115|12.9|||||||||||||||||||||||||||||||||||||||||||||||
2|06|079|8002|88101|3|X|170|105|5|||1|SLAMS|0145|California Air Resources Board|20181116|10.0|||||||||||||||||||||||||||||||||||||||||||||||
2|06|079|8002|88101|3|X|170|105|5|||1|SLAMS|0145|California Air Resources Board|20181117|18.0|||||||||||||||||||||||||||||||||||||||||||||||
2|06|079|8002|88101|3|X|170|105|5|||1|SLAMS|0145|California Air Resources Board|20181118|21.9|||||||||||||||||||||||||||||||||||||||||||||||
2|06|079|8002|88101|3|X|170|105|5|||1|SLAMS|0145|California Air Resources Board|20181119|19.1|||||||||||||||||||||||||||||||||||||||||||||||
2|06|079|8002|88101|3|X|170|105|5|||1|SLAMS|0145|California Air Resources Board|20181120|10.8|||||||||||||||||||||||||||||||||||||||||||||||
2|06|079|8002|88101|3|X|170|105|5|||1|SLAMS|0145|California Air Resources Board|20181121|4.0|||||||||||||||||||||||||||||||||||||||||||||||
2|06|079|8002|88101|3|X|170|105|5|||1|SLAMS|0145|California Air Resources Board|20181122|.9|||||||||||||||||||||||||||||||||||||||||||||||
2|06|079|8002|88101|3|X|170|105|5|||1|SLAMS|0145|California Air Resources Board|20181123|2.2|||||||||||||||||||||||||||||||||||||||||||||||
2|06|079|8002|88101|3|X|170|105|5|||1|SLAMS|0145|California Air Resources Board|20181124|.4|||||||||||||||||||||||||||||||||||||||||||||||
2|06|079|8002|88101|3|X|170|105|5|||1|SLAMS|0145|California Air Resources Board|20181125|2.2|||||||||||||||||||||||||||||||||||||||||||||||
2|06|079|8002|88101|3|X|170|105|5|||1|SLAMS|0145|California Air Resources Board|20181126|3.5|||||||||||||||||||||||||||||||||||||||||||||||
2|06|079|8002|88101|3|X|170|105|5|||1|SLAMS|0145|California Air Resources Board|20181127|2.5|||||||||||||||||||||||||||||||||||||||||||||||
2|06|079|8002|88101|3|X|170|105|5|||1|SLAMS|0145|California Air Resources Board|20181128|.0|||||||||||||||||||||||||||||||||||||||||||||||
2|06|079|8002|88101|3|X|170|105|5|||1|SLAMS|0145|California Air Resources Board|20181129|-.2|||||||||||||||||||||||||||||||||||||||||||||||
2|06|079|8002|88101|3|X|170|105|5|||1|SLAMS|0145|California Air Resources Board|20181130|4.4|||||||||||||||||||||||||||||||||||||||||||||||
2|06|079|8002|88101|3|X|170|105|5|||1|SLAMS|0145|California Air Resources Board|20181201|4.1|||||||||||||||||||||||||||||||||||||||||||||||
2|06|079|8002|88101|3|X|170|105|5|||1|SLAMS|0145|California Air Resources Board|20181202|2.3|||||||||||||||||||||||||||||||||||||||||||||||
2|06|079|8002|88101|3|X|170|105|5|||1|SLAMS|0145|California Air Resources Board|20181203|6.7|||||||||||||||||||||||||||||||||||||||||||||||
2|06|079|8002|88101|3|X|170|105|5|||1|SLAMS|0145|California Air Resources Board|20181204|5.8|||||||||||||||||||||||||||||||||||||||||||||||
2|06|079|8002|88101|3|X|170|105|5|||1|SLAMS|0145|California Air Resources Board|20181205|1.2|||||||||||||||||||||||||||||||||||||||||||||||
2|06|079|8002|88101|3|X|170|105|5|||1|SLAMS|0145|California Air Resources Board|20181206|5.2|||||||||||||||||||||||||||||||||||||||||||||||
2|06|079|8002|88101|3|X|170|105|5|||1|SLAMS|0145|California Air Resources Board|20181207|9.8|||||||||||||||||||||||||||||||||||||||||||||||
2|06|079|8002|88101|3|X|170|105|5|||1|SLAMS|0145|California Air Resources Board|20181208|13.6|||||||||||||||||||||||||||||||||||||||||||||||
2|06|079|8002|88101|3|X|170|105|5|||1|SLAMS|0145|California Air Resources Board|20181209|13.8|||||||||||||||||||||||||||||||||||||||||||||||
2|06|079|8002|88101|3|X|170|105|5|||1|SLAMS|0145|California Air Resources Board|20181210|8.9|||||||||||||||||||||||||||||||||||||||||||||||
2|06|079|8002|88101|3|X|170|105|5|||1|SLAMS|0145|California Air Resources Board|20181211|12.1|||||||||||||||||||||||||||||||||||||||||||||||
2|06|079|8002|88101|3|X|170|105|5|||1|SLAMS|0145|California Air Resources Board|20181212|12.1|||||||||||||||||||||||||||||||||||||||||||||||
2|06|079|8002|88101|3|X|170|105|5|||1|SLAMS|0145|California Air Resources Board|20181213|16.3|||||||||||||||||||||||||||||||||||||||||||||||
2|06|079|8002|88101|3|X|170|105|5|||1|SLAMS|0145|California Air Resources Board|20181214|8.8|||||||||||||||||||||||||||||||||||||||||||||||
2|06|079|8002|88101|3|X|170|105|5|||1|SLAMS|0145|California Air Resources Board|20181215|10.7|||||||||||||||||||||||||||||||||||||||||||||||
2|06|079|8002|88101|3|X|170|105|5|||1|SLAMS|0145|California Air Resources Board|20181216|4.7|||||||||||||||||||||||||||||||||||||||||||||||
2|06|079|8002|88101|3|X|170|105|5|||1|SLAMS|0145|California Air Resources Board|20181217|4.6|||||||||||||||||||||||||||||||||||||||||||||||
2|06|079|8002|88101|3|X|170|105|5|||1|SLAMS|0145|California Air Resources Board|20181218|2.7|||||||||||||||||||||||||||||||||||||||||||||||
2|06|079|8002|88101|3|X|170|105|5|||1|SLAMS|0145|California Air Resources Board|20181219|6.0|||||||||||||||||||||||||||||||||||||||||||||||
2|06|079|8002|88101|3|X|170|105|5|||1|SLAMS|0145|California Air Resources Board|20181220|9.2|||||||||||||||||||||||||||||||||||||||||||||||
2|06|079|8002|88101|3|X|170|105|5|||1|SLAMS|0145|California Air Resources Board|20181221|6.5|||||||||||||||||||||||||||||||||||||||||||||||
2|06|079|8002|88101|3|X|170|105|5|||1|SLAMS|0145|California Air Resources Board|20181222|6.5|||||||||||||||||||||||||||||||||||||||||||||||
2|06|079|8002|88101|3|X|170|105|5|||1|SLAMS|0145|California Air Resources Board|20181223|14.4|||||||||||||||||||||||||||||||||||||||||||||||
2|06|079|8002|88101|3|X|170|105|5|||1|SLAMS|0145|California Air Resources Board|20181224|11.0|||||||||||||||||||||||||||||||||||||||||||||||
2|06|079|8002|88101|3|X|170|105|5|||1|SLAMS|0145|California Air Resources Board|20181225|3.9|||||||||||||||||||||||||||||||||||||||||||||||
2|06|079|8002|88101|3|X|170|105|5|||1|SLAMS|0145|California Air Resources Board|20181226|5.9|||||||||||||||||||||||||||||||||||||||||||||||
2|06|079|8002|88101|3|X|170|105|5|||1|SLAMS|0145|California Air Resources Board|20181227|6.4|||||||||||||||||||||||||||||||||||||||||||||||
2|06|079|8002|88101|3|X|170|105|5|||1|SLAMS|0145|California Air Resources Board|20181228|5.9|||||||||||||||||||||||||||||||||||||||||||||||
2|06|079|8002|88101|3|X|170|105|5|||1|SLAMS|0145|California Air Resources Board|20181229|13.3|||||||||||||||||||||||||||||||||||||||||||||||
2|06|079|8002|88101|3|X|170|105|5|||1|SLAMS|0145|California Air Resources Board|20181230|14.3|||||||||||||||||||||||||||||||||||||||||||||||
2|06|079|8002|88101|3|X|170|105|5|||1|SLAMS|0145|California Air Resources Board|20181231|10.2|||||||||||||||||||||||||||||||||||||||||||||||
# 1394 records written to the file
